ModelForces
version=1
nRows=51
nColumns=66
inDegrees=no

This file contains the forces exerted on a model during a simulation.

A force is a generalized force, meaning that it can be either a force (N) or a torque (Nm).

Units are S.I. units (second, meters, Newtons, ...)
If the header above contains a line with 'inDegrees', this indicates whether rotational values are in degrees (yes) or radians (no).

endheader
time	biceplongus_r	biceplongus_l	bicepbrevis_r	bicepbrevis_l	triceplong_1_r	triceplong_1_l	triceplong_2_r	triceplong_2_l	triceplong_3_r	triceplong_3_l	triceplat_1_r	triceplat_1_l	triceplat_2_r	triceplat_2_l	triceplat_3_r	triceplat_3_l	tricepmed_1_r	tricepmed_1_l	tricepmed_2_r	tricepmed_2_l	tricepmed_3_r	tricepmed_3_l	tricepmed_4_r	tricepmed_4_l	brachiorad_1_r	brachiorad_1_l	brachiorad_2_r	brachiorad_2_l	brachialis_1_r	brachialis_1_l	brachialis_2_r	brachialis_2_l	brachialis_3_r	brachialis_3_l	brachialis_4_r	brachialis_4_l	flex_carpi_rad_r	flex_carpi_rad_l	palmaris_longus_r	palmaris_longus_l	flex_carpi_ulna_r	flex_carpi_ulna_l	exten_carpi_ulna_r	exten_carpi_ulna_l	exten_carpi_rad_lon_r	exten_carpi_rad_lon_l	exten_carpi_rad_bre_r	exten_carpi_rad_bre_l	lumbar_ext	lumbar_bend	lumbar_rot	shoulder_flex_r	shoulder_add_r	shoulder_rot_r	elbow_flex_r	pro_sup_r	wrist_flex_r	wrist_dev_r	shoulder_flex_l	shoulder_add_l	shoulder_rot_l	elbow_flex_l	pro_sup_l	wrist_flex_l	wrist_dev_l
      0.00000000	      0.00000000	      0.00000000	      0.00000000	      0.00000000	      0.00000000	      0.00000000	      0.00000000	      0.00000000	      0.00000000	      0.00000000	      0.00000000	      0.00000000	      0.00000000	      0.00000000	      5.94095505	     10.58092479	     22.07907514	    786.16925624	     23.26518287	    746.27485371	     10.71567457	    455.27699493	      2.37908713	     95.41718839	      0.00000000	      0.00000000	      0.00000000	      0.00000000	     17.80067235	     55.13736869	     23.14445651	      9.56085531	     13.87071324	      7.48003090	     21.75109938	    355.55011890	      0.00000000	      0.00000000	      0.00000000	      0.00000000	      0.00000000	      0.00000000	      0.00000000	      0.00000000	      0.00000000	      0.00000000	      0.00000000	      0.00000000	     -0.00000000	     -0.00000000	     -0.00000000	     -0.00000000	     -0.00000000	      0.00000000	     -0.00000000	     -0.00000000	     -0.00000000	     -0.00000000	   -222.79736859	    -21.34203251	     25.08976672	     -5.75409856	     25.32634359	      0.66170353	     34.73894647
      0.00400000	      0.00000000	      0.00000000	      0.00000000	      0.00000000	      0.00000000	      0.00000000	      0.00000000	      0.00000000	      0.00000000	      0.00000000	      0.00000000	      0.00000000	      0.00000000	      0.00000000	      3.28363609	      0.85101806	     12.20336584	      9.39291643	     12.85894160	      7.94943614	      5.92268001	      6.66499038	      1.31494958	      3.09064423	      0.00000000	      0.00000000	      0.00000000	      0.00000000	      9.83864204	      6.50331460	     12.79221472	      9.41178570	      7.66650718	      4.66339061	     12.02208976	      7.65612990	      0.00000000	      0.00000000	      0.00000000	      0.00000000	      0.00000000	      0.00000000	      0.00000000	      0.00000000	      0.00000000	      0.00000000	      0.00000000	      0.00000000	      0.00000000	     -0.00000000	     -0.00000000	      0.00000000	     -0.00000000	     -0.00000000	      0.00000000	     -0.00000000	      0.00000000	      0.00000000	     52.04308795	     -7.04672040	     -7.37991676	     22.82803801	     -3.43126657	      0.36237291	    -10.65557111
      0.00800000	      0.00000000	      0.00000000	      0.00000000	      0.00000000	      0.00000000	      0.00000000	      0.00000000	      0.00000000	      0.00000000	      0.00000000	      0.00000000	      0.00000000	      0.00000000	      0.00000000	      3.27051423	      0.85686705	     12.15459951	      9.44784341	     12.80755550	      7.99665875	      5.89901217	      6.70377278	      1.30969486	      3.10863970	      0.00000000	      0.00000000	      0.00000000	      0.00000000	      9.79932548	      6.51524800	     12.74109527	      9.42914103	      7.63587077	      4.67285074	     11.97404784	      7.69999071	      0.00000000	      0.00000000	      0.00000000	      0.00000000	      0.00000000	      0.00000000	      0.00000000	      0.00000000	      0.00000000	      0.00000000	      0.00000000	      0.00000000	     -0.00000000	     -0.00000000	     -0.00000000	     -0.00000000	      0.00000000	     -0.00000000	     -0.00000000	     -0.00000000	     -0.00000000	     -0.00000000	     23.04648350	     15.26525747	     -1.11941972	     19.96785389	     -0.71725805	      5.23779057	     -7.13086889
      0.01200000	      0.00000000	      0.00000000	      0.00000000	      0.00000000	      0.00000000	      0.00000000	      0.00000000	      0.00000000	      0.00000000	      0.00000000	      0.00000000	      0.00000000	      0.00000000	      0.00000000	      3.37027149	      0.85477287	     12.52533926	      9.45236123	     13.19821173	      8.00131345	      6.07894391	      6.70811988	      1.34964319	      3.10980635	      0.00000000	      0.00000000	      0.00000000	      0.00000000	     10.09822463	      6.50473774	     13.12972432	      9.41569659	      7.86878019	      4.66114394	     12.33928040	      7.70053179	      0.00000000	      0.00000000	      0.00000000	      0.00000000	      0.00000000	      0.00000000	      0.00000000	      0.00000000	      0.00000000	      0.00000000	      0.00000000	      0.00000000	     -0.00000000	     -0.00000000	      0.00000000	     -0.00000000	     -0.00000000	      0.00000000	      0.00000000	     -0.00000000	      0.00000000	      0.00000000	     99.41996265	    -24.38079528	    -15.98164490	     35.36839587	     -7.74008915	     -3.55596669	    -17.55701244
      0.01600000	      0.00000000	      0.00000000	      0.00000000	      0.00000000	      0.00000000	      0.00000000	      0.00000000	      0.00000000	      0.00000000	      0.00000000	      0.00000000	      0.00000000	      0.00000000	      0.00000000	      5.78765274	      7.35372406	     21.50933962	    494.39593052	     22.66484065	    501.73226089	     10.43916387	    298.12679644	      2.31769640	     62.39487546	      0.00000000	      0.00000000	      0.00000000	      0.00000000	     17.34133811	     31.42152597	     22.54722955	      9.57251030	     13.51278892	      6.33478228	     21.18982705	    193.99335153	      0.00000000	      0.00000000	      0.00000000	      0.00000000	      0.00000000	      0.00000000	      0.00000000	      0.00000000	      0.00000000	      0.00000000	      0.00000000	      0.00000000	      0.00000000	      0.00000000	      0.00000000	      0.00000000	      0.00000000	     -0.00000000	      0.00000000	      0.00000000	     -0.00000000	      0.00000000	   -184.70834533	     25.61813295	     26.87870986	     -4.30228173	     21.12704813	      9.65867659	     26.09044782
      0.02000000	      0.00000000	      0.00000000	      0.00000000	      0.00000000	      0.00000000	      0.00000000	      0.00000000	      0.00000000	      0.00000000	      0.00000000	      0.00000000	      0.00000000	      0.00000000	      0.00000000	      3.18014455	      0.84501504	     11.81874796	      9.38156758	     12.45366171	      7.94296088	      5.73601277	      6.66178293	      1.27350584	      3.08860882	      0.00000000	      0.00000000	      0.00000000	      0.00000000	      9.52855402	      6.48050874	     12.38903788	      9.37453107	      7.42487911	      4.63753474	     11.64318523	      7.63815921	      0.00000000	      0.00000000	      0.00000000	      0.00000000	      0.00000000	      0.00000000	      0.00000000	      0.00000000	      0.00000000	      0.00000000	      0.00000000	      0.00000000	     -0.00000000	     -0.00000000	      0.00000000	     -0.00000000	     -0.00000000	     -0.00000000	      0.00000000	      0.00000000	      0.00000000	      0.00000000	    333.28743285	    -22.61172198	    -43.69375062	    130.64741519	    -22.05730210	     -6.40176970	    -55.27867069
      0.02400000	      0.00000000	      0.00000000	      0.00000000	      0.00000000	      0.00000000	      0.00000000	      0.00000000	      0.00000000	      0.00000000	      0.00000000	      0.00000000	      0.00000000	      0.00000000	      0.00000000	      5.30999941	     17.60565700	     19.73417995	    966.90993211	     20.79431780	    817.27213762	      9.57762265	    685.27982779	      2.12641758	    158.74456200	      0.00000000	      0.00000000	      0.00000000	      0.00000000	     15.91016241	     82.04806511	     20.68641311	      9.57539683	     12.39758230	      5.27983094	     19.44103666	    565.72809695	      0.00000000	      0.00000000	      0.00000000	      0.00000000	      0.00000000	      0.00000000	      0.00000000	      0.00000000	      0.00000000	      0.00000000	      0.00000000	      0.00000000	      0.00000000	      0.00000000	     -0.00000000	      0.00000000	      0.00000000	      0.00000000	      0.00000000	     -0.00000000	      0.00000000	     -0.00000000	   -381.90337234	     62.23868137	     55.90323104	     -9.52873426	     43.30381178	     19.34459271	     56.28347965
      0.02800000	      0.00000000	      0.00000000	      0.00000000	      0.00000000	      0.00000000	      0.00000000	      0.00000000	      0.00000000	      0.00000000	      0.00000000	      0.00000000	      0.00000000	      0.00000000	      0.00000000	      3.18069983	      0.81333473	     11.82081163	      9.03573857	     12.45583623	      7.66796912	      5.73701433	      6.43322700	      1.27372821	      2.98676161	      0.00000000	      0.00000000	      0.00000000	      0.00000000	      9.53021779	      6.41560512	     12.39120112	      9.22253127	      7.42617557	      4.57878004	     11.64521824	      7.33762839	      0.00000000	      0.00000000	      0.00000000	      0.00000000	      0.00000000	      0.00000000	      0.00000000	      0.00000000	      0.00000000	      0.00000000	      0.00000000	      0.00000000	      0.00000000	      0.00000000	     -0.00000000	     -0.00000000	     -0.00000000	     -0.00000000	      0.00000000	     -0.00000000	     -0.00000000	     -0.00000000	    364.81099531	    -55.70528924	    -53.17484276	    131.19737019	    -26.69095545	    -12.79081009	    -59.29428918
      0.03200000	      0.00000000	      0.00000000	      0.00000000	      0.00000000	      0.00000000	      0.00000000	      0.00000000	      0.00000000	      0.00000000	      0.00000000	      0.00000000	      0.00000000	      0.00000000	      0.00000000	      3.39005592	      0.94502042	     12.59886648	     10.57054831	     13.27568889	      8.90111437	      6.11462900	      7.47693933	      1.35756597	      3.46237398	      0.00000000	      0.00000000	      0.00000000	      0.00000000	     10.15750401	      6.73134850	     13.20679945	      9.94527332	      7.91497212	      4.85883406	     12.41171540	      8.64131060	      0.00000000	      0.00000000	      0.00000000	      0.00000000	      0.00000000	      0.00000000	      0.00000000	      0.00000000	      0.00000000	      0.00000000	      0.00000000	      0.00000000	     -0.00000000	      0.00000000	      0.00000000	     -0.00000000	     -0.00000000	      0.00000000	      0.00000000	     -0.00000000	     -0.00000000	     -0.00000000	   1394.82527128	   -229.91468380	   -206.40802345	    479.66924206	   -104.34301422	    -60.62512480	   -216.99083319
      0.03600000	      0.00000000	      0.00000000	      0.00000000	      0.00000000	      0.00000000	      0.00000000	      0.00000000	      0.00000000	      0.00000000	      0.00000000	      0.00000000	      0.00000000	      0.00000000	      0.00000000	      5.68050779	     91.79352513	     21.11114413	   1051.47208918	     22.24525374	    883.20346660	     10.24590699	    747.24088189	      2.27478964	    348.02235577	      0.00000000	      0.00000000	      0.00000000	      0.00000000	     17.02030349	    670.57688431	     22.12981994	    990.86286089	     13.26263100	    483.33273596	     20.79754660	    859.12771418	      0.00000000	      0.00000000	      0.00000000	      0.00000000	      0.00000000	      0.00000000	      0.00000000	      0.00000000	      0.00000000	      0.00000000	      0.00000000	      0.00000000	      0.00000000	     -0.00000000	      0.00000000	     -0.00000000	      0.00000000	     -0.00000000	      0.00000000	      0.00000000	     -0.00000000	     -0.00000000	  -1326.62848881	    226.50270117	    199.37251963	   -277.58817292	    122.84407480	     70.77070836	    196.66734459
      0.04000000	      0.00000000	      0.00000000	      0.00000000	      0.00000000	      0.00000000	      0.00000000	      0.00000000	      0.00000000	      0.00000000	      0.00000000	      0.00000000	      0.00000000	      0.00000000	      0.00000000	      6.03492129	     79.49107894	     22.42829303	    906.26127639	     23.63316106	    767.14368357	     10.88516107	    648.14053983	      2.41671641	    302.58151351	      0.00000000	      0.00000000	      0.00000000	      0.00000000	     18.08222007	    641.16312453	     23.51052521	    922.84550944	     14.09010201	    456.77978240	     22.09512978	    732.71844239	      0.00000000	      0.00000000	      0.00000000	      0.00000000	      0.00000000	      0.00000000	      0.00000000	      0.00000000	      0.00000000	      0.00000000	      0.00000000	      0.00000000	     -0.00000000	     -0.00000000	     -0.00000000	     -0.00000000	     -0.00000000	     -0.00000000	     -0.00000000	      0.00000000	     -0.00000000	     -0.00000000	   -455.02576251	      1.72267783	     56.43453104	    -41.05896514	     49.10269820	      9.25847754	     72.06902464
      0.04400000	      0.00000000	      0.00000000	      0.00000000	      0.00000000	      0.00000000	      0.00000000	      0.00000000	      0.00000000	      0.00000000	      0.00000000	      0.00000000	      0.00000000	      0.00000000	      0.00000000	      3.20430541	      0.82560621	     11.90853985	      9.46712753	     12.54827730	      7.97399370	      5.77959162	      6.74964512	      1.28318119	      3.14975826	      0.00000000	      0.00000000	      0.00000000	      0.00000000	      9.60094636	      6.49110724	     12.48316249	      9.44088717	      7.48128897	      4.64989574	     11.73164329	      7.70368825	      0.00000000	      0.00000000	      0.00000000	      0.00000000	      0.00000000	      0.00000000	      0.00000000	      0.00000000	      0.00000000	      0.00000000	      0.00000000	      0.00000000	      0.00000000	      0.00000000	     -0.00000000	      0.00000000	      0.00000000	     -0.00000000	      0.00000000	      0.00000000	     -0.00000000	     -0.00000000	    619.60075158	      4.83908024	    -75.85847435	    261.47996938	    -38.73904949	     -5.04168765	   -105.48937970
      0.04800000	      0.00000000	      0.00000000	      0.00000000	      0.00000000	      0.00000000	      0.00000000	      0.00000000	      0.00000000	      0.00000000	      0.00000000	      0.00000000	      0.00000000	      0.00000000	      0.00000000	      4.82946581	     85.88060789	     17.94831599	    977.45408297	     18.91251563	    826.33515655	      8.71088630	    697.72684152	      1.93398534	    325.29104873	      0.00000000	      0.00000000	      0.00000000	      0.00000000	     14.47035667	    653.54695124	     18.81437589	    946.42915842	     11.27565094	    467.11973474	     17.68170099	    791.94597656	      0.00000000	      0.00000000	      0.00000000	      0.00000000	      0.00000000	      0.00000000	      0.00000000	      0.00000000	      0.00000000	      0.00000000	      0.00000000	      0.00000000	      0.00000000	      0.00000000	      0.00000000	      0.00000000	      0.00000000	      0.00000000	     -0.00000000	     -0.00000000	     -0.00000000	     -0.00000000	   -535.32029138	    -55.76230290	     57.05032164	    -90.38915391	     51.25549678	     -2.59211092	     90.64841684
      0.05200000	      0.00000000	      0.00000000	      0.00000000	      0.00000000	      0.00000000	      0.00000000	      0.00000000	      0.00000000	      0.00000000	      0.00000000	      0.00000000	      0.00000000	      0.00000000	      0.00000000	      3.18501224	      0.73985357	     11.83683834	      8.59561408	     12.47272392	      7.22259215	      5.74479261	      6.13811282	      1.27545513	      2.87322467	      0.00000000	      0.00000000	      0.00000000	      0.00000000	      9.54313891	      6.34438241	     12.40800117	      9.20575695	      7.43624401	      4.54240164	     11.66100688	      7.00328776	      0.00000000	      0.00000000	      0.00000000	      0.00000000	      0.00000000	      0.00000000	      0.00000000	      0.00000000	      0.00000000	      0.00000000	      0.00000000	      0.00000000	      0.00000000	     -0.00000000	      0.00000000	     -0.00000000	     -0.00000000	     -0.00000000	     -0.00000000	      0.00000000	     -0.00000000	     -0.00000000	    414.69170184	     70.08827632	    -39.51585777	    205.40555945	    -20.52458847	     11.59189311	    -76.57605301
      0.05600000	      0.00000000	      0.00000000	      0.00000000	      0.00000000	      0.00000000	      0.00000000	      0.00000000	      0.00000000	      0.00000000	      0.00000000	      0.00000000	      0.00000000	      0.00000000	      0.00000000	      3.18509474	      0.97701228	     11.83714496	     11.12583730	     12.47304701	      9.40629446	      5.74494142	      7.94174771	      1.27548817	      3.70189561	      0.00000000	      0.00000000	      0.00000000	      0.00000000	      9.54338611	      6.90826241	     12.40832259	     10.01294990	      7.43643664	      4.93466497	     11.66130895	      9.01093288	      0.00000000	      0.00000000	      0.00000000	      0.00000000	      0.00000000	      0.00000000	      0.00000000	      0.00000000	      0.00000000	      0.00000000	      0.00000000	      0.00000000	      0.00000000	      0.00000000	      0.00000000	     -0.00000000	      0.00000000	     -0.00000000	     -0.00000000	      0.00000000	      0.00000000	     -0.00000000	    829.72971881	    349.57961148	    -46.36254767	    502.55063051	    -26.95695433	     67.90846141	   -169.60614720
      0.06000000	      0.00000000	      0.00000000	      0.00000000	      0.00000000	      0.00000000	      0.00000000	      0.00000000	      0.00000000	      0.00000000	      0.00000000	      0.00000000	      0.00000000	      0.00000000	      0.00000000	      5.20502272	     92.11647843	     19.34404264	   1111.00338968	     20.38322196	    934.43939302	      9.38827666	    800.48589142	      2.08437911	    377.40127620	      0.00000000	      0.00000000	      0.00000000	      0.00000000	     15.59562449	    688.83916403	     20.27745051	   1000.29384712	     12.15248676	    491.80491903	     19.05669468	    895.49826286	      0.00000000	      0.00000000	      0.00000000	      0.00000000	      0.00000000	      0.00000000	      0.00000000	      0.00000000	      0.00000000	      0.00000000	      0.00000000	      0.00000000	      0.00000000	     -0.00000000	     -0.00000000	     -0.00000000	      0.00000000	      0.00000000	      0.00000000	     -0.00000000	     -0.00000000	      0.00000000	   -839.37192675	   -367.12725303	     45.41252633	   -335.60446665	     49.75411728	    -65.51509917	    166.61406995
      0.06400000	      0.00000000	      0.00000000	      0.00000000	      0.00000000	      0.00000000	      0.00000000	      0.00000000	      0.00000000	      0.00000000	      0.00000000	      0.00000000	      0.00000000	      0.00000000	      0.00000000	      4.90294639	     18.41450764	     18.22140059	    849.99960648	     19.20027058	    710.31972528	      8.84342291	    612.96347237	      1.96341103	    261.82042931	      0.00000000	      0.00000000	      0.00000000	      0.00000000	     14.69052393	    257.26664828	     19.10063763	    202.98808533	     11.44721058	     93.04826054	     17.95072903	    688.63983968	      0.00000000	      0.00000000	      0.00000000	      0.00000000	      0.00000000	      0.00000000	      0.00000000	      0.00000000	      0.00000000	      0.00000000	      0.00000000	      0.00000000	     -0.00000000	      0.00000000	     -0.00000000	     -0.00000000	     -0.00000000	      0.00000000	      0.00000000	     -0.00000000	     -0.00000000	     -0.00000000	   -231.62746663	    -82.50935232	     15.59341635	    -11.46336204	     23.90404167	    -12.59248797	     42.84537772
      0.06800000	      0.00000000	      0.00000000	      0.00000000	      0.00000000	      0.00000000	      0.00000000	      0.00000000	      0.00000000	      0.00000000	      0.00000000	      0.00000000	      0.00000000	      0.00000000	      0.00000000	      3.18023339	      0.81160921	     11.81907815	      9.82158057	     12.45400963	      8.25239589	      5.73617302	      7.07892833	      1.27354142	      3.34108132	      0.00000000	      0.00000000	      0.00000000	      0.00000000	      9.52882022	      6.53732675	     12.38938400	      9.49361945	      7.42508655	      4.67338460	     11.64351051	      7.92227708	      0.00000000	      0.00000000	      0.00000000	      0.00000000	      0.00000000	      0.00000000	      0.00000000	      0.00000000	      0.00000000	      0.00000000	      0.00000000	      0.00000000	     -0.00000000	     -0.00000000	      0.00000000	      0.00000000	     -0.00000000	     -0.00000000	     -0.00000000	      0.00000000	      0.00000000	     -0.00000000	    312.19293641	    115.42228761	    -20.01111541	    184.38951330	    -10.56275484	     23.01701107	    -63.78426115
      0.07200000	      0.00000000	      0.00000000	      0.00000000	      0.00000000	      0.00000000	      0.00000000	      0.00000000	      0.00000000	      0.00000000	      0.00000000	      0.00000000	      0.00000000	      0.00000000	      0.00000000	      4.65663370	     10.38870896	     17.30599953	    930.43806310	     18.23569335	    780.19038417	      8.39914978	    610.75569077	      1.86477380	    133.31796441	      0.00000000	      0.00000000	      0.00000000	      0.00000000	     13.95250595	     99.13568349	     18.14106573	      9.85773409	     10.87212917	     21.04959961	     17.04892588	    536.66131265	      0.00000000	      0.00000000	      0.00000000	      0.00000000	      0.00000000	      0.00000000	      0.00000000	      0.00000000	      0.00000000	      0.00000000	      0.00000000	      0.00000000	     -0.00000000	     -0.00000000	     -0.00000000	     -0.00000000	     -0.00000000	     -0.00000000	      0.00000000	      0.00000000	      0.00000000	      0.00000000	   -201.56522713	    -77.82762353	     12.26355529	     -6.08314287	     20.39824643	    -12.55542817	     38.01157052
      0.07600000	      0.00000000	      0.00000000	      0.00000000	      0.00000000	      0.00000000	      0.00000000	      0.00000000	      0.00000000	      0.00000000	      0.00000000	      0.00000000	      0.00000000	      0.00000000	      0.00000000	      3.17959336	      0.78024838	     11.81669953	      9.49814320	     12.45150324	      7.96998373	      5.73501860	      6.84924863	      1.27328512	      3.23693290	      0.00000000	      0.00000000	      0.00000000	      0.00000000	      9.52690252	      6.48474972	     12.38689061	      9.41694726	      7.42359223	      4.63711044	     11.64116723	      7.66715456	      0.00000000	      0.00000000	      0.00000000	      0.00000000	      0.00000000	      0.00000000	      0.00000000	      0.00000000	      0.00000000	      0.00000000	      0.00000000	      0.00000000	     -0.00000000	      0.00000000	      0.00000000	      0.00000000	     -0.00000000	     -0.00000000	     -0.00000000	     -0.00000000	      0.00000000	     -0.00000000	    190.30862465	     70.87070269	    -11.28773181	    115.58061895	     -5.58526566	     15.83864860	    -40.63145574
      0.08000000	      0.00000000	      0.00000000	      0.00000000	      0.00000000	      0.00000000	      0.00000000	      0.00000000	      0.00000000	      0.00000000	      0.00000000	      0.00000000	      0.00000000	      0.00000000	      0.00000000	      5.19602912	      7.33194437	     19.31061866	    778.38607129	     20.34800242	    646.76266614	      9.37205494	    433.68904247	      2.08077757	     94.71074228	      0.00000000	      0.00000000	      0.00000000	      0.00000000	     15.56867729	     69.86122202	     20.24241373	     12.79138311	     12.13148885	     19.34072714	     19.02376720	    393.61424959	      0.00000000	      0.00000000	      0.00000000	      0.00000000	      0.00000000	      0.00000000	      0.00000000	      0.00000000	      0.00000000	      0.00000000	      0.00000000	      0.00000000	     -0.00000000	     -0.00000000	     -0.00000000	     -0.00000000	     -0.00000000	     -0.00000000	     -0.00000000	     -0.00000000	     -0.00000000	     -0.00000000	   -140.66530869	    -73.99684176	      3.33177844	     -3.92705848	     12.30876501	    -13.32146249	     28.17748510
      0.08400000	      0.00000000	      0.00000000	      0.00000000	      0.00000000	      0.00000000	      0.00000000	      0.00000000	      0.00000000	      0.00000000	      0.00000000	      0.00000000	      0.00000000	      0.00000000	      0.00000000	      3.18162467	      0.75623627	     11.82424871	      9.26553294	     12.45945796	      7.76608302	      5.73868246	      6.68557401	      1.27409856	      3.16335518	      0.00000000	      0.00000000	      0.00000000	      0.00000000	      9.53298885	      6.44524304	     12.39480406	      9.35950083	      7.42833484	      4.60880343	     11.64860427	      7.48221213	      0.00000000	      0.00000000	      0.00000000	      0.00000000	      0.00000000	      0.00000000	      0.00000000	      0.00000000	      0.00000000	      0.00000000	      0.00000000	      0.00000000	      0.00000000	     -0.00000000	     -0.00000000	      0.00000000	     -0.00000000	      0.00000000	      0.00000000	     -0.00000000	     -0.00000000	     -0.00000000	    221.96263602	     95.86688170	     -8.78898042	    142.22967766	     -3.75242577	     22.52061334	    -49.39402747
      0.08800000	      0.00000000	      0.00000000	      0.00000000	      0.00000000	      0.00000000	      0.00000000	      0.00000000	      0.00000000	      0.00000000	      0.00000000	      0.00000000	      0.00000000	      0.00000000	      0.00000000	      4.82718959	     21.66663244	     17.93985662	   1007.93499087	     18.90360181	    846.85006373	      8.70678070	    727.09943977	      1.93307381	    299.38089502	      0.00000000	      0.00000000	      0.00000000	      0.00000000	     14.46353652	    230.21966974	     18.80550832	    206.44916076	     11.27033651	     85.68208969	     17.67336728	    812.22257226	      0.00000000	      0.00000000	      0.00000000	      0.00000000	      0.00000000	      0.00000000	      0.00000000	      0.00000000	      0.00000000	      0.00000000	      0.00000000	      0.00000000	      0.00000000	     -0.00000000	      0.00000000	     -0.00000000	     -0.00000000	     -0.00000000	     -0.00000000	      0.00000000	      0.00000000	      0.00000000	   -217.70415149	   -125.74165740	      1.47010154	     -9.18706494	     17.96992088	    -25.29008792	     46.76170235
      0.09200000	      0.00000000	      0.00000000	      0.00000000	      0.00000000	      0.00000000	      0.00000000	      0.00000000	      0.00000000	      0.00000000	      0.00000000	      0.00000000	      0.00000000	      0.00000000	      0.00000000	      3.17975511	      0.65899980	     11.81730066	      8.24051800	     12.45213666	      6.87602330	      5.73531035	      5.95475493	      1.27334989	      2.82902860	      0.00000000	      0.00000000	      0.00000000	      0.00000000	      9.52738717	      6.27219730	     12.38752074	      9.10330794	      7.42396988	      4.48629620	     11.64175942	      6.67149461	      0.00000000	      0.00000000	      0.00000000	      0.00000000	      0.00000000	      0.00000000	      0.00000000	      0.00000000	      0.00000000	      0.00000000	      0.00000000	      0.00000000	      0.00000000	      0.00000000	      0.00000000	      0.00000000	     -0.00000000	      0.00000000	     -0.00000000	     -0.00000000	     -0.00000000	      0.00000000	    212.83066158	    117.80795131	     -2.69833409	    147.60522345	     -0.46314049	     27.20250355	    -49.41014996
      0.09600000	      0.00000000	      0.00000000	      0.00000000	      0.00000000	      0.00000000	      0.00000000	      0.00000000	      0.00000000	      0.00000000	      0.00000000	      0.00000000	      0.00000000	      0.00000000	      0.00000000	      3.18905897	      0.93201976	     11.85187770	     11.41582800	     12.48857120	      9.58446560	      5.75209168	      8.24297582	      1.27707567	      3.89795367	      0.00000000	      0.00000000	      0.00000000	      0.00000000	      9.55526399	      7.08615899	     12.42376622	     10.31044148	      7.44569217	      5.06073782	     11.67582283	      9.19638454	      0.00000000	      0.00000000	      0.00000000	      0.00000000	      0.00000000	      0.00000000	      0.00000000	      0.00000000	      0.00000000	      0.00000000	      0.00000000	      0.00000000	      0.00000000	      0.00000000	      0.00000000	      0.00000000	      0.00000000	     -0.00000000	      0.00000000	     -0.00000000	     -0.00000000	      0.00000000	    870.25900853	    471.11533092	    -12.74310789	    589.51725969	     -3.39229287	    104.00050298	   -195.49528676
      0.10000000	      0.00000000	      0.00000000	      0.00000000	      0.00000000	      0.00000000	      0.00000000	      0.00000000	      0.00000000	      0.00000000	      0.00000000	      0.00000000	      0.00000000	      0.00000000	      0.00000000	      5.41202961	     84.82526730	     20.11336685	   1140.23587820	     21.19387497	    950.01529649	      9.76165407	    834.66420178	      2.16727612	    401.29346985	      0.00000000	      0.00000000	      0.00000000	      0.00000000	     16.21587186	    705.94096013	     21.08389692	   1029.55558642	     12.63579847	    503.67870217	     19.81459090	    911.89016510	      0.00000000	      0.00000000	      0.00000000	      0.00000000	      0.00000000	      0.00000000	      0.00000000	      0.00000000	      0.00000000	      0.00000000	      0.00000000	      0.00000000	      0.00000000	     -0.00000000	     -0.00000000	     -0.00000000	      0.00000000	     -0.00000000	     -0.00000000	      0.00000000	     -0.00000000	     -0.00000000	   -888.96796939	   -538.69825646	      4.96535680	   -445.14321627	     23.27955581	   -110.67274104	    198.55091834
      0.10400000	      0.00000000	      0.00000000	      0.00000000	      0.00000000	      0.00000000	      0.00000000	      0.00000000	      0.00000000	      0.00000000	      0.00000000	      0.00000000	      0.00000000	      0.00000000	      0.00000000	      4.97410181	      1.93664316	     18.48584391	    207.78381316	     19.47892003	    164.40010198	      8.97176563	    118.36109598	      1.99190560	     27.20832299	      0.00000000	      0.00000000	      0.00000000	      0.00000000	     14.90372438	     26.99595426	     19.37784113	     18.21941760	     11.61334151	     12.18909796	     18.21124415	    105.46961276	      0.00000000	      0.00000000	      0.00000000	      0.00000000	      0.00000000	      0.00000000	      0.00000000	      0.00000000	      0.00000000	      0.00000000	      0.00000000	      0.00000000	      0.00000000	     -0.00000000	      0.00000000	     -0.00000000	     -0.00000000	      0.00000000	      0.00000000	      0.00000000	      0.00000000	     -0.00000000	    -45.36383781	     -8.56333922	      3.11922676	     -1.40221613	      3.96006602	     -1.82137637	      8.62177601
      0.10800000	      0.00000000	      0.00000000	      0.00000000	      0.00000000	      0.00000000	      0.00000000	      0.00000000	      0.00000000	      0.00000000	      0.00000000	      0.00000000	      0.00000000	      0.00000000	      0.00000000	      3.41803108	      0.76931923	     12.70283388	     10.29723389	     13.38524152	      8.58348434	      6.16508767	      7.54111090	      1.36876877	      3.62813090	      0.00000000	      0.00000000	      0.00000000	      0.00000000	     10.24132499	      6.62437253	     13.31578359	      9.64304044	      7.98028744	      4.73561930	     12.51413841	      8.23141272	      0.00000000	      0.00000000	      0.00000000	      0.00000000	      0.00000000	      0.00000000	      0.00000000	      0.00000000	      0.00000000	      0.00000000	      0.00000000	      0.00000000	     -0.00000000	     -0.00000000	      0.00000000	     -0.00000000	      0.00000000	     -0.00000000	      0.00000000	      0.00000000	      0.00000000	      0.00000000	     55.15722214	     -6.06885288	     -7.54384423	     29.56516441	     -2.92462387	      3.07533491	    -14.19048109
      0.11200000	      0.00000000	      0.00000000	      0.00000000	      0.00000000	      0.00000000	      0.00000000	      0.00000000	      0.00000000	      0.00000000	      0.00000000	      0.00000000	      0.00000000	      0.00000000	      0.00000000	      3.39054923	      0.62305803	     12.60069983	      8.56521411	     13.27762073	      7.09536519	      6.11551878	      6.27897738	      1.35776352	      3.03414321	      0.00000000	      0.00000000	      0.00000000	      0.00000000	     10.15898210	      6.31780060	     13.20872126	      9.19402622	      7.91612388	      4.51616925	     12.41352151	      6.86899579	      0.00000000	      0.00000000	      0.00000000	      0.00000000	      0.00000000	      0.00000000	      0.00000000	      0.00000000	      0.00000000	      0.00000000	      0.00000000	      0.00000000	      0.00000000	      0.00000000	     -0.00000000	     -0.00000000	      0.00000000	      0.00000000	     -0.00000000	     -0.00000000	      0.00000000	     -0.00000000	    109.66814592	     51.41622619	     -4.31031403	     71.92161330	     -1.66799328	     11.34881664	    -24.61512848
      0.11600000	      0.00000000	      0.00000000	      0.00000000	      0.00000000	      0.00000000	      0.00000000	      0.00000000	      0.00000000	      0.00000000	      0.00000000	      0.00000000	      0.00000000	      0.00000000	      0.00000000	      3.18021595	      0.81004335	     11.81901333	     10.93657294	     12.45394133	      9.11340653	      5.73614156	      8.01335630	      1.27353444	      3.85575671	      0.00000000	      0.00000000	      0.00000000	      0.00000000	      9.52876796	      6.79137482	     12.38931605	      9.89347320	      7.42504582	      4.84600515	     11.64344665	      8.73724236	      0.00000000	      0.00000000	      0.00000000	      0.00000000	      0.00000000	      0.00000000	      0.00000000	      0.00000000	      0.00000000	      0.00000000	      0.00000000	      0.00000000	     -0.00000000	      0.00000000	      0.00000000	     -0.00000000	      0.00000000	     -0.00000000	     -0.00000000	     -0.00000000	     -0.00000000	      0.00000000	    334.01837950	    451.18742240	     41.56691376	    321.04758817	     19.42721812	     83.03071733	    -82.36242327
      0.12000000	      0.00000000	      0.00000000	      0.00000000	      0.00000000	      0.00000000	      0.00000000	      0.00000000	      0.00000000	      0.00000000	      0.00000000	      0.00000000	      0.00000000	      0.00000000	      0.00000000	      4.42387499	     67.50938526	     16.44097078	    950.97891265	     17.32419448	    789.18036066	      7.97932392	    700.58684461	      1.77156433	    339.57798676	      0.00000000	      0.00000000	      0.00000000	      0.00000000	     13.25509933	    645.82200635	     17.23429676	    940.00332424	     10.32869310	    460.78720773	     16.19674679	    757.70481488	      0.00000000	      0.00000000	      0.00000000	      0.00000000	      0.00000000	      0.00000000	      0.00000000	      0.00000000	      0.00000000	      0.00000000	      0.00000000	      0.00000000	      0.00000000	      0.00000000	      0.00000000	     -0.00000000	      0.00000000	     -0.00000000	     -0.00000000	      0.00000000	      0.00000000	      0.00000000	   -294.07482609	   -460.26082639	    -48.23550056	   -154.31491931	     -1.57817973	    -80.31303829	     70.68683782
      0.12400000	      0.00000000	      0.00000000	      0.00000000	      0.00000000	      0.00000000	      0.00000000	      0.00000000	      0.00000000	      0.00000000	      0.00000000	      0.00000000	      0.00000000	      0.00000000	      0.00000000	      3.25156072	      0.80140460	     12.08416034	     11.25351244	     12.73333227	      9.34425751	      5.86482580	      8.28659920	      1.30210483	      4.01299476	      0.00000000	      0.00000000	      0.00000000	      0.00000000	      9.74253575	      6.95202958	     12.66725719	     10.15927696	      7.59161884	      4.96220186	     11.90465501	      8.97287657	      0.00000000	      0.00000000	      0.00000000	      0.00000000	      0.00000000	      0.00000000	      0.00000000	      0.00000000	      0.00000000	      0.00000000	      0.00000000	      0.00000000	      0.00000000	     -0.00000000	      0.00000000	     -0.00000000	      0.00000000	     -0.00000000	     -0.00000000	      0.00000000	      0.00000000	     -0.00000000	    454.43511853	     67.99956125	    -39.58489238	    258.94968898	    -15.14916781	     32.00082037	   -105.69425194
      0.12800000	      0.00000000	      0.00000000	      0.00000000	      0.00000000	      0.00000000	      0.00000000	      0.00000000	      0.00000000	      0.00000000	      0.00000000	      0.00000000	      0.00000000	      0.00000000	      0.00000000	      4.82648934	     46.85610392	     17.93725417	   1130.77123586	     18.90085956	    932.70657463	      8.70551765	    842.59409099	      1.93279339	    413.92944104	      0.00000000	      0.00000000	      0.00000000	      0.00000000	     14.46143837	    696.59197261	     18.80278030	   1004.95721363	     11.26870158	    308.48639879	     17.67080349	    895.61095071	      0.00000000	      0.00000000	      0.00000000	      0.00000000	      0.00000000	      0.00000000	      0.00000000	      0.00000000	      0.00000000	      0.00000000	      0.00000000	      0.00000000	      0.00000000	     -0.00000000	      0.00000000	      0.00000000	      0.00000000	      0.00000000	     -0.00000000	      0.00000000	     -0.00000000	     -0.00000000	   -324.71057653	    -55.41607640	     26.94629996	    -24.12310681	     32.10645031	    -26.05849429	     77.79318765
      0.13200000	      0.00000000	      0.00000000	      0.00000000	      0.00000000	      0.00000000	      0.00000000	      0.00000000	      0.00000000	      0.00000000	      0.00000000	      0.00000000	      0.00000000	      0.00000000	      0.00000000	      4.88681946	     54.43362927	     18.16146616	    859.78406766	     19.13711642	    704.59981789	      8.81433483	    640.86905844	      1.95695291	    316.11538469	      0.00000000	      0.00000000	      0.00000000	      0.00000000	     14.64220337	    630.12092991	     19.03781118	    921.18061188	     11.40955803	    449.93458513	     17.89168490	    683.32087671	      0.00000000	      0.00000000	      0.00000000	      0.00000000	      0.00000000	      0.00000000	      0.00000000	      0.00000000	      0.00000000	      0.00000000	      0.00000000	      0.00000000	     -0.00000000	      0.00000000	      0.00000000	      0.00000000	     -0.00000000	     -0.00000000	      0.00000000	     -0.00000000	      0.00000000	      0.00000000	   -421.09305549	   -100.02570575	     34.33705207	    -91.21024764	     31.67059594	    -14.75816842	     79.96661409
      0.13600000	      0.00000000	      0.00000000	      0.00000000	      0.00000000	      0.00000000	      0.00000000	      0.00000000	      0.00000000	      0.00000000	      0.00000000	      0.00000000	      0.00000000	      0.00000000	      0.00000000	      3.20551294	      0.57022983	     11.91302752	      8.91463397	     12.55300605	      7.34133569	      5.78176963	      6.65552383	      1.28366475	      3.27959281	      0.00000000	      0.00000000	      0.00000000	      0.00000000	      9.60456443	      6.34610870	     12.48786671	      9.22651977	      7.48410826	      4.52074879	     11.73606430	      7.03453455	      0.00000000	      0.00000000	      0.00000000	      0.00000000	      0.00000000	      0.00000000	      0.00000000	      0.00000000	      0.00000000	      0.00000000	      0.00000000	      0.00000000	      0.00000000	      0.00000000	      0.00000000	      0.00000000	      0.00000000	     -0.00000000	      0.00000000	      0.00000000	      0.00000000	      0.00000000	    471.27980913	    128.50704668	    -36.22590197	    263.60184590	    -14.20168002	     24.76560631	    -95.80809419
      0.14000000	      0.00000000	      0.00000000	      0.00000000	      0.00000000	      0.00000000	      0.00000000	      0.00000000	      0.00000000	      0.00000000	      0.00000000	      0.00000000	      0.00000000	      0.00000000	      0.00000000	      5.44088752	      0.72229799	     20.22061493	     11.21520687	     21.30688451	      9.23643622	      9.81370496	      8.35712528	      2.17883242	      4.10921748	      0.00000000	      0.00000000	      0.00000000	      0.00000000	     16.30233779	      6.93120692	     21.19632004	     10.22624479	     12.70317481	      4.96038523	     19.92024585	      8.90217961	      0.00000000	      0.00000000	      0.00000000	      0.00000000	      0.00000000	      0.00000000	      0.00000000	      0.00000000	      0.00000000	      0.00000000	      0.00000000	      0.00000000	     -0.00000000	     -0.00000000	      0.00000000	     -0.00000000	      0.00000000	     -0.00000000	      0.00000000	     -0.00000000	      0.00000000	      0.00000000	    564.13414178	   -213.00991986	   -115.83247143	    148.43034802	    -49.10989034	    -56.32761244	    -80.48996977
      0.14400000	      0.00000000	      0.00000000	      0.00000000	      0.00000000	      0.00000000	      0.00000000	      0.00000000	      0.00000000	      0.00000000	      0.00000000	      0.00000000	      0.00000000	      0.00000000	      0.00000000	      5.64648318	     39.34972546	     20.98469446	   1124.54498282	     22.11201107	    920.74753683	     10.18453696	    846.81140105	      2.26116430	    421.71719196	      0.00000000	      0.00000000	      0.00000000	      0.00000000	     16.91835677	    666.72495365	     21.99726869	    460.76091241	     13.18319166	    235.80256300	     20.67297528	      8.29171178	      0.00000000	      0.00000000	      0.00000000	      0.00000000	      0.00000000	      0.00000000	      0.00000000	      0.00000000	      0.00000000	      0.00000000	      0.00000000	      0.00000000	      0.00000000	      0.00000000	      0.00000000	      0.00000000	      0.00000000	     -0.00000000	      0.00000000	      0.00000000	      0.00000000	     -0.00000000	   -578.67321716	    190.31899744	    114.85366495	    -27.21001014	     61.80856457	     56.98064760	     79.51139287
      0.14800000	      0.00000000	      0.00000000	      0.00000000	      0.00000000	      0.00000000	      0.00000000	      0.00000000	      0.00000000	      0.00000000	      0.00000000	      0.00000000	      0.00000000	      0.00000000	      0.00000000	      5.42207737	     32.42383590	     20.15070853	    847.01519358	     21.23322267	    691.93342565	      9.77977717	    639.29541746	      2.17129980	    319.59444294	      0.00000000	      0.00000000	      0.00000000	      0.00000000	     16.24597760	    625.81109797	     21.12304045	    911.29528766	     12.65925759	    441.87872843	     19.85137788	    714.99019260	      0.00000000	      0.00000000	      0.00000000	      0.00000000	      0.00000000	      0.00000000	      0.00000000	      0.00000000	      0.00000000	      0.00000000	      0.00000000	      0.00000000	     -0.00000000	     -0.00000000	     -0.00000000	     -0.00000000	     -0.00000000	     -0.00000000	     -0.00000000	     -0.00000000	     -0.00000000	     -0.00000000	   -270.94423012	    -86.06227763	     19.39964954	    -35.49703962	     23.45349228	     -8.83668904	     49.24417495
      0.15200000	      0.00000000	      0.00000000	      0.00000000	      0.00000000	      0.00000000	      0.00000000	      0.00000000	      0.00000000	      0.00000000	      0.00000000	      0.00000000	      0.00000000	      0.00000000	      0.00000000	      3.18305864	      0.56399660	     11.82957795	      9.67404183	     12.46507349	      7.91080585	      5.74126891	      7.28972945	      1.27467281	      3.63585192	      0.00000000	      0.00000000	      0.00000000	      0.00000000	      9.53728541	      6.46877919	     12.40039044	      9.48311839	      7.43168282	      4.61444823	     11.65385434	      7.49545347	      0.00000000	      0.00000000	      0.00000000	      0.00000000	      0.00000000	      0.00000000	      0.00000000	      0.00000000	      0.00000000	      0.00000000	      0.00000000	      0.00000000	     -0.00000000	     -0.00000000	     -0.00000000	     -0.00000000	     -0.00000000	      0.00000000	     -0.00000000	      0.00000000	     -0.00000000	     -0.00000000	    304.99170404	     62.76813416	    -29.65208058	    155.51900053	    -11.60233334	      5.99856023	    -56.69559120
      0.15600000	      0.00000000	      0.00000000	      0.00000000	      0.00000000	      0.00000000	      0.00000000	      0.00000000	      0.00000000	      0.00000000	      0.00000000	      0.00000000	      0.00000000	      0.00000000	      0.00000000	      3.18239864	      0.60422178	     11.82712513	     10.32252140	     12.46248890	      8.46838554	      5.74007848	      7.78621601	      1.27440851	      3.87997287	      0.00000000	      0.00000000	      0.00000000	      0.00000000	      9.53530789	      6.57853979	     12.39781927	      9.61490095	      7.43014189	      4.68357941	     11.65143795	      7.58200830	      0.00000000	      0.00000000	      0.00000000	      0.00000000	      0.00000000	      0.00000000	      0.00000000	      0.00000000	      0.00000000	      0.00000000	      0.00000000	      0.00000000	      0.00000000	     -0.00000000	      0.00000000	     -0.00000000	     -0.00000000	     -0.00000000	     -0.00000000	      0.00000000	     -0.00000000	      0.00000000	    311.19320232	    562.61155203	     69.56441790	    370.13586767	     31.61799793	    109.50103269	    -94.99353964
      0.16000000	      0.00000000	      0.00000000	      0.00000000	      0.00000000	      0.00000000	      0.00000000	      0.00000000	      0.00000000	      0.00000000	      0.00000000	      0.00000000	      0.00000000	      0.00000000	      0.00000000	      5.07123434	     60.71996849	     18.84682902	   1084.71255530	     19.85929758	    887.15995311	      9.14696314	    821.58171229	      2.03080283	    411.61139637	      0.00000000	      0.00000000	      0.00000000	      0.00000000	     15.19475912	    671.90172541	     19.75624485	    984.08450700	     11.84012279	    478.17207677	     18.56686697	    776.91562374	      0.00000000	      0.00000000	      0.00000000	      0.00000000	      0.00000000	      0.00000000	      0.00000000	      0.00000000	      0.00000000	      0.00000000	      0.00000000	      0.00000000	     -0.00000000	     -0.00000000	     -0.00000000	     -0.00000000	     -0.00000000	      0.00000000	     -0.00000000	     -0.00000000	     -0.00000000	      0.00000000	   -418.94071804	   -640.01248427	    -70.96101220	   -302.65421410	    -12.89449772	   -118.33188096	    113.99293578
      0.16400000	      0.00000000	      0.00000000	      0.00000000	      0.00000000	      0.00000000	      0.00000000	      0.00000000	      0.00000000	      0.00000000	      0.00000000	      0.00000000	      0.00000000	      0.00000000	      0.00000000	      3.71964585	      0.47027702	     13.82376057	      7.91271017	     14.56638539	      6.40957411	      6.70910890	      6.00328100	      1.48955201	      3.04887986	      0.00000000	      0.00000000	      0.00000000	      0.00000000	     11.14504258	      6.35026440	     14.49079833	      9.19113687	      8.68448599	      4.59961074	     13.61841418	      7.26665403	      0.00000000	      0.00000000	      0.00000000	      0.00000000	      0.00000000	      0.00000000	      0.00000000	      0.00000000	      0.00000000	      0.00000000	      0.00000000	      0.00000000	      0.00000000	      0.00000000	      0.00000000	      0.00000000	      0.00000000	      0.00000000	      0.00000000	      0.00000000	      0.00000000	      0.00000000	    -14.66199925	      2.13017744	      2.86375324	      3.56991754	      1.50247874	      5.80751455	     -2.98310326
      0.16800000	      0.00000000	      0.00000000	      0.00000000	      0.00000000	      0.00000000	      0.00000000	      0.00000000	      0.00000000	      0.00000000	      0.00000000	      0.00000000	      0.00000000	      0.00000000	      0.00000000	      3.19181032	      0.62988065	     11.86210288	     11.33502758	     12.49934569	      9.26188285	      5.75705429	      8.59011946	      1.27817747	      4.30825808	      0.00000000	      0.00000000	      0.00000000	      0.00000000	      9.56350778	      6.97304804	     12.43448480	     10.21469698	      7.45211593	      4.95945677	     11.68589613	      8.07189719	      0.00000000	      0.00000000	      0.00000000	      0.00000000	      0.00000000	      0.00000000	      0.00000000	      0.00000000	      0.00000000	      0.00000000	      0.00000000	      0.00000000	     -0.00000000	     -0.00000000	     -0.00000000	      0.00000000	      0.00000000	     -0.00000000	     -0.00000000	     -0.00000000	     -0.00000000	     -0.00000000	    771.20860418	    711.03428058	     42.92728412	    652.18501768	     24.47603908	    144.12918818	   -199.02145595
      0.17200000	      0.00000000	      0.00000000	      0.00000000	      0.00000000	      0.00000000	      0.00000000	      0.00000000	      0.00000000	      0.00000000	      0.00000000	      0.00000000	      0.00000000	      0.00000000	      0.00000000	      6.14528115	     55.71873430	     22.83843645	   1134.49051596	     24.06533775	    920.93727493	     11.08421667	    869.51821449	      2.46091061	    442.30515291	      0.00000000	      0.00000000	      0.00000000	      0.00000000	     18.41288739	    697.05779823	     23.94045927	   1023.51242852	     14.34776597	    495.39070632	     22.49918068	    807.67835503	      0.00000000	      0.00000000	      0.00000000	      0.00000000	      0.00000000	      0.00000000	      0.00000000	      0.00000000	      0.00000000	      0.00000000	      0.00000000	      0.00000000	      0.00000000	      0.00000000	     -0.00000000	     -0.00000000	     -0.00000000	     -0.00000000	      0.00000000	     -0.00000000	      0.00000000	      0.00000000	   -706.89983770	   -693.72802519	    -48.47114397	   -470.22944454	     -6.64090287	   -137.48943984	    183.71765736
      0.17600000	      0.00000000	      0.00000000	      0.00000000	      0.00000000	      0.00000000	      0.00000000	      0.00000000	      0.00000000	      0.00000000	      0.00000000	      0.00000000	      0.00000000	      0.00000000	      0.00000000	      6.55401199	      1.04046482	     24.35745129	     73.77435769	     25.66595543	     44.25420213	     11.82144269	     42.05393420	      2.62458905	     13.34235511	      0.00000000	      0.00000000	      0.00000000	      0.00000000	     19.63755307	     22.53682946	     25.53277112	     51.50224185	     15.30205500	     15.50907821	     23.99563117	     42.54310433	      0.00000000	      0.00000000	      0.00000000	      0.00000000	      0.00000000	      0.00000000	      0.00000000	      0.00000000	      0.00000000	      0.00000000	      0.00000000	      0.00000000	      0.00000000	      0.00000000	      0.00000000	     -0.00000000	      0.00000000	     -0.00000000	      0.00000000	      0.00000000	     -0.00000000	     -0.00000000	      6.04774872	    -24.10263135	     -6.37717264	     -0.17129790	     -1.80209985	     -4.40725785	     -0.09345678
      0.18000000	      0.00000000	      0.00000000	      0.00000000	      0.00000000	      0.00000000	      0.00000000	      0.00000000	      0.00000000	      0.00000000	      0.00000000	      0.00000000	      0.00000000	      0.00000000	      0.00000000	      3.19101519	      0.54508962	     11.85914784	     11.14846163	     12.49623190	      9.04823413	      5.75562011	      8.54802697	      1.27785905	      4.35033028	      0.00000000	      0.00000000	      0.00000000	      0.00000000	      9.56112535	      6.84787323	     12.43138717	     10.06663715	      7.45025949	      4.87073431	     11.68298498	      7.94839645	      0.00000000	      0.00000000	      0.00000000	      0.00000000	      0.00000000	      0.00000000	      0.00000000	      0.00000000	      0.00000000	      0.00000000	      0.00000000	      0.00000000	     -0.00000000	     -0.00000000	     -0.00000000	     -0.00000000	     -0.00000000	     -0.00000000	      0.00000000	      0.00000000	     -0.00000000	     -0.00000000	    583.28900052	    464.64335403	     18.20623555	    467.85515470	     13.09109055	     96.07534081	   -148.27661473
      0.18400000	      0.00000000	      0.00000000	      0.00000000	      0.00000000	      0.00000000	      0.00000000	      0.00000000	      0.00000000	      0.00000000	      0.00000000	      0.00000000	      0.00000000	      0.00000000	      0.00000000	      5.61359372	     48.96670138	     20.86246344	   1096.37986711	     21.98321369	    886.25994107	     10.12521437	    846.85389288	      2.24799354	    435.00052489	      0.00000000	      0.00000000	      0.00000000	      0.00000000	     16.81981123	    674.98453938	     21.86913965	    993.68691256	     13.10640260	    479.93026946	     20.55255995	    783.42190106	      0.00000000	      0.00000000	      0.00000000	      0.00000000	      0.00000000	      0.00000000	      0.00000000	      0.00000000	      0.00000000	      0.00000000	      0.00000000	      0.00000000	      0.00000000	      0.00000000	      0.00000000	      0.00000000	     -0.00000000	      0.00000000	      0.00000000	     -0.00000000	     -0.00000000	     -0.00000000	   -553.38701714	   -476.89574191	    -23.98386104	   -313.01200653	      3.84592672	    -92.67256667	    138.17092820
      0.18800000	      0.00000000	      0.00000000	      0.00000000	      0.00000000	      0.00000000	      0.00000000	      0.00000000	      0.00000000	      0.00000000	      0.00000000	      0.00000000	      0.00000000	      0.00000000	      0.00000000	      3.17800677	      0.36869615	     11.81080311	      8.44929185	     12.44529005	      6.78439694	      5.73215688	      6.52937938	      1.27264976	      3.36911475	      0.00000000	      0.00000000	      0.00000000	      0.00000000	      9.52214869	      6.24521640	     12.38070966	      9.16758026	      7.41988793	      4.44773333	     11.63535839	      7.19267239	      0.00000000	      0.00000000	      0.00000000	      0.00000000	      0.00000000	      0.00000000	      0.00000000	      0.00000000	      0.00000000	      0.00000000	      0.00000000	      0.00000000	     -0.00000000	     -0.00000000	      0.00000000	     -0.00000000	     -0.00000000	      0.00000000	      0.00000000	     -0.00000000	     -0.00000000	      0.00000000	     96.66511273	     91.51316300	      4.31401903	     83.70917310	      2.20595655	     18.54342118	    -25.80349134
      0.19200000	      0.00000000	      0.00000000	      0.00000000	      0.00000000	      0.00000000	      0.00000000	      0.00000000	      0.00000000	      0.00000000	      0.00000000	      0.00000000	      0.00000000	      0.00000000	      0.00000000	      3.17958948	      0.46510898	     11.81668509	     10.44651972	     12.45148802	      8.44662917	      5.73501159	      8.07326713	      1.27328356	      4.14886293	      0.00000000	      0.00000000	      0.00000000	      0.00000000	      9.52689088	      6.58434116	     12.38687547	      9.67976363	      7.42358316	      4.68272177	     11.64115300	      7.61661630	      0.00000000	      0.00000000	      0.00000000	      0.00000000	      0.00000000	      0.00000000	      0.00000000	      0.00000000	      0.00000000	      0.00000000	      0.00000000	      0.00000000	      0.00000000	     -0.00000000	      0.00000000	     -0.00000000	      0.00000000	     -0.00000000	      0.00000000	      0.00000000	      0.00000000	      0.00000000	    309.65501028	    224.70456289	     -3.03650806	    224.41055868	     -1.31113514	     37.75149247	    -68.73558304
      0.19600000	      0.00000000	      0.00000000	      0.00000000	      0.00000000	      0.00000000	      0.00000000	      0.00000000	      0.00000000	      0.00000000	      0.00000000	      0.00000000	      0.00000000	      0.00000000	      0.00000000	      5.63244871	     23.65146111	     20.93253649	    981.89921875	     22.05705113	    792.00142696	     10.15922304	    760.71708483	      2.25554412	    392.40795949	      0.00000000	      0.00000000	      0.00000000	      0.00000000	     16.87630579	    645.63434546	     21.94259394	    949.07973390	     13.15042452	    455.49082353	     20.62159210	    745.45759368	      0.00000000	      0.00000000	      0.00000000	      0.00000000	      0.00000000	      0.00000000	      0.00000000	      0.00000000	      0.00000000	      0.00000000	      0.00000000	      0.00000000	     -0.00000000	      0.00000000	      0.00000000	      0.00000000	     -0.00000000	     -0.00000000	     -0.00000000	     -0.00000000	      0.00000000	     -0.00000000	   -224.12592790	   -181.61304585	      0.86025989	    -34.93320966	     18.73065456	    -24.42508841	     43.82206386
      0.20000000	      0.00000000	      0.00000000	      0.00000000	      0.00000000	      0.00000000	      0.00000000	      0.00000000	      0.00000000	      0.00000000	      0.00000000	      0.00000000	      0.00000000	      0.00000000	      0.00000000	      4.45929352	     12.39082035	     16.57260086	    979.54057853	     17.46289585	    789.61374610	      8.04320817	    758.95924793	      1.78574787	    391.65913682	      0.00000000	      0.00000000	      0.00000000	      0.00000000	     13.36122261	    556.15435059	     17.37227839	    949.06068010	     10.41138692	    258.77793124	     16.32642156	    602.82596707	      0.00000000	      0.00000000	      0.00000000	      0.00000000	      0.00000000	      0.00000000	      0.00000000	      0.00000000	      0.00000000	      0.00000000	      0.00000000	      0.00000000	      0.00000000	      0.00000000	      0.00000000	     -0.00000000	     -0.00000000	      0.00000000	      0.00000000	     -0.00000000	      0.00000000	      0.00000000	   -147.92591397	   -169.62316577	    -17.62577291	    -18.28463315	      6.51129706	    -33.17047453	     39.57254280
