Static Optimization
version=1
nRows=51
nColumns=66
inDegrees=no
This file contains static optimization results.

endheader
time	biceplongus_r	biceplongus_l	bicepbrevis_r	bicepbrevis_l	triceplong_1_r	triceplong_1_l	triceplong_2_r	triceplong_2_l	triceplong_3_r	triceplong_3_l	triceplat_1_r	triceplat_1_l	triceplat_2_r	triceplat_2_l	triceplat_3_r	triceplat_3_l	tricepmed_1_r	tricepmed_1_l	tricepmed_2_r	tricepmed_2_l	tricepmed_3_r	tricepmed_3_l	tricepmed_4_r	tricepmed_4_l	brachiorad_1_r	brachiorad_1_l	brachiorad_2_r	brachiorad_2_l	brachialis_1_r	brachialis_1_l	brachialis_2_r	brachialis_2_l	brachialis_3_r	brachialis_3_l	brachialis_4_r	brachialis_4_l	flex_carpi_rad_r	flex_carpi_rad_l	palmaris_longus_r	palmaris_longus_l	flex_carpi_ulna_r	flex_carpi_ulna_l	exten_carpi_ulna_r	exten_carpi_ulna_l	exten_carpi_rad_lon_r	exten_carpi_rad_lon_l	exten_carpi_rad_bre_r	exten_carpi_rad_bre_l	lumbar_ext	lumbar_bend	lumbar_rot	shoulder_flex_r	shoulder_add_r	shoulder_rot_r	elbow_flex_r	pro_sup_r	wrist_flex_r	wrist_dev_r	shoulder_flex_l	shoulder_add_l	shoulder_rot_l	elbow_flex_l	pro_sup_l	wrist_flex_l	wrist_dev_l
      0.00000000	      0.02501818	      0.02501818	      0.02501818	      0.02501818	      0.02501818	      0.02501818	      0.02501818	      0.02501818	      0.02501818	      0.02501818	      0.02501818	      0.02501818	      0.02501818	      0.02501818	      0.02501818	      0.12365204	      0.02501818	      0.82955233	      0.02501818	      0.93026264	      0.02501818	      0.67733113	      0.02501818	      0.30654264	      0.02501818	      0.02501818	      0.02501818	      0.02501818	      0.02501818	      0.08489766	      0.02501818	      0.01016108	      0.02501818	      0.01608905	      0.02501818	      0.46045014	      0.02501818	      0.02501818	      0.02501818	      0.02501818	      0.02501818	      0.02501818	      0.02501818	      0.02501818	      0.02501818	      0.02501818	      0.02501818	      0.02501818	     -0.00000000	     -0.00000000	     -0.00000000	     -0.00000000	     -0.00000000	      0.00000000	     -0.00000000	     -0.00000000	     -0.00000000	     -0.00000000	    -22.27973686	     -2.13420325	      2.50897667	     -0.57540986	      2.53263436	      0.06617035	      3.47389465
      0.00400000	      0.01382785	      0.01382785	      0.01382785	      0.01382785	      0.01382785	      0.01382785	      0.01382785	      0.01382785	      0.01382785	      0.01382785	      0.01382785	      0.01382785	      0.01382785	      0.01382785	      0.01382785	      0.01005647	      0.01382785	      0.01000593	      0.01382785	      0.01000669	      0.01382785	      0.01000828	      0.01382785	      0.01001807	      0.01382785	      0.01382785	      0.01382785	      0.01382785	      0.01382785	      0.01003672	      0.01382785	      0.01002782	      0.01382785	      0.01005448	      0.01382785	      0.01000769	      0.01382785	      0.01382785	      0.01382785	      0.01382785	      0.01382785	      0.01382785	      0.01382785	      0.01382785	      0.01382785	      0.01382785	      0.01382785	      0.01382785	      0.00000000	     -0.00000000	     -0.00000000	      0.00000000	     -0.00000000	     -0.00000000	      0.00000000	     -0.00000000	      0.00000000	      0.00000000	      5.20430880	     -0.70467204	     -0.73799168	      2.28280380	     -0.34312666	      0.03623729	     -1.06555711
      0.00800000	      0.01377259	      0.01377259	      0.01377259	      0.01377259	      0.01377259	      0.01377259	      0.01377259	      0.01377259	      0.01377259	      0.01377259	      0.01377259	      0.01377259	      0.01377259	      0.01377259	      0.01377259	      0.01006340	      0.01377259	      0.01000664	      0.01377259	      0.01000751	      0.01377259	      0.01000928	      0.01377259	      0.01002026	      0.01377259	      0.01377259	      0.01377259	      0.01377259	      0.01377259	      0.01004108	      0.01377259	      0.01003038	      0.01377259	      0.01006026	      0.01377259	      0.01000858	      0.01377259	      0.01377259	      0.01377259	      0.01377259	      0.01377259	      0.01377259	      0.01377259	      0.01377259	      0.01377259	      0.01377259	      0.01377259	      0.01377259	     -0.00000000	     -0.00000000	     -0.00000000	     -0.00000000	      0.00000000	     -0.00000000	     -0.00000000	     -0.00000000	     -0.00000000	     -0.00000000	      2.30464835	      1.52652575	     -0.11194197	      1.99678539	     -0.07172581	      0.52377906	     -0.71308689
      0.01200000	      0.01419268	      0.01419268	      0.01419268	      0.01419268	      0.01419268	      0.01419268	      0.01419268	      0.01419268	      0.01419268	      0.01419268	      0.01419268	      0.01419268	      0.01419268	      0.01419268	      0.01419268	      0.01003661	      0.01419268	      0.01000384	      0.01419268	      0.01000432	      0.01419268	      0.01000535	      0.01419268	      0.01001170	      0.01419268	      0.01419268	      0.01419268	      0.01419268	      0.01419268	      0.01002402	      0.01419268	      0.01001847	      0.01419268	      0.01003593	      0.01419268	      0.01000499	      0.01419268	      0.01419268	      0.01419268	      0.01419268	      0.01419268	      0.01419268	      0.01419268	      0.01419268	      0.01419268	      0.01419268	      0.01419268	      0.01419268	     -0.00000000	     -0.00000000	      0.00000000	     -0.00000000	     -0.00000000	      0.00000000	      0.00000000	     -0.00000000	      0.00000000	      0.00000000	      9.94199626	     -2.43807953	     -1.59816449	      3.53683959	     -0.77400891	     -0.35559667	     -1.75570124
      0.01600000	      0.02437261	      0.02437261	      0.02437261	      0.02437261	      0.02437261	      0.02437261	      0.02437261	      0.02437261	      0.02437261	      0.02437261	      0.02437261	      0.02437261	      0.02437261	      0.02437261	      0.02437261	      0.08614164	      0.02437261	      0.52133049	      0.02437261	      0.62534824	      0.02437261	      0.44310657	      0.02437261	      0.20014823	      0.02437261	      0.02437261	      0.02437261	      0.02437261	      0.02437261	      0.04837219	      0.02437261	      0.01016559	      0.02437261	      0.01362040	      0.02437261	      0.25105240	      0.02437261	      0.02437261	      0.02437261	      0.02437261	      0.02437261	      0.02437261	      0.02437261	      0.02437261	      0.02437261	      0.02437261	      0.02437261	      0.02437261	      0.00000000	      0.00000000	      0.00000000	      0.00000000	      0.00000000	     -0.00000000	      0.00000000	      0.00000000	     -0.00000000	      0.00000000	    -18.47083453	      2.56181329	      2.68787099	     -0.43022817	      2.11270481	      0.96586766	      2.60904478
      0.02000000	      0.01339203	      0.01339203	      0.01339203	      0.01339203	      0.01339203	      0.01339203	      0.01339203	      0.01339203	      0.01339203	      0.01339203	      0.01339203	      0.01339203	      0.01339203	      0.01339203	      0.01339203	      0.01001001	      0.01339203	      0.01000103	      0.01339203	      0.01000117	      0.01339203	      0.01000144	      0.01339203	      0.01000317	      0.01339203	      0.01339203	      0.01339203	      0.01339203	      0.01339203	      0.01000648	      0.01339203	      0.01000492	      0.01339203	      0.01000967	      0.01339203	      0.01000134	      0.01339203	      0.01339203	      0.01339203	      0.01339203	      0.01339203	      0.01339203	      0.01339203	      0.01339203	      0.01339203	      0.01339203	      0.01339203	      0.01339203	     -0.00000000	     -0.00000000	      0.00000000	     -0.00000000	     -0.00000000	     -0.00000000	      0.00000000	      0.00000000	      0.00000000	      0.00000000	     33.32874328	     -2.26117220	     -4.36937506	     13.06474152	     -2.20573021	     -0.64017697	     -5.52786707
      0.02400000	      0.02236114	      0.02236114	      0.02236114	      0.02236114	      0.02236114	      0.02236114	      0.02236114	      0.02236114	      0.02236114	      0.02236114	      0.02236114	      0.02236114	      0.02236114	      0.02236114	      0.02236114	      0.20266498	      0.02236114	      0.99986596	      0.02236114	      0.99991368	      0.02236114	      0.99932674	      0.02236114	      0.49961359	      0.02236114	      0.02236114	      0.02236114	      0.02236114	      0.02236114	      0.12565795	      0.02236114	      0.01008999	      0.02236114	      0.01128202	      0.02236114	      0.71760356	      0.02236114	      0.02236114	      0.02236114	      0.02236114	      0.02236114	      0.02236114	      0.02236114	      0.02236114	      0.02236114	      0.02236114	      0.02236114	      0.02236114	      0.00000000	      0.00000000	     -0.00000000	      0.00000000	      0.00000000	      0.00000000	      0.00000000	     -0.00000000	      0.00000000	     -0.00000000	    -38.19033723	      6.22386814	      5.59032310	     -0.95287343	      4.33038118	      1.93445927	      5.62834796
      0.02800000	      0.01339437	      0.01339437	      0.01339437	      0.01339437	      0.01339437	      0.01339437	      0.01339437	      0.01339437	      0.01339437	      0.01339437	      0.01339437	      0.01339437	      0.01339437	      0.01339437	      0.01339437	      0.01001039	      0.01339437	      0.01000107	      0.01339437	      0.01000121	      0.01339437	      0.01000150	      0.01339437	      0.01000327	      0.01339437	      0.01339437	      0.01339437	      0.01339437	      0.01339437	      0.01000656	      0.01339437	      0.01000506	      0.01339437	      0.01000985	      0.01339437	      0.01000140	      0.01339437	      0.01339437	      0.01339437	      0.01339437	      0.01339437	      0.01339437	      0.01339437	      0.01339437	      0.01339437	      0.01339437	      0.01339437	      0.01339437	      0.00000000	      0.00000000	     -0.00000000	     -0.00000000	     -0.00000000	     -0.00000000	      0.00000000	     -0.00000000	     -0.00000000	     -0.00000000	     36.48109953	     -5.57052892	     -5.31748428	     13.11973702	     -2.66909554	     -1.27908101	     -5.92942892
      0.03200000	      0.01427599	      0.01427599	      0.01427599	      0.01427599	      0.01427599	      0.01427599	      0.01427599	      0.01427599	      0.01427599	      0.01427599	      0.01427599	      0.01427599	      0.01427599	      0.01427599	      0.01427599	      0.01000244	      0.01427599	      0.01000024	      0.01427599	      0.01000028	      0.01427599	      0.01000034	      0.01427599	      0.01000077	      0.01427599	      0.01427599	      0.01427599	      0.01427599	      0.01427599	      0.01000171	      0.01427599	      0.01000128	      0.01427599	      0.01000254	      0.01427599	      0.01000032	      0.01427599	      0.01427599	      0.01427599	      0.01427599	      0.01427599	      0.01427599	      0.01427599	      0.01427599	      0.01427599	      0.01427599	      0.01427599	      0.01427599	     -0.00000000	      0.00000000	      0.00000000	     -0.00000000	     -0.00000000	      0.00000000	      0.00000000	     -0.00000000	     -0.00000000	     -0.00000000	    139.48252713	    -22.99146838	    -20.64080234	     47.96692421	    -10.43430142	     -6.06251248	    -21.69908332
      0.03600000	      0.02392140	      0.02392140	      0.02392140	      0.02392140	      0.02392140	      0.02392140	      0.02392140	      0.02392140	      0.02392140	      0.02392140	      0.02392140	      0.02392140	      0.02392140	      0.02392140	      0.02392140	      0.99999506	      0.02392140	      0.99999955	      0.02392140	      0.99999949	      0.02392140	      0.99999937	      0.02392140	      0.99999859	      0.02392140	      0.02392140	      0.02392140	      0.02392140	      0.02392140	      0.99999671	      0.02392140	      0.99999744	      0.02392140	      0.99999481	      0.02392140	      0.99999941	      0.02392140	      0.02392140	      0.02392140	      0.02392140	      0.02392140	      0.02392140	      0.02392140	      0.02392140	      0.02392140	      0.02392140	      0.02392140	      0.02392140	      0.00000000	     -0.00000000	      0.00000000	     -0.00000000	      0.00000000	     -0.00000000	      0.00000000	      0.00000000	     -0.00000000	     -0.00000000	   -132.66284888	     22.65027012	     19.93725196	    -27.75881729	     12.28440748	      7.07707084	     19.66673446
      0.04000000	      0.02541389	      0.02541389	      0.02541389	      0.02541389	      0.02541389	      0.02541389	      0.02541389	      0.02541389	      0.02541389	      0.02541389	      0.02541389	      0.02541389	      0.02541389	      0.02541389	      0.02541389	      0.99978234	      0.02541389	      0.99999564	      0.02541389	      0.99999519	      0.02541389	      0.99999383	      0.02541389	      0.99998401	      0.02541389	      0.02541389	      0.02541389	      0.02541389	      0.02541389	      0.99994472	      0.02541389	      0.99994122	      0.02541389	      0.99886467	      0.02541389	      0.99999386	      0.02541389	      0.02541389	      0.02541389	      0.02541389	      0.02541389	      0.02541389	      0.02541389	      0.02541389	      0.02541389	      0.02541389	      0.02541389	      0.02541389	     -0.00000000	     -0.00000000	     -0.00000000	     -0.00000000	     -0.00000000	     -0.00000000	     -0.00000000	      0.00000000	     -0.00000000	     -0.00000000	    -45.50257625	      0.17226778	      5.64345310	     -4.10589651	      4.91026982	      0.92584775	      7.20690246
      0.04400000	      0.01349377	      0.01349377	      0.01349377	      0.01349377	      0.01349377	      0.01349377	      0.01349377	      0.01349377	      0.01349377	      0.01349377	      0.01349377	      0.01349377	      0.01349377	      0.01349377	      0.01349377	      0.01000512	      0.01349377	      0.01000051	      0.01349377	      0.01000058	      0.01349377	      0.01000071	      0.01349377	      0.01000155	      0.01349377	      0.01349377	      0.01349377	      0.01349377	      0.01349377	      0.01000321	      0.01349377	      0.01000240	      0.01349377	      0.01000476	      0.01349377	      0.01000066	      0.01349377	      0.01349377	      0.01349377	      0.01349377	      0.01349377	      0.01349377	      0.01349377	      0.01349377	      0.01349377	      0.01349377	      0.01349377	      0.01349377	      0.00000000	      0.00000000	     -0.00000000	      0.00000000	      0.00000000	     -0.00000000	      0.00000000	      0.00000000	     -0.00000000	     -0.00000000	     61.96007516	      0.48390802	     -7.58584743	     26.14799694	     -3.87390495	     -0.50416877	    -10.54893797
      0.04800000	      0.02033755	      0.02033755	      0.02033755	      0.02033755	      0.02033755	      0.02033755	      0.02033755	      0.02033755	      0.02033755	      0.02033755	      0.02033755	      0.02033755	      0.02033755	      0.02033755	      0.02033755	      0.99997802	      0.02033755	      0.99999842	      0.02033755	      0.99999823	      0.02033755	      0.99999779	      0.02033755	      0.99999489	      0.02033755	      0.02033755	      0.02033755	      0.02033755	      0.02033755	      0.99998733	      0.02033755	      0.99998994	      0.02033755	      0.99997686	      0.02033755	      0.99999789	      0.02033755	      0.02033755	      0.02033755	      0.02033755	      0.02033755	      0.02033755	      0.02033755	      0.02033755	      0.02033755	      0.02033755	      0.02033755	      0.02033755	      0.00000000	      0.00000000	      0.00000000	      0.00000000	      0.00000000	      0.00000000	     -0.00000000	     -0.00000000	     -0.00000000	     -0.00000000	    -53.53202914	     -5.57623029	      5.70503216	     -9.03891539	      5.12554968	     -0.25921109	      9.06484168
      0.05200000	      0.01341253	      0.01341253	      0.01341253	      0.01341253	      0.01341253	      0.01341253	      0.01341253	      0.01341253	      0.01341253	      0.01341253	      0.01341253	      0.01341253	      0.01341253	      0.01341253	      0.01341253	      0.01000724	      0.01341253	      0.01000071	      0.01341253	      0.01000081	      0.01341253	      0.01000099	      0.01341253	      0.01000215	      0.01341253	      0.01341253	      0.01341253	      0.01341253	      0.01341253	      0.01000415	      0.01341253	      0.01000309	      0.01341253	      0.01000613	      0.01341253	      0.01000092	      0.01341253	      0.01341253	      0.01341253	      0.01341253	      0.01341253	      0.01341253	      0.01341253	      0.01341253	      0.01341253	      0.01341253	      0.01341253	      0.01341253	      0.00000000	     -0.00000000	      0.00000000	     -0.00000000	     -0.00000000	     -0.00000000	     -0.00000000	      0.00000000	     -0.00000000	     -0.00000000	     41.46917018	      7.00882763	     -3.95158578	     20.54055595	     -2.05245885	      1.15918931	     -7.65760530
      0.05600000	      0.01341287	      0.01341287	      0.01341287	      0.01341287	      0.01341287	      0.01341287	      0.01341287	      0.01341287	      0.01341287	      0.01341287	      0.01341287	      0.01341287	      0.01341287	      0.01341287	      0.01341287	      0.01000223	      0.01341287	      0.01000022	      0.01341287	      0.01000025	      0.01341287	      0.01000030	      0.01341287	      0.01000067	      0.01341287	      0.01341287	      0.01341287	      0.01341287	      0.01341287	      0.01000154	      0.01341287	      0.01000114	      0.01341287	      0.01000228	      0.01341287	      0.01000028	      0.01341287	      0.01341287	      0.01341287	      0.01341287	      0.01341287	      0.01341287	      0.01341287	      0.01341287	      0.01341287	      0.01341287	      0.01341287	      0.01341287	      0.00000000	      0.00000000	      0.00000000	     -0.00000000	      0.00000000	     -0.00000000	     -0.00000000	      0.00000000	      0.00000000	     -0.00000000	     82.97297188	     34.95796115	     -4.63625477	     50.25506305	     -2.69569543	      6.79084614	    -16.96061472
      0.06000000	      0.02191907	      0.02191907	      0.02191907	      0.02191907	      0.02191907	      0.02191907	      0.02191907	      0.02191907	      0.02191907	      0.02191907	      0.02191907	      0.02191907	      0.02191907	      0.02191907	      0.02191907	      0.99999610	      0.02191907	      0.99999966	      0.02191907	      0.99999962	      0.02191907	      0.99999953	      0.02191907	      0.99999897	      0.02191907	      0.02191907	      0.02191907	      0.02191907	      0.02191907	      0.99999749	      0.02191907	      0.99999814	      0.02191907	      0.99999615	      0.02191907	      0.99999956	      0.02191907	      0.02191907	      0.02191907	      0.02191907	      0.02191907	      0.02191907	      0.02191907	      0.02191907	      0.02191907	      0.02191907	      0.02191907	      0.02191907	      0.00000000	     -0.00000000	     -0.00000000	     -0.00000000	      0.00000000	      0.00000000	      0.00000000	     -0.00000000	     -0.00000000	      0.00000000	    -83.93719267	    -36.71272530	      4.54125263	    -33.56044666	      4.97541173	     -6.55150992	     16.66140699
      0.06400000	      0.02064699	      0.02064699	      0.02064699	      0.02064699	      0.02064699	      0.02064699	      0.02064699	      0.02064699	      0.02064699	      0.02064699	      0.02064699	      0.02064699	      0.02064699	      0.02064699	      0.02064699	      0.26750433	      0.02064699	      0.99997124	      0.02064699	      0.99996779	      0.02064699	      0.99995163	      0.02064699	      0.90164066	      0.02064699	      0.02064699	      0.02064699	      0.02064699	      0.02064699	      0.40733140	      0.02064699	      0.22126637	      0.02064699	      0.20596279	      0.02064699	      0.99994287	      0.02064699	      0.02064699	      0.02064699	      0.02064699	      0.02064699	      0.02064699	      0.02064699	      0.02064699	      0.02064699	      0.02064699	      0.02064699	      0.02064699	     -0.00000000	      0.00000000	     -0.00000000	     -0.00000000	     -0.00000000	      0.00000000	      0.00000000	     -0.00000000	     -0.00000000	     -0.00000000	    -23.16274666	     -8.25093523	      1.55934164	     -1.14633620	      2.39040417	     -1.25924880	      4.28453777
      0.06800000	      0.01339240	      0.01339240	      0.01339240	      0.01339240	      0.01339240	      0.01339240	      0.01339240	      0.01339240	      0.01339240	      0.01339240	      0.01339240	      0.01339240	      0.01339240	      0.01339240	      0.01339240	      0.01000736	      0.01339240	      0.01000069	      0.01339240	      0.01000079	      0.01339240	      0.01000096	      0.01339240	      0.01000206	      0.01339240	      0.01339240	      0.01339240	      0.01339240	      0.01339240	      0.01000450	      0.01339240	      0.01000332	      0.01339240	      0.01000664	      0.01339240	      0.01000090	      0.01339240	      0.01339240	      0.01339240	      0.01339240	      0.01339240	      0.01339240	      0.01339240	      0.01339240	      0.01339240	      0.01339240	      0.01339240	      0.01339240	     -0.00000000	     -0.00000000	      0.00000000	      0.00000000	     -0.00000000	     -0.00000000	     -0.00000000	      0.00000000	      0.00000000	     -0.00000000	     31.21929364	     11.54222876	     -2.00111154	     18.43895133	     -1.05627548	      2.30170111	     -6.37842611
      0.07200000	      0.01960973	      0.01960973	      0.01960973	      0.01960973	      0.01960973	      0.01960973	      0.01960973	      0.01960973	      0.01960973	      0.01960973	      0.01960973	      0.01960973	      0.01960973	      0.01960973	      0.01960973	      0.13626754	      0.01960973	      0.99973454	      0.01960973	      0.99974038	      0.01960973	      0.91016878	      0.01960973	      0.42032818	      0.01960973	      0.01960973	      0.01960973	      0.01960973	      0.01960973	      0.15371770	      0.01960973	      0.01052347	      0.01960973	      0.04565322	      0.01960973	      0.71382866	      0.01960973	      0.01960973	      0.01960973	      0.01960973	      0.01960973	      0.01960973	      0.01960973	      0.01960973	      0.01960973	      0.01960973	      0.01960973	      0.01960973	     -0.00000000	     -0.00000000	     -0.00000000	     -0.00000000	     -0.00000000	     -0.00000000	      0.00000000	      0.00000000	      0.00000000	      0.00000000	    -20.15652271	     -7.78276235	      1.22635553	     -0.60831429	      2.03982464	     -1.25554282	      3.80115705
      0.07600000	      0.01338971	      0.01338971	      0.01338971	      0.01338971	      0.01338971	      0.01338971	      0.01338971	      0.01338971	      0.01338971	      0.01338971	      0.01338971	      0.01338971	      0.01338971	      0.01338971	      0.01338971	      0.01001220	      0.01338971	      0.01000115	      0.01338971	      0.01000131	      0.01338971	      0.01000158	      0.01338971	      0.01000340	      0.01338971	      0.01338971	      0.01338971	      0.01338971	      0.01338971	      0.01000723	      0.01338971	      0.01000532	      0.01338971	      0.01001066	      0.01338971	      0.01000149	      0.01338971	      0.01338971	      0.01338971	      0.01338971	      0.01338971	      0.01338971	      0.01338971	      0.01338971	      0.01338971	      0.01338971	      0.01338971	      0.01338971	     -0.00000000	      0.00000000	      0.00000000	      0.00000000	     -0.00000000	     -0.00000000	     -0.00000000	     -0.00000000	      0.00000000	     -0.00000000	     19.03086246	      7.08707027	     -1.12877318	     11.55806189	     -0.55852657	      1.58386486	     -4.06314557
      0.08000000	      0.02188120	      0.02188120	      0.02188120	      0.02188120	      0.02188120	      0.02188120	      0.02188120	      0.02188120	      0.02188120	      0.02188120	      0.02188120	      0.02188120	      0.02188120	      0.02188120	      0.02188120	      0.09349546	      0.02188120	      0.81405442	      0.02188120	      0.80604305	      0.02188120	      0.62890430	      0.02188120	      0.29064157	      0.02188120	      0.02188120	      0.02188120	      0.02188120	      0.02188120	      0.10763458	      0.02188120	      0.01356687	      0.02188120	      0.04168571	      0.02188120	      0.51009585	      0.02188120	      0.02188120	      0.02188120	      0.02188120	      0.02188120	      0.02188120	      0.02188120	      0.02188120	      0.02188120	      0.02188120	      0.02188120	      0.02188120	     -0.00000000	     -0.00000000	     -0.00000000	     -0.00000000	     -0.00000000	     -0.00000000	     -0.00000000	     -0.00000000	     -0.00000000	     -0.00000000	    -14.06653087	     -7.39968418	      0.33317784	     -0.39270585	      1.23087650	     -1.33214625	      2.81774851
      0.08400000	      0.01339826	      0.01339826	      0.01339826	      0.01339826	      0.01339826	      0.01339826	      0.01339826	      0.01339826	      0.01339826	      0.01339826	      0.01339826	      0.01339826	      0.01339826	      0.01339826	      0.01339826	      0.01001021	      0.01339826	      0.01000095	      0.01339826	      0.01000109	      0.01339826	      0.01000131	      0.01339826	      0.01000282	      0.01339826	      0.01339826	      0.01339826	      0.01339826	      0.01339826	      0.01000589	      0.01339826	      0.01000432	      0.01339826	      0.01000867	      0.01339826	      0.01000123	      0.01339826	      0.01339826	      0.01339826	      0.01339826	      0.01339826	      0.01339826	      0.01339826	      0.01339826	      0.01339826	      0.01339826	      0.01339826	      0.01339826	      0.00000000	     -0.00000000	     -0.00000000	      0.00000000	     -0.00000000	      0.00000000	      0.00000000	     -0.00000000	     -0.00000000	     -0.00000000	     22.19626360	      9.58668817	     -0.87889804	     14.22296777	     -0.37524258	      2.25206133	     -4.93940275
      0.08800000	      0.02032796	      0.02032796	      0.02032796	      0.02032796	      0.02032796	      0.02032796	      0.02032796	      0.02032796	      0.02032796	      0.02032796	      0.02032796	      0.02032796	      0.02032796	      0.02032796	      0.02032796	      0.26150436	      0.02032796	      0.99996983	      0.02032796	      0.99996613	      0.02032796	      0.99994835	      0.02032796	      0.87174777	      0.02032796	      0.02032796	      0.02032796	      0.02032796	      0.02032796	      0.34989397	      0.02032796	      0.21592663	      0.02032796	      0.18221228	      0.02032796	      0.99993940	      0.02032796	      0.02032796	      0.02032796	      0.02032796	      0.02032796	      0.02032796	      0.02032796	      0.02032796	      0.02032796	      0.02032796	      0.02032796	      0.02032796	      0.00000000	     -0.00000000	      0.00000000	     -0.00000000	     -0.00000000	     -0.00000000	     -0.00000000	      0.00000000	      0.00000000	      0.00000000	    -21.77041515	    -12.57416574	      0.14701015	     -0.91870649	      1.79699209	     -2.52900879	      4.67617023
      0.09200000	      0.01339039	      0.01339039	      0.01339039	      0.01339039	      0.01339039	      0.01339039	      0.01339039	      0.01339039	      0.01339039	      0.01339039	      0.01339039	      0.01339039	      0.01339039	      0.01339039	      0.01339039	      0.01001127	      0.01339039	      0.01000103	      0.01339039	      0.01000118	      0.01339039	      0.01000142	      0.01339039	      0.01000303	      0.01339039	      0.01339039	      0.01339039	      0.01339039	      0.01339039	      0.01000582	      0.01339039	      0.01000424	      0.01339039	      0.01000854	      0.01339039	      0.01000133	      0.01339039	      0.01339039	      0.01339039	      0.01339039	      0.01339039	      0.01339039	      0.01339039	      0.01339039	      0.01339039	      0.01339039	      0.01339039	      0.01339039	      0.00000000	      0.00000000	      0.00000000	      0.00000000	     -0.00000000	      0.00000000	     -0.00000000	     -0.00000000	     -0.00000000	      0.00000000	     21.28306616	     11.78079513	     -0.26983341	     14.76052235	     -0.04631405	      2.72025035	     -4.94101500
      0.09600000	      0.01342957	      0.01342957	      0.01342957	      0.01342957	      0.01342957	      0.01342957	      0.01342957	      0.01342957	      0.01342957	      0.01342957	      0.01342957	      0.01342957	      0.01342957	      0.01342957	      0.01342957	      0.01000199	      0.01342957	      0.01000018	      0.01342957	      0.01000020	      0.01342957	      0.01000025	      0.01342957	      0.01000054	      0.01342957	      0.01342957	      0.01342957	      0.01342957	      0.01342957	      0.01000128	      0.01342957	      0.01000093	      0.01342957	      0.01000189	      0.01342957	      0.01000023	      0.01342957	      0.01342957	      0.01342957	      0.01342957	      0.01342957	      0.01342957	      0.01342957	      0.01342957	      0.01342957	      0.01342957	      0.01342957	      0.01342957	      0.00000000	      0.00000000	      0.00000000	      0.00000000	      0.00000000	     -0.00000000	      0.00000000	     -0.00000000	     -0.00000000	      0.00000000	     87.02590085	     47.11153309	     -1.27431079	     58.95172597	     -0.33922929	     10.40005030	    -19.54952868
      0.10000000	      0.02279081	      0.02279081	      0.02279081	      0.02279081	      0.02279081	      0.02279081	      0.02279081	      0.02279081	      0.02279081	      0.02279081	      0.02279081	      0.02279081	      0.02279081	      0.02279081	      0.02279081	      0.99999686	      0.02279081	      0.99999976	      0.02279081	      0.99999972	      0.02279081	      0.99999967	      0.02279081	      0.99999928	      0.02279081	      0.02279081	      0.02279081	      0.02279081	      0.02279081	      0.99999818	      0.02279081	      0.99999869	      0.02279081	      0.99999725	      0.02279081	      0.99999968	      0.02279081	      0.02279081	      0.02279081	      0.02279081	      0.02279081	      0.02279081	      0.02279081	      0.02279081	      0.02279081	      0.02279081	      0.02279081	      0.02279081	      0.00000000	     -0.00000000	     -0.00000000	     -0.00000000	      0.00000000	     -0.00000000	     -0.00000000	      0.00000000	     -0.00000000	     -0.00000000	    -88.89679694	    -53.86982565	      0.49653568	    -44.51432163	      2.32795558	    -11.06727410	     19.85509183
      0.10400000	      0.02094663	      0.02094663	      0.02094663	      0.02094663	      0.02094663	      0.02094663	      0.02094663	      0.02094663	      0.02094663	      0.02094663	      0.02094663	      0.02094663	      0.02094663	      0.02094663	      0.02094663	      0.03360416	      0.02094663	      0.26017199	      0.02094663	      0.24902052	      0.02094663	      0.20219107	      0.02094663	      0.09609576	      0.02094663	      0.02094663	      0.02094663	      0.02094663	      0.02094663	      0.04347097	      0.02094663	      0.02016508	      0.02094663	      0.02746819	      0.02094663	      0.16444007	      0.02094663	      0.02094663	      0.02094663	      0.02094663	      0.02094663	      0.02094663	      0.02094663	      0.02094663	      0.02094663	      0.02094663	      0.02094663	      0.02094663	      0.00000000	     -0.00000000	      0.00000000	     -0.00000000	     -0.00000000	      0.00000000	      0.00000000	      0.00000000	      0.00000000	     -0.00000000	     -4.53638378	     -0.85633392	      0.31192268	     -0.14022161	      0.39600660	     -0.18213764	      0.86217760
      0.10800000	      0.01439380	      0.01439380	      0.01439380	      0.01439380	      0.01439380	      0.01439380	      0.01439380	      0.01439380	      0.01439380	      0.01439380	      0.01439380	      0.01439380	      0.01439380	      0.01439380	      0.01439380	      0.01004877	      0.01439380	      0.01000422	      0.01439380	      0.01000484	      0.01439380	      0.01000571	      0.01439380	      0.01001203	      0.01439380	      0.01439380	      0.01439380	      0.01439380	      0.01439380	      0.01002829	      0.01439380	      0.01002099	      0.01439380	      0.01004189	      0.01439380	      0.01000553	      0.01439380	      0.01439380	      0.01439380	      0.01439380	      0.01439380	      0.01439380	      0.01439380	      0.01439380	      0.01439380	      0.01439380	      0.01439380	      0.01439380	     -0.00000000	     -0.00000000	      0.00000000	     -0.00000000	      0.00000000	     -0.00000000	      0.00000000	      0.00000000	      0.00000000	      0.00000000	      5.51572221	     -0.60688529	     -0.75438442	      2.95651644	     -0.29246239	      0.30753349	     -1.41904811
      0.11200000	      0.01427807	      0.01427807	      0.01427807	      0.01427807	      0.01427807	      0.01427807	      0.01427807	      0.01427807	      0.01427807	      0.01427807	      0.01427807	      0.01427807	      0.01427807	      0.01427807	      0.01427807	      0.01002466	      0.01427807	      0.01000206	      0.01427807	      0.01000238	      0.01427807	      0.01000279	      0.01427807	      0.01000586	      0.01427807	      0.01427807	      0.01427807	      0.01427807	      0.01427807	      0.01001207	      0.01427807	      0.01000881	      0.01427807	      0.01001777	      0.01427807	      0.01000268	      0.01427807	      0.01427807	      0.01427807	      0.01427807	      0.01427807	      0.01427807	      0.01427807	      0.01427807	      0.01427807	      0.01427807	      0.01427807	      0.01427807	      0.00000000	      0.00000000	     -0.00000000	     -0.00000000	      0.00000000	      0.00000000	     -0.00000000	     -0.00000000	      0.00000000	     -0.00000000	     10.96681459	      5.14162262	     -0.43103140	      7.19216133	     -0.16679933	      1.13488166	     -2.46151285
      0.11600000	      0.01339233	      0.01339233	      0.01339233	      0.01339233	      0.01339233	      0.01339233	      0.01339233	      0.01339233	      0.01339233	      0.01339233	      0.01339233	      0.01339233	      0.01339233	      0.01339233	      0.01339233	      0.01000422	      0.01339233	      0.01000035	      0.01339233	      0.01000040	      0.01339233	      0.01000048	      0.01339233	      0.01000102	      0.01339233	      0.01339233	      0.01339233	      0.01339233	      0.01339233	      0.01000248	      0.01339233	      0.01000178	      0.01339233	      0.01000363	      0.01339233	      0.01000046	      0.01339233	      0.01339233	      0.01339233	      0.01339233	      0.01339233	      0.01339233	      0.01339233	      0.01339233	      0.01339233	      0.01339233	      0.01339233	      0.01339233	     -0.00000000	      0.00000000	      0.00000000	     -0.00000000	      0.00000000	     -0.00000000	     -0.00000000	     -0.00000000	     -0.00000000	      0.00000000	     33.40183795	     45.11874224	      4.15669138	     32.10475882	      1.94272181	      8.30307173	     -8.23624233
      0.12000000	      0.01862955	      0.01862955	      0.01862955	      0.01862955	      0.01862955	      0.01862955	      0.01862955	      0.01862955	      0.01862955	      0.01862955	      0.01862955	      0.01862955	      0.01862955	      0.01862955	      0.01862955	      0.99998611	      0.01862955	      0.99999912	      0.01862955	      0.99999898	      0.01862955	      0.99999881	      0.01862955	      0.99999743	      0.01862955	      0.01862955	      0.01862955	      0.01862955	      0.01862955	      0.99999373	      0.01862955	      0.99999562	      0.01862955	      0.99999012	      0.01862955	      0.99999885	      0.01862955	      0.01862955	      0.01862955	      0.01862955	      0.01862955	      0.01862955	      0.01862955	      0.01862955	      0.01862955	      0.01862955	      0.01862955	      0.01862955	      0.00000000	      0.00000000	      0.00000000	     -0.00000000	      0.00000000	     -0.00000000	     -0.00000000	      0.00000000	      0.00000000	      0.00000000	    -29.40748261	    -46.02608264	     -4.82355006	    -15.43149193	     -0.15781797	     -8.03130383	      7.06868378
      0.12400000	      0.01369277	      0.01369277	      0.01369277	      0.01369277	      0.01369277	      0.01369277	      0.01369277	      0.01369277	      0.01369277	      0.01369277	      0.01369277	      0.01369277	      0.01369277	      0.01369277	      0.01369277	      0.01000536	      0.01369277	      0.01000043	      0.01369277	      0.01000050	      0.01369277	      0.01000058	      0.01369277	      0.01000123	      0.01369277	      0.01369277	      0.01369277	      0.01369277	      0.01369277	      0.01000308	      0.01369277	      0.01000225	      0.01369277	      0.01000456	      0.01369277	      0.01000057	      0.01369277	      0.01369277	      0.01369277	      0.01369277	      0.01369277	      0.01369277	      0.01369277	      0.01369277	      0.01369277	      0.01369277	      0.01369277	      0.01369277	      0.00000000	     -0.00000000	      0.00000000	     -0.00000000	      0.00000000	     -0.00000000	     -0.00000000	      0.00000000	      0.00000000	     -0.00000000	     45.44351185	      6.79995613	     -3.95848924	     25.89496890	     -1.51491678	      3.20008204	    -10.56942519
      0.12800000	      0.02032501	      0.02032501	      0.02032501	      0.02032501	      0.02032501	      0.02032501	      0.02032501	      0.02032501	      0.02032501	      0.02032501	      0.02032501	      0.02032501	      0.02032501	      0.02032501	      0.02032501	      0.63975746	      0.02032501	      0.99999360	      0.02032501	      0.99999275	      0.02032501	      0.99999127	      0.02032501	      0.99997724	      0.02032501	      0.02032501	      0.02032501	      0.02032501	      0.02032501	      0.99918817	      0.02032501	      0.98543692	      0.02032501	      0.62088581	      0.02032501	      0.99999036	      0.02032501	      0.02032501	      0.02032501	      0.02032501	      0.02032501	      0.02032501	      0.02032501	      0.02032501	      0.02032501	      0.02032501	      0.02032501	      0.02032501	      0.00000000	     -0.00000000	      0.00000000	      0.00000000	      0.00000000	      0.00000000	     -0.00000000	      0.00000000	     -0.00000000	     -0.00000000	    -32.47105765	     -5.54160764	      2.69463000	     -2.41231068	      3.21064503	     -2.60584943	      7.77931876
      0.13200000	      0.02057907	      0.02057907	      0.02057907	      0.02057907	      0.02057907	      0.02057907	      0.02057907	      0.02057907	      0.02057907	      0.02057907	      0.02057907	      0.02057907	      0.02057907	      0.02057907	      0.02057907	      0.99995278	      0.02057907	      0.99999823	      0.02057907	      0.99999794	      0.02057907	      0.99999762	      0.02057907	      0.99999482	      0.02057907	      0.02057907	      0.02057907	      0.02057907	      0.02057907	      0.99998669	      0.02057907	      0.99999028	      0.02057907	      0.99997612	      0.02057907	      0.99999762	      0.02057907	      0.02057907	      0.02057907	      0.02057907	      0.02057907	      0.02057907	      0.02057907	      0.02057907	      0.02057907	      0.02057907	      0.02057907	      0.02057907	     -0.00000000	      0.00000000	      0.00000000	      0.00000000	     -0.00000000	     -0.00000000	      0.00000000	     -0.00000000	      0.00000000	      0.00000000	    -42.10930555	    -10.00257057	      3.43370521	     -9.12102476	      3.16705959	     -1.47581684	      7.99666141
      0.13600000	      0.01349886	      0.01349886	      0.01349886	      0.01349886	      0.01349886	      0.01349886	      0.01349886	      0.01349886	      0.01349886	      0.01349886	      0.01349886	      0.01349886	      0.01349886	      0.01349886	      0.01349886	      0.01000745	      0.01349886	      0.01000054	      0.01349886	      0.01000063	      0.01349886	      0.01000072	      0.01349886	      0.01000149	      0.01349886	      0.01349886	      0.01349886	      0.01349886	      0.01349886	      0.01000335	      0.01349886	      0.01000246	      0.01349886	      0.01000498	      0.01349886	      0.01000072	      0.01349886	      0.01349886	      0.01349886	      0.01349886	      0.01349886	      0.01349886	      0.01349886	      0.01349886	      0.01349886	      0.01349886	      0.01349886	      0.01349886	      0.00000000	      0.00000000	      0.00000000	      0.00000000	      0.00000000	     -0.00000000	      0.00000000	      0.00000000	      0.00000000	      0.00000000	     47.12798091	     12.85070467	     -3.62259020	     26.36018459	     -1.42016800	      2.47656063	     -9.58080942
      0.14000000	      0.02291233	      0.02291233	      0.02291233	      0.02291233	      0.02291233	      0.02291233	      0.02291233	      0.02291233	      0.02291233	      0.02291233	      0.02291233	      0.02291233	      0.02291233	      0.02291233	      0.02291233	      0.01001069	      0.02291233	      0.01000080	      0.02291233	      0.01000092	      0.02291233	      0.01000106	      0.02291233	      0.01000219	      0.02291233	      0.02291233	      0.02291233	      0.02291233	      0.02291233	      0.01000573	      0.02291233	      0.01000440	      0.02291233	      0.01000868	      0.02291233	      0.01000106	      0.02291233	      0.02291233	      0.02291233	      0.02291233	      0.02291233	      0.02291233	      0.02291233	      0.02291233	      0.02291233	      0.02291233	      0.02291233	      0.02291233	     -0.00000000	     -0.00000000	      0.00000000	     -0.00000000	      0.00000000	     -0.00000000	      0.00000000	     -0.00000000	      0.00000000	      0.00000000	     56.41341418	    -21.30099199	    -11.58324714	     14.84303480	     -4.91098903	     -5.63276124	     -8.04899698
      0.14400000	      0.02377812	      0.02377812	      0.02377812	      0.02377812	      0.02377812	      0.02377812	      0.02377812	      0.02377812	      0.02377812	      0.02377812	      0.02377812	      0.02377812	      0.02377812	      0.02377812	      0.02377812	      0.59594677	      0.02377812	      0.99999343	      0.02377812	      0.99999278	      0.02377812	      0.99999128	      0.02377812	      0.99997756	      0.02377812	      0.02377812	      0.02377812	      0.02377812	      0.02377812	      0.96119601	      0.02377812	      0.44952329	      0.02377812	      0.47578930	      0.02377812	      0.01015259	      0.02377812	      0.02377812	      0.02377812	      0.02377812	      0.02377812	      0.02377812	      0.02377812	      0.02377812	      0.02377812	      0.02377812	      0.02377812	      0.02377812	      0.00000000	      0.00000000	      0.00000000	      0.00000000	      0.00000000	     -0.00000000	      0.00000000	      0.00000000	      0.00000000	     -0.00000000	    -57.86732172	     19.03189974	     11.48536649	     -2.72100101	      6.18085646	      5.69806476	      7.95113929
      0.14800000	      0.02283312	      0.02283312	      0.02283312	      0.02283312	      0.02283312	      0.02283312	      0.02283312	      0.02283312	      0.02283312	      0.02283312	      0.02283312	      0.02283312	      0.02283312	      0.02283312	      0.02283312	      0.66399126	      0.02283312	      0.99999480	      0.02283312	      0.99999392	      0.02283312	      0.99999298	      0.02283312	      0.99998304	      0.02283312	      0.02283312	      0.02283312	      0.02283312	      0.02283312	      0.99992465	      0.02283312	      0.99994990	      0.02283312	      0.99197662	      0.02283312	      0.99982536	      0.02283312	      0.02283312	      0.02283312	      0.02283312	      0.02283312	      0.02283312	      0.02283312	      0.02283312	      0.02283312	      0.02283312	      0.02283312	      0.02283312	     -0.00000000	     -0.00000000	     -0.00000000	     -0.00000000	     -0.00000000	     -0.00000000	     -0.00000000	     -0.00000000	     -0.00000000	     -0.00000000	    -27.09442301	     -8.60622776	      1.93996495	     -3.54970396	      2.34534923	     -0.88366890	      4.92441750
      0.15200000	      0.01340430	      0.01340430	      0.01340430	      0.01340430	      0.01340430	      0.01340430	      0.01340430	      0.01340430	      0.01340430	      0.01340430	      0.01340430	      0.01340430	      0.01340430	      0.01340430	      0.01340430	      0.01001287	      0.01340430	      0.01000086	      0.01340430	      0.01000101	      0.01340430	      0.01000113	      0.01340430	      0.01000231	      0.01340430	      0.01340430	      0.01340430	      0.01340430	      0.01340430	      0.01000565	      0.01340430	      0.01000412	      0.01340430	      0.01000839	      0.01340430	      0.01000537	      0.01340430	      0.01340430	      0.01340430	      0.01340430	      0.01340430	      0.01340430	      0.01340430	      0.01340430	      0.01340430	      0.01340430	      0.01340430	      0.01340430	     -0.00000000	     -0.00000000	     -0.00000000	     -0.00000000	     -0.00000000	      0.00000000	     -0.00000000	      0.00000000	     -0.00000000	     -0.00000000	     30.49917040	      6.27681342	     -2.96520806	     15.55190005	     -1.16023333	      0.59985602	     -5.66955912
      0.15600000	      0.01340152	      0.01340152	      0.01340152	      0.01340152	      0.01340152	      0.01340152	      0.01340152	      0.01340152	      0.01340152	      0.01340152	      0.01340152	      0.01340152	      0.01340152	      0.01340152	      0.01340152	      0.01000498	      0.01340152	      0.01000033	      0.01340152	      0.01000038	      0.01340152	      0.01000043	      0.01340152	      0.01000089	      0.01340152	      0.01340152	      0.01340152	      0.01340152	      0.01340152	      0.01000227	      0.01340152	      0.01000161	      0.01340152	      0.01000334	      0.01340152	      0.01000205	      0.01340152	      0.01340152	      0.01340152	      0.01340152	      0.01340152	      0.01340152	      0.01340152	      0.01340152	      0.01340152	      0.01340152	      0.01340152	      0.01340152	      0.00000000	     -0.00000000	      0.00000000	     -0.00000000	     -0.00000000	     -0.00000000	     -0.00000000	      0.00000000	     -0.00000000	      0.00000000	     31.11932023	     56.26115520	      6.95644179	     37.01358677	      3.16179979	     10.95010327	     -9.49935396
      0.16000000	      0.02135567	      0.02135567	      0.02135567	      0.02135567	      0.02135567	      0.02135567	      0.02135567	      0.02135567	      0.02135567	      0.02135567	      0.02135567	      0.02135567	      0.02135567	      0.02135567	      0.02135567	      0.99999294	      0.02135567	      0.99999961	      0.02135567	      0.99999954	      0.02135567	      0.99999949	      0.02135567	      0.99999894	      0.02135567	      0.02135567	      0.02135567	      0.02135567	      0.02135567	      0.99999706	      0.02135567	      0.99999794	      0.02135567	      0.99999553	      0.02135567	      0.99999734	      0.02135567	      0.02135567	      0.02135567	      0.02135567	      0.02135567	      0.02135567	      0.02135567	      0.02135567	      0.02135567	      0.02135567	      0.02135567	      0.02135567	     -0.00000000	     -0.00000000	     -0.00000000	     -0.00000000	     -0.00000000	      0.00000000	     -0.00000000	     -0.00000000	     -0.00000000	      0.00000000	    -41.89407180	    -64.00124843	     -7.09610122	    -30.26542141	     -1.28944977	    -11.83318810	     11.39929358
      0.16400000	      0.01566394	      0.01566394	      0.01566394	      0.01566394	      0.01566394	      0.01566394	      0.01566394	      0.01566394	      0.01566394	      0.01566394	      0.01566394	      0.01566394	      0.01566394	      0.01566394	      0.01566394	      0.01107722	      0.01566394	      0.01004561	      0.01566394	      0.01005200	      0.01566394	      0.01005690	      0.01566394	      0.01012931	      0.01566394	      0.01566394	      0.01566394	      0.01566394	      0.01566394	      0.01031046	      0.01566394	      0.01019079	      0.01566394	      0.01047092	      0.01566394	      0.01023893	      0.01566394	      0.01566394	      0.01566394	      0.01566394	      0.01566394	      0.01566394	      0.01566394	      0.01566394	      0.01566394	      0.01566394	      0.01566394	      0.01566394	      0.00000000	      0.00000000	      0.00000000	      0.00000000	      0.00000000	      0.00000000	      0.00000000	      0.00000000	      0.00000000	      0.00000000	     -1.46619992	      0.21301774	      0.28637532	      0.35699175	      0.15024787	      0.58075146	     -0.29831033
      0.16800000	      0.01344115	      0.01344115	      0.01344115	      0.01344115	      0.01344115	      0.01344115	      0.01344115	      0.01344115	      0.01344115	      0.01344115	      0.01344115	      0.01344115	      0.01344115	      0.01344115	      0.01344115	      0.01000273	      0.01344115	      0.01000017	      0.01344115	      0.01000020	      0.01344115	      0.01000022	      0.01344115	      0.01000045	      0.01344115	      0.01344115	      0.01344115	      0.01344115	      0.01344115	      0.01000123	      0.01344115	      0.01000088	      0.01344115	      0.01000182	      0.01344115	      0.01000112	      0.01344115	      0.01344115	      0.01344115	      0.01344115	      0.01344115	      0.01344115	      0.01344115	      0.01344115	      0.01344115	      0.01344115	      0.01344115	      0.01344115	     -0.00000000	     -0.00000000	     -0.00000000	      0.00000000	      0.00000000	     -0.00000000	     -0.00000000	     -0.00000000	     -0.00000000	     -0.00000000	     77.12086042	     71.10342806	      4.29272841	     65.21850177	      2.44760391	     14.41291882	    -19.90214560
      0.17200000	      0.02587863	      0.02587863	      0.02587863	      0.02587863	      0.02587863	      0.02587863	      0.02587863	      0.02587863	      0.02587863	      0.02587863	      0.02587863	      0.02587863	      0.02587863	      0.02587863	      0.02587863	      0.99999522	      0.02587863	      0.99999976	      0.02587863	      0.99999972	      0.02587863	      0.99999969	      0.02587863	      0.99999937	      0.02587863	      0.02587863	      0.02587863	      0.02587863	      0.02587863	      0.99999819	      0.02587863	      0.99999872	      0.02587863	      0.99999726	      0.02587863	      0.99999834	      0.02587863	      0.02587863	      0.02587863	      0.02587863	      0.02587863	      0.02587863	      0.02587863	      0.02587863	      0.02587863	      0.02587863	      0.02587863	      0.02587863	      0.00000000	      0.00000000	     -0.00000000	     -0.00000000	     -0.00000000	     -0.00000000	      0.00000000	     -0.00000000	      0.00000000	      0.00000000	    -70.68998377	    -69.37280252	     -4.84711440	    -47.02294445	     -0.66409029	    -13.74894398	     18.37176574
      0.17600000	      0.02759985	      0.02759985	      0.02759985	      0.02759985	      0.02759985	      0.02759985	      0.02759985	      0.02759985	      0.02759985	      0.02759985	      0.02759985	      0.02759985	      0.02759985	      0.02759985	      0.02759985	      0.02910733	      0.02759985	      0.09738596	      0.02759985	      0.07273633	      0.02759985	      0.07239484	      0.02759985	      0.04485637	      0.02759985	      0.02759985	      0.02759985	      0.02759985	      0.02759985	      0.03699550	      0.02759985	      0.05766317	      0.02759985	      0.03572408	      0.02759985	      0.06070866	      0.02759985	      0.02759985	      0.02759985	      0.02759985	      0.02759985	      0.02759985	      0.02759985	      0.02759985	      0.02759985	      0.02759985	      0.02759985	      0.02759985	      0.00000000	      0.00000000	      0.00000000	     -0.00000000	      0.00000000	     -0.00000000	      0.00000000	      0.00000000	     -0.00000000	     -0.00000000	      0.60477487	     -2.41026313	     -0.63771726	     -0.01712979	     -0.18020999	     -0.44072579	     -0.00934568
      0.18000000	      0.01343781	      0.01343781	      0.01343781	      0.01343781	      0.01343781	      0.01343781	      0.01343781	      0.01343781	      0.01343781	      0.01343781	      0.01343781	      0.01343781	      0.01343781	      0.01343781	      0.01343781	      0.01000443	      0.01343781	      0.01000024	      0.01343781	      0.01000029	      0.01343781	      0.01000031	      0.01343781	      0.01000063	      0.01343781	      0.01343781	      0.01343781	      0.01343781	      0.01343781	      0.01000178	      0.01343781	      0.01000127	      0.01343781	      0.01000264	      0.01343781	      0.01000162	      0.01343781	      0.01343781	      0.01343781	      0.01343781	      0.01343781	      0.01343781	      0.01343781	      0.01343781	      0.01343781	      0.01343781	      0.01343781	      0.01343781	     -0.00000000	     -0.00000000	     -0.00000000	     -0.00000000	     -0.00000000	     -0.00000000	      0.00000000	      0.00000000	     -0.00000000	     -0.00000000	     58.32890005	     46.46433540	      1.82062355	     46.78551547	      1.30910906	      9.60753408	    -14.82766147
      0.18400000	      0.02363962	      0.02363962	      0.02363962	      0.02363962	      0.02363962	      0.02363962	      0.02363962	      0.02363962	      0.02363962	      0.02363962	      0.02363962	      0.02363962	      0.02363962	      0.02363962	      0.02363962	      0.99999109	      0.02363962	      0.99999962	      0.02363962	      0.99999955	      0.02363962	      0.99999951	      0.02363962	      0.99999902	      0.02363962	      0.02363962	      0.02363962	      0.02363962	      0.02363962	      0.99999707	      0.02363962	      0.99999794	      0.02363962	      0.99999550	      0.02363962	      0.99999731	      0.02363962	      0.02363962	      0.02363962	      0.02363962	      0.02363962	      0.02363962	      0.02363962	      0.02363962	      0.02363962	      0.02363962	      0.02363962	      0.02363962	      0.00000000	      0.00000000	      0.00000000	      0.00000000	     -0.00000000	      0.00000000	      0.00000000	     -0.00000000	     -0.00000000	     -0.00000000	    -55.33870171	    -47.68957419	     -2.39838610	    -31.30120065	      0.38459267	     -9.26725667	     13.81709282
      0.18800000	      0.01338303	      0.01338303	      0.01338303	      0.01338303	      0.01338303	      0.01338303	      0.01338303	      0.01338303	      0.01338303	      0.01338303	      0.01338303	      0.01338303	      0.01338303	      0.01338303	      0.01338303	      0.01003676	      0.01338303	      0.01000185	      0.01338303	      0.01000220	      0.01338303	      0.01000237	      0.01338303	      0.01000466	      0.01338303	      0.01338303	      0.01338303	      0.01338303	      0.01338303	      0.01001106	      0.01338303	      0.01000790	      0.01338303	      0.01001635	      0.01338303	      0.01001014	      0.01338303	      0.01338303	      0.01338303	      0.01338303	      0.01338303	      0.01338303	      0.01338303	      0.01338303	      0.01338303	      0.01338303	      0.01338303	      0.01338303	     -0.00000000	     -0.00000000	      0.00000000	     -0.00000000	     -0.00000000	      0.00000000	      0.00000000	     -0.00000000	     -0.00000000	      0.00000000	      9.66651127	      9.15131630	      0.43140190	      8.37091731	      0.22059565	      1.85434212	     -2.58034913
      0.19200000	      0.01338969	      0.01338969	      0.01338969	      0.01338969	      0.01338969	      0.01338969	      0.01338969	      0.01338969	      0.01338969	      0.01338969	      0.01338969	      0.01338969	      0.01338969	      0.01338969	      0.01338969	      0.01001093	      0.01338969	      0.01000055	      0.01338969	      0.01000066	      0.01338969	      0.01000071	      0.01338969	      0.01000141	      0.01338969	      0.01338969	      0.01338969	      0.01338969	      0.01338969	      0.01000393	      0.01338969	      0.01000282	      0.01338969	      0.01000584	      0.01338969	      0.01000363	      0.01338969	      0.01338969	      0.01338969	      0.01338969	      0.01338969	      0.01338969	      0.01338969	      0.01338969	      0.01338969	      0.01338969	      0.01338969	      0.01338969	      0.00000000	     -0.00000000	      0.00000000	     -0.00000000	      0.00000000	     -0.00000000	      0.00000000	      0.00000000	      0.00000000	      0.00000000	     30.96550103	     22.47045629	     -0.30365081	     22.44105587	     -0.13111351	      3.77514925	     -6.87355830
      0.19600000	      0.02371902	      0.02371902	      0.02371902	      0.02371902	      0.02371902	      0.02371902	      0.02371902	      0.02371902	      0.02371902	      0.02371902	      0.02371902	      0.02371902	      0.02371902	      0.02371902	      0.02371902	      0.56134748	      0.02371902	      0.99999550	      0.02371902	      0.99999467	      0.02371902	      0.99999414	      0.02371902	      0.99998683	      0.02371902	      0.02371902	      0.02371902	      0.02371902	      0.02371902	      0.99992359	      0.02371902	      0.99995359	      0.02371902	      0.99201055	      0.02371902	      0.99987429	      0.02371902	      0.02371902	      0.02371902	      0.02371902	      0.02371902	      0.02371902	      0.02371902	      0.02371902	      0.02371902	      0.02371902	      0.02371902	      0.02371902	     -0.00000000	      0.00000000	      0.00000000	      0.00000000	     -0.00000000	     -0.00000000	     -0.00000000	     -0.00000000	      0.00000000	     -0.00000000	    -22.41259279	    -18.16130459	      0.08602599	     -3.49332097	      1.87306546	     -2.44250884	      4.38220639
      0.20000000	      0.01877870	      0.01877870	      0.01877870	      0.01877870	      0.01877870	      0.01877870	      0.01877870	      0.01877870	      0.01877870	      0.01877870	      0.01877870	      0.01877870	      0.01877870	      0.01877870	      0.01877870	      0.29602294	      0.01877870	      0.99999075	      0.01877870	      0.99998876	      0.01877870	      0.99998755	      0.01877870	      0.99996681	      0.01877870	      0.01877870	      0.01877870	      0.01877870	      0.01877870	      0.86168937	      0.01877870	      0.99961296	      0.01877870	      0.56366064	      0.01877870	      0.80785548	      0.01877870	      0.01877870	      0.01877870	      0.01877870	      0.01877870	      0.01877870	      0.01877870	      0.01877870	      0.01877870	      0.01877870	      0.01877870	      0.01877870	      0.00000000	      0.00000000	      0.00000000	     -0.00000000	     -0.00000000	      0.00000000	      0.00000000	     -0.00000000	      0.00000000	      0.00000000	    -14.79259140	    -16.96231658	     -1.76257729	     -1.82846331	      0.65112971	     -3.31704745	      3.95725428
