Static Optimization
version=1
nRows=51
nColumns=67
inDegrees=no
This file contains static optimization results.

endheader
time	biceplongus_r	biceplongus_l	bicepbrevis_r	bicepbrevis_l	triceplong_1_r	triceplong_1_l	triceplong_2_r	triceplong_2_l	triceplong_3_r	triceplong_3_l	triceplat_1_r	triceplat_1_l	triceplat_2_r	triceplat_2_l	triceplat_3_r	triceplat_3_l	tricepmed_1_r	tricepmed_1_l	tricepmed_2_r	tricepmed_2_l	tricepmed_3_r	tricepmed_3_l	tricepmed_4_r	tricepmed_4_l	brachiorad_1_r	brachiorad_1_l	brachiorad_2_r	brachiorad_2_l	brachialis_1_r	brachialis_1_l	brachialis_2_r	brachialis_2_l	brachialis_3_r	brachialis_3_l	brachialis_4_r	brachialis_4_l	flex_carpi_rad_r	flex_carpi_rad_l	palmaris_longus_r	palmaris_longus_l	flex_carpi_ulna_r	flex_carpi_ulna_l	exten_carpi_ulna_r	exten_carpi_ulna_l	exten_carpi_rad_lon_r	exten_carpi_rad_lon_l	exten_carpi_rad_bre_r	exten_carpi_rad_bre_l	Newmuscle	lumbar_ext	lumbar_bend	lumbar_rot	shoulder_flex_r	shoulder_add_r	shoulder_rot_r	elbow_flex_r	pro_sup_r	wrist_flex_r	wrist_dev_r	shoulder_flex_l	shoulder_add_l	shoulder_rot_l	elbow_flex_l	pro_sup_l	wrist_flex_l	wrist_dev_l
      0.00000000	      0.02169721	      0.02169721	      0.02169721	      0.02169721	      0.02169721	      0.02169721	      0.02169721	      0.02169721	      0.02169721	      0.02169721	      0.02169721	      0.02169721	      0.02169721	      0.02169721	      0.02169721	      0.02169721	      0.01005952	      0.02169721	      0.01010741	      0.02169721	      0.01003478	      0.02169721	      0.01003700	      0.02169721	      0.02169721	      0.02169721	      0.02169721	      0.02169721	      0.19133314	      0.02169721	      0.01248832	      0.02169721	      0.09097247	      0.02169721	      0.01043331	      0.02169721	      0.02169721	      0.02169721	      0.02169721	      0.02169721	      0.02169721	      0.02169721	      0.02169721	      0.02169721	      0.02169721	      0.02169721	      0.02169721	      0.02169721	      0.02169721	     -0.00000000	     -0.00000000	     -0.00000000	      0.22018283	     -2.14969266	     -1.55562296	      0.20682257	      0.48307717	      0.10180957	     -0.22088116	     -0.00000000	     -0.00000000	     -0.00000000	     -0.00000000	      0.00000000	     -0.00000000	      0.00000000
      0.00400000	      0.02406485	      0.02406485	      0.02406485	      0.02406485	      0.02406485	      0.02406485	      0.02406485	      0.02406485	      0.02406485	      0.02406485	      0.02406485	      0.02406485	      0.02406485	      0.02406485	      0.02406485	      0.02406485	      0.01018880	      0.02406485	      0.01048362	      0.02406485	      0.01007224	      0.02406485	      0.01008249	      0.02406485	      0.02406485	      0.02406485	      0.02406485	      0.02406485	      0.11005092	      0.02406485	      0.01707864	      0.02406485	      0.05779624	      0.02406485	      0.01189242	      0.02406485	      0.02406485	      0.02406485	      0.02406485	      0.02406485	      0.02406485	      0.02406485	      0.02406485	      0.02406485	      0.02406485	      0.02406485	      0.02406485	      0.02406485	      0.02406485	      0.00000000	      0.00000000	     -0.00000000	      0.17341194	     -0.72072313	     -0.59782686	      0.11739322	      0.26857997	      0.06089121	     -0.08232051	      0.00000000	     -0.00000000	      0.00000000	     -0.00000000	     -0.00000000	      0.00000000	      0.00000000
      0.00800000	      0.01819521	      0.01819521	      0.01819521	      0.01819521	      0.01819521	      0.01819521	      0.01819521	      0.01819521	      0.01819521	      0.01819521	      0.01819521	      0.01819521	      0.01819521	      0.01819521	      0.01819521	      0.01819521	      0.01043344	      0.01819521	      0.01104101	      0.01819521	      0.01012148	      0.01819521	      0.01014691	      0.01819521	      0.01819521	      0.01819521	      0.01819521	      0.01819521	      0.04005591	      0.01819521	      0.01412759	      0.01819521	      0.01964083	      0.01819521	      0.01216183	      0.01819521	      0.01819521	      0.01819521	      0.01819521	      0.01819521	      0.01819521	      0.01819521	      0.01819521	      0.01819521	      0.01819521	      0.01819521	      0.01819521	      0.01819521	      0.01819521	     -0.00000000	      0.00000000	      0.00000000	      0.11170997	     -0.19490003	     -0.10562009	      0.05967227	      0.15687095	      0.00832532	     -0.02295902	      0.00000000	      0.00000000	      0.00000000	     -0.00000000	      0.00000000	      0.00000000	     -0.00000000
      0.01200000	      0.01829235	      0.01829235	      0.01829235	      0.01829235	      0.01829235	      0.01829235	      0.01829235	      0.01829235	      0.01829235	      0.01829235	      0.01829235	      0.01829235	      0.01829235	      0.01829235	      0.01829235	      0.01829235	      0.01020916	      0.01829235	      0.01045628	      0.01829235	      0.01010052	      0.01829235	      0.01010818	      0.01829235	      0.01829235	      0.01829235	      0.01829235	      0.01829235	      0.07309448	      0.01829235	      0.01491102	      0.01829235	      0.04173481	      0.01829235	      0.01156865	      0.01829235	      0.01829235	      0.01829235	      0.01829235	      0.01829235	      0.01829235	      0.01829235	      0.01829235	      0.01829235	      0.01829235	      0.01829235	      0.01829235	      0.01829235	      0.01829235	      0.00000000	     -0.00000000	      0.00000000	      0.41049767	     -0.10029418	     -0.05786689	      0.07476819	      0.17006882	      0.05091405	      0.00024823	      0.00000000	     -0.00000000	      0.00000000	      0.00000000	      0.00000000	      0.00000000	     -0.00000000
      0.01600000	      0.01845477	      0.01845477	      0.01845477	      0.01845477	      0.01845477	      0.01845477	      0.01845477	      0.01845477	      0.01845477	      0.01845477	      0.01845477	      0.01845477	      0.01845477	      0.01845477	      0.01845477	      0.01845477	      0.01034875	      0.01845477	      0.01085653	      0.01845477	      0.01010282	      0.01845477	      0.01011832	      0.01845477	      0.01845477	      0.01845477	      0.01845477	      0.01845477	      0.04134297	      0.01845477	      0.01368700	      0.01845477	      0.01889710	      0.01845477	      0.01187937	      0.01845477	      0.01845477	      0.01845477	      0.01845477	      0.01845477	      0.01845477	      0.01845477	      0.01845477	      0.01845477	      0.01845477	      0.01845477	      0.01845477	      0.01845477	      0.01845477	      0.00000000	     -0.00000000	     -0.00000000	     -0.20167967	     -0.38827579	     -0.21752131	      0.07061345	      0.19355284	     -0.00516939	     -0.05232839	      0.00000000	     -0.00000000	     -0.00000000	      0.00000000	      0.00000000	      0.00000000	     -0.00000000
      0.02000000	      0.01743279	      0.01743279	      0.01743279	      0.01743279	      0.01743279	      0.01743279	      0.01743279	      0.01743279	      0.01743279	      0.01743279	      0.01743279	      0.01743279	      0.01743279	      0.01743279	      0.01743279	      0.01743279	      0.01031509	      0.01743279	      0.01069010	      0.01743279	      0.01014510	      0.01743279	      0.01015429	      0.01743279	      0.01743279	      0.01743279	      0.01743279	      0.01743279	      0.06279398	      0.01743279	      0.01692669	      0.01743279	      0.04275342	      0.01743279	      0.01278318	      0.01743279	      0.01743279	      0.01743279	      0.01743279	      0.01743279	      0.01743279	      0.01743279	      0.01743279	      0.01743279	      0.01743279	      0.01743279	      0.01743279	      0.01743279	      0.01743279	      0.00000000	     -0.00000000	     -0.00000000	      0.37746300	      0.39461587	      0.22398635	      0.05418868	      0.11544005	      0.05944833	      0.04825508	     -0.00000000	     -0.00000000	     -0.00000000	      0.00000000	     -0.00000000	     -0.00000000	     -0.00000000
      0.02400000	      0.01768160	      0.01768160	      0.01768160	      0.01768160	      0.01768160	      0.01768160	      0.01768160	      0.01768160	      0.01768160	      0.01768160	      0.01768160	      0.01768160	      0.01768160	      0.01768160	      0.01768160	      0.01768160	      0.01013925	      0.01768160	      0.01028157	      0.01768160	      0.01007520	      0.01768160	      0.01007788	      0.01768160	      0.01768160	      0.01768160	      0.01768160	      0.01768160	      0.06959597	      0.01768160	      0.01304379	      0.01768160	      0.03041674	      0.01768160	      0.01104752	      0.01768160	      0.01768160	      0.01768160	      0.01768160	      0.01768160	      0.01768160	      0.01768160	      0.01768160	      0.01768160	      0.01768160	      0.01768160	      0.01768160	      0.01768160	      0.01768160	      0.00000000	      0.00000000	     -0.00000000	      0.18712264	     -0.27233801	     -0.18821350	      0.09516186	      0.23762238	      0.01222620	     -0.05652683	     -0.00000000	     -0.00000000	      0.00000000	      0.00000000	      0.00000000	     -0.00000000	      0.00000000
      0.02800000	      0.02207821	      0.02207821	      0.02207821	      0.02207821	      0.02207821	      0.02207821	      0.02207821	      0.02207821	      0.02207821	      0.02207821	      0.02207821	      0.02207821	      0.02207821	      0.02207821	      0.02207821	      0.02207821	      0.02717770	      0.02207821	      0.02767494	      0.02207821	      0.08884830	      0.02207821	      0.12707435	      0.02207821	      0.02207821	      0.02207821	      0.02207821	      0.02207821	      0.01002278	      0.02207821	      0.01002319	      0.02207821	      0.01001699	      0.02207821	      0.01001629	      0.02207821	      0.02207821	      0.02207821	      0.02207821	      0.02207821	      0.02207821	      0.02207821	      0.02207821	      0.02207821	      0.02207821	      0.02207821	      0.02207821	      0.02207821	      0.02207821	     -0.00000000	      0.00000000	     -0.00000000	     -0.82665519	     -0.08972664	      0.16868217	     -0.30052202	      0.58394160	     -0.20486130	     -0.05706897	     -0.00000000	     -0.00000000	      0.00000000	     -0.00000000	      0.00000000	     -0.00000000	      0.00000000
      0.03200000	      0.02440940	      0.02440940	      0.02440940	      0.02440940	      0.02440940	      0.02440940	      0.02440940	      0.02440940	      0.02440940	      0.02440940	      0.02440940	      0.02440940	      0.02440940	      0.02440940	      0.02440940	      0.02440940	      0.02959756	      0.02440940	      0.02737202	      0.02440940	      0.03288762	      0.02440940	      0.03087976	      0.02440940	      0.02440940	      0.02440940	      0.02440940	      0.02440940	      0.01904581	      0.02440940	      0.02304669	      0.02440940	      0.02259855	      0.02440940	      0.02683730	      0.02440940	      0.02440940	      0.02440940	      0.02440940	      0.02440940	      0.02440940	      0.02440940	      0.02440940	      0.02440940	      0.02440940	      0.02440940	      0.02440940	      0.02440940	      0.02440940	     -0.00000000	     -0.00000000	     -0.00000000	      1.21795079	      1.34919516	      0.97527801	     -0.00258866	     -0.01622586	      0.10837160	      0.23593872	     -0.00000000	     -0.00000000	      0.00000000	      0.00000000	     -0.00000000	     -0.00000000	      0.00000000
      0.03600000	      0.01822876	      0.01822876	      0.01822876	      0.01822876	      0.01822876	      0.01822876	      0.01822876	      0.01822876	      0.01822876	      0.01822876	      0.01822876	      0.01822876	      0.01822876	      0.01822876	      0.01822876	      0.01822876	      0.01007368	      0.01822876	      0.01013775	      0.01822876	      0.01004138	      0.01822876	      0.01004156	      0.01822876	      0.01822876	      0.01822876	      0.01822876	      0.01822876	      0.21923012	      0.01822876	      0.02689888	      0.01822876	      0.15093351	      0.01822876	      0.01170715	      0.01822876	      0.01822876	      0.01822876	      0.01822876	      0.01822876	      0.01822876	      0.01822876	      0.01822876	      0.01822876	      0.01822876	      0.01822876	      0.01822876	      0.01822876	      0.01822876	      0.00000000	      0.00000000	     -0.00000000	      0.77700220	     -1.33054824	     -0.80752107	      0.19954844	      0.42704853	      0.16569828	     -0.09532567	     -0.00000000	      0.00000000	      0.00000000	     -0.00000000	      0.00000000	      0.00000000	     -0.00000000
      0.04000000	      0.01918515	      0.01918515	      0.01918515	      0.01918515	      0.01918515	      0.01918515	      0.01918515	      0.01918515	      0.01918515	      0.01918515	      0.01918515	      0.01918515	      0.01918515	      0.01918515	      0.01918515	      0.01918515	      0.01012252	      0.01918515	      0.01026855	      0.01918515	      0.01006218	      0.01918515	      0.01006270	      0.01918515	      0.01918515	      0.01918515	      0.01918515	      0.01918515	      0.09020208	      0.01918515	      0.01260556	      0.01918515	      0.03542158	      0.01918515	      0.01075964	      0.01918515	      0.01918515	      0.01918515	      0.01918515	      0.01918515	      0.01918515	      0.01918515	      0.01918515	      0.01918515	      0.01918515	      0.01918515	      0.01918515	      0.01918515	      0.01918515	     -0.00000000	     -0.00000000	     -0.00000000	     -0.21239124	     -0.73452009	     -0.46396589	      0.11333266	      0.30372008	      0.01975758	     -0.10165420	      0.00000000	     -0.00000000	     -0.00000000	     -0.00000000	      0.00000000	     -0.00000000	      0.00000000
      0.04400000	      0.01855066	      0.01855066	      0.01855066	      0.01855066	      0.01855066	      0.01855066	      0.01855066	      0.01855066	      0.01855066	      0.01855066	      0.01855066	      0.01855066	      0.01855066	      0.01855066	      0.01855066	      0.01855066	      0.01032673	      0.01855066	      0.01081449	      0.01855066	      0.01013290	      0.01855066	      0.01013376	      0.01855066	      0.01855066	      0.01855066	      0.01855066	      0.01855066	      0.06728227	      0.01855066	      0.01863373	      0.01855066	      0.04722851	      0.01855066	      0.01367572	      0.01855066	      0.01855066	      0.01855066	      0.01855066	      0.01855066	      0.01855066	      0.01855066	      0.01855066	      0.01855066	      0.01855066	      0.01855066	      0.01855066	      0.01855066	      0.01855066	      0.00000000	      0.00000000	     -0.00000000	      0.38737942	      0.25959136	      0.07666719	      0.06099061	      0.13452396	      0.05637080	      0.01908606	     -0.00000000	     -0.00000000	     -0.00000000	      0.00000000	     -0.00000000	     -0.00000000	      0.00000000
      0.04800000	      0.01389523	      0.01389523	      0.01389523	      0.01389523	      0.01389523	      0.01389523	      0.01389523	      0.01389523	      0.01389523	      0.01389523	      0.01389523	      0.01389523	      0.01389523	      0.01389523	      0.01389523	      0.01389523	      0.01014946	      0.01389523	      0.01028110	      0.01389523	      0.01008434	      0.01389523	      0.01008381	      0.01389523	      0.01389523	      0.01389523	      0.01389523	      0.01389523	      0.07241760	      0.01389523	      0.01165117	      0.01389523	      0.03725710	      0.01389523	      0.01068084	      0.01389523	      0.01389523	      0.01389523	      0.01389523	      0.01389523	      0.01389523	      0.01389523	      0.01389523	      0.01389523	      0.01389523	      0.01389523	      0.01389523	      0.01389523	      0.01389523	      0.00000000	      0.00000000	     -0.00000000	      0.04951354	      0.00643848	     -0.11858471	      0.08453445	      0.21720887	      0.02352156	     -0.04422197	      0.00000000	      0.00000000	      0.00000000	      0.00000000	      0.00000000	      0.00000000	      0.00000000
      0.05200000	      0.02011125	      0.02011125	      0.02011125	      0.02011125	      0.02011125	      0.02011125	      0.02011125	      0.02011125	      0.02011125	      0.02011125	      0.02011125	      0.02011125	      0.02011125	      0.02011125	      0.02011125	      0.02011125	      0.01096079	      0.02011125	      0.01240106	      0.02011125	      0.01017671	      0.02011125	      0.01017691	      0.02011125	      0.02011125	      0.02011125	      0.02011125	      0.02011125	      0.04457453	      0.02011125	      0.01698848	      0.02011125	      0.02591506	      0.02011125	      0.01342767	      0.02011125	      0.02011125	      0.02011125	      0.02011125	      0.02011125	      0.02011125	      0.02011125	      0.02011125	      0.02011125	      0.02011125	      0.02011125	      0.02011125	      0.02011125	      0.02011125	     -0.00000000	     -0.00000000	      0.00000000	      0.04412581	      0.20965864	      0.16668215	      0.04779460	      0.12041288	      0.02536571	      0.02111955	     -0.00000000	     -0.00000000	      0.00000000	     -0.00000000	      0.00000000	     -0.00000000	      0.00000000
      0.05600000	      0.01494878	      0.01494878	      0.01494878	      0.01494878	      0.01494878	      0.01494878	      0.01494878	      0.01494878	      0.01494878	      0.01494878	      0.01494878	      0.01494878	      0.01494878	      0.01494878	      0.01494878	      0.01494878	      0.01040413	      0.01494878	      0.01088512	      0.01494878	      0.01016387	      0.01494878	      0.01015980	      0.01494878	      0.01494878	      0.01494878	      0.01494878	      0.01494878	      0.02526982	      0.01494878	      0.01285803	      0.01494878	      0.01600018	      0.01494878	      0.01168069	      0.01494878	      0.01494878	      0.01494878	      0.01494878	      0.01494878	      0.01494878	      0.01494878	      0.01494878	      0.01494878	      0.01494878	      0.01494878	      0.01494878	      0.01494878	      0.01494878	      0.00000000	     -0.00000000	     -0.00000000	      0.16853184	     -0.16687612	      0.00929074	      0.03839741	      0.11182029	      0.00653153	      0.00168513	      0.00000000	     -0.00000000	     -0.00000000	     -0.00000000	     -0.00000000	     -0.00000000	     -0.00000000
      0.06000000	      0.02113244	      0.02113244	      0.02113244	      0.02113244	      0.02113244	      0.02113244	      0.02113244	      0.02113244	      0.02113244	      0.02113244	      0.02113244	      0.02113244	      0.02113244	      0.02113244	      0.02113244	      0.02113244	      0.01022238	      0.02113244	      0.01061665	      0.02113244	      0.01008707	      0.02113244	      0.01008443	      0.02113244	      0.02113327	      0.02113244	      0.02113244	      0.02113244	      0.08796314	      0.02113244	      0.01728393	      0.02113244	      0.05273873	      0.02113244	      0.01233007	      0.02113244	      0.02113244	      0.02113244	      0.02113244	      0.02113244	      0.02113244	      0.02113244	      0.02113244	      0.02113244	      0.02113244	      0.02113244	      0.02113244	      0.02113244	      0.02113244	     -0.00000000	      0.00000000	     -0.00000000	      0.24302337	     -0.86148183	     -0.53377882	      0.09294190	      0.23038246	      0.05107418	     -0.07085116	     -0.00000000	     -0.00000000	     -0.00000000	     -0.00000000	      0.00000000	      0.00000000	     -0.00000000
      0.06400000	      0.01480815	      0.01480815	      0.01480815	      0.01480815	      0.01480815	      0.01480815	      0.01480815	      0.01480815	      0.01480815	      0.01480815	      0.01480815	      0.01480815	      0.01480815	      0.01480815	      0.01480815	      0.01480815	      0.01046469	      0.01480815	      0.01101317	      0.01480815	      0.01018368	      0.01480815	      0.01017558	      0.01480815	      0.01482622	      0.01480815	      0.01480815	      0.01480815	      0.02544590	      0.01480815	      0.01305010	      0.01480815	      0.01649626	      0.01480815	      0.01180317	      0.01480815	      0.01480815	      0.01480815	      0.01480815	      0.01480815	      0.01480815	      0.01480815	      0.01480815	      0.01480815	      0.01480815	      0.01480815	      0.01480815	      0.01480815	      0.01480815	      0.00000000	     -0.00000000	      0.00000000	      0.02199637	      0.31289500	      0.24381068	      0.03443115	      0.09806977	      0.00662142	      0.02633094	     -0.00000000	      0.00000000	      0.00000000	      0.00000000	     -0.00000000	      0.00000000	      0.00000000
      0.06800000	      0.01680894	      0.01680894	      0.01680894	      0.01680894	      0.01680894	      0.01680894	      0.01680894	      0.01680894	      0.01680894	      0.01680894	      0.01680894	      0.01680894	      0.01680894	      0.01680894	      0.01680894	      0.01680894	      0.01031388	      0.01680894	      0.01073689	      0.01680894	      0.01026707	      0.01680894	      0.01028004	      0.01680894	      0.01707027	      0.01680894	      0.01680894	      0.01680894	      0.05107039	      0.01680894	      0.01541280	      0.01680894	      0.02832778	      0.01680894	      0.01378389	      0.01680894	      0.01680894	      0.01680894	      0.01680894	      0.01680894	      0.01680894	      0.01680894	      0.01680894	      0.01680894	      0.01680894	      0.01680894	      0.01680894	      0.01680894	      0.01680894	     -0.00000000	     -0.00000000	      0.00000000	      0.12054645	      0.16094059	      0.07734245	      0.05621664	      0.14580338	      0.02479615	      0.00186723	     -0.00000000	     -0.00000000	      0.00000000	     -0.00000000	      0.00000000	     -0.00000000	     -0.00000000
      0.07200000	      0.01738850	      0.01738850	      0.01738850	      0.01738850	      0.01738850	      0.01738850	      0.01738850	      0.01738850	      0.01738850	      0.01738850	      0.01738850	      0.01738850	      0.01738850	      0.01738850	      0.01738850	      0.01738850	      0.01022392	      0.01738850	      0.01053212	      0.01738850	      0.01010671	      0.01738850	      0.01010194	      0.01738850	      0.01822116	      0.01738850	      0.01738850	      0.01738850	      0.06512465	      0.01738850	      0.01481015	      0.01738850	      0.03938473	      0.01738850	      0.01167028	      0.01738850	      0.01738850	      0.01738850	      0.01738850	      0.01738850	      0.01738850	      0.01738850	      0.01738850	      0.01738850	      0.01738850	      0.01738850	      0.01738850	      0.01738850	      0.01738850	      0.00000000	      0.00000000	     -0.00000000	      0.29343636	     -0.43298913	     -0.25340366	      0.07097306	      0.18056909	      0.03605151	     -0.03586853	     -0.00000000	     -0.00000000	      0.00000000	      0.00000000	     -0.00000000	      0.00000000	      0.00000000
      0.07600000	      0.02038636	      0.02038636	      0.02038636	      0.02038636	      0.02038636	      0.02038636	      0.02038636	      0.02038636	      0.02038636	      0.02038636	      0.02038636	      0.02038636	      0.02038636	      0.02038636	      0.02038636	      0.02038636	      0.01095349	      0.02038636	      0.01245335	      0.02038636	      0.01018696	      0.02038636	      0.01015940	      0.02038636	      0.02149126	      0.02038636	      0.02038636	      0.02038636	      0.04871364	      0.02038636	      0.01683806	      0.02038636	      0.02670042	      0.02038636	      0.01282908	      0.02038636	      0.02038636	      0.02038636	      0.02038636	      0.02038636	      0.02038636	      0.02038636	      0.02038636	      0.02038636	      0.02038636	      0.02038636	      0.02038636	      0.02038636	      0.02038636	      0.00000000	      0.00000000	      0.00000000	      0.35190041	      0.04629979	      0.16019730	      0.05273262	      0.13843765	      0.02924932	      0.02180585	      0.00000000	      0.00000000	      0.00000000	     -0.00000000	     -0.00000000	     -0.00000000	      0.00000000
      0.08000000	      0.02617146	      0.02617146	      0.02617146	      0.02617146	      0.02617146	      0.02617146	      0.02617146	      0.02617146	      0.02617146	      0.02617146	      0.02617146	      0.02617146	      0.02617146	      0.02617146	      0.02617146	      0.02617146	      0.01028169	      0.02617146	      0.01096883	      0.02617146	      0.01008417	      0.02617146	      0.01007622	      0.02617146	      0.03117926	      0.02617146	      0.02617146	      0.02617146	      0.11447068	      0.02617146	      0.02198321	      0.02617146	      0.07524955	      0.02617146	      0.01341240	      0.02617146	      0.02617146	      0.02617146	      0.02617146	      0.02617146	      0.02617146	      0.02617146	      0.02617146	      0.02617146	      0.02617146	      0.02617146	      0.02617146	      0.02617146	      0.02617146	     -0.00000000	      0.00000000	     -0.00000000	      0.10352116	     -0.85097029	     -0.55821039	      0.11855054	      0.29306818	      0.07385484	     -0.08579560	      0.00000000	     -0.00000000	      0.00000000	     -0.00000000	     -0.00000000	      0.00000000	     -0.00000000
      0.08400000	      0.02306117	      0.02306117	      0.02306117	      0.02306117	      0.02306117	      0.02306117	      0.02306117	      0.02306117	      0.02306117	      0.02306117	      0.02306117	      0.02306117	      0.02306117	      0.02306117	      0.02306117	      0.02306117	      0.02670576	      0.02306117	      0.02539579	      0.02306117	      0.03831060	      0.02306117	      0.04696322	      0.02306117	      0.02163731	      0.02306117	      0.02306117	      0.02306117	      0.01035442	      0.02306117	      0.01046417	      0.02306117	      0.01021990	      0.02306117	      0.01019313	      0.02306117	      0.02306117	      0.02306117	      0.02306117	      0.02306117	      0.02306117	      0.02306117	      0.02306117	      0.02306117	      0.02306117	      0.02306117	      0.02306117	      0.02306117	      0.02306117	     -0.00000000	      0.00000000	      0.00000000	     -0.07653680	      1.00968954	      0.66520815	     -0.06441751	      0.11077911	     -0.05049683	      0.09024490	     -0.00000000	     -0.00000000	      0.00000000	      0.00000000	     -0.00000000	     -0.00000000	     -0.00000000
      0.08800000	      0.02343653	      0.02343653	      0.02343653	      0.02343653	      0.02343653	      0.02343653	      0.02343653	      0.02343653	      0.02343653	      0.02343653	      0.02343653	      0.02343653	      0.02343653	      0.02343653	      0.02343653	      0.02343653	      0.01121412	      0.02343653	      0.01321197	      0.02343653	      0.01021315	      0.02343653	      0.01015930	      0.02343653	      0.02795945	      0.02343653	      0.02343653	      0.02343653	      0.05595403	      0.02343653	      0.01923427	      0.02343653	      0.03139261	      0.02343653	      0.01442240	      0.02343653	      0.02343653	      0.02343653	      0.02343653	      0.02343653	      0.02343653	      0.02343653	      0.02343653	      0.02343653	      0.02343653	      0.02343653	      0.02343653	      0.02343653	      0.02343653	      0.00000000	     -0.00000000	     -0.00000000	      0.17635286	     -0.33510561	     -0.22327211	      0.06532851	      0.17738931	      0.04035887	     -0.03554113	      0.00000000	      0.00000000	      0.00000000	      0.00000000	      0.00000000	      0.00000000	      0.00000000
      0.09200000	      0.02051196	      0.02051196	      0.02051196	      0.02051196	      0.02051196	      0.02051196	      0.02051196	      0.02051196	      0.02051196	      0.02051196	      0.02051196	      0.02051196	      0.02051196	      0.02051196	      0.02051196	      0.02051196	      0.01028353	      0.02051196	      0.01085719	      0.02051196	      0.01011039	      0.02051196	      0.01010052	      0.02051196	      0.02852756	      0.02051196	      0.02051196	      0.02051196	      0.08208273	      0.02051196	      0.01888657	      0.02051196	      0.05737559	      0.02051196	      0.01276524	      0.02051196	      0.02051196	      0.02051196	      0.02051196	      0.02051196	      0.02051196	      0.02051196	      0.02051196	      0.02051196	      0.02051196	      0.02051196	      0.02051196	      0.02051196	      0.02051196	      0.00000000	      0.00000000	      0.00000000	      0.58982849	     -0.58416099	     -0.31193448	      0.08087787	      0.19851067	      0.03975766	     -0.03736939	     -0.00000000	     -0.00000000	     -0.00000000	      0.00000000	     -0.00000000	     -0.00000000	      0.00000000
      0.09600000	      0.01405326	      0.01405326	      0.01405326	      0.01405326	      0.01405326	      0.01405326	      0.01405326	      0.01405326	      0.01405326	      0.01405326	      0.01405326	      0.01405326	      0.01405326	      0.01405326	      0.01405326	      0.01405326	      0.01057833	      0.01405326	      0.01117981	      0.01405326	      0.01030544	      0.01405326	      0.01029029	      0.01405326	      0.01517146	      0.01405326	      0.01405326	      0.01405326	      0.01115699	      0.01405326	      0.01094066	      0.01405326	      0.01078615	      0.01405326	      0.01056736	      0.01405326	      0.01405326	      0.01405326	      0.01405326	      0.01405326	      0.01405326	      0.01405326	      0.01405326	      0.01405326	      0.01405326	      0.01405326	      0.01405326	      0.01405326	      0.01405326	      0.00000000	      0.00000000	     -0.00000000	     -0.49394670	      0.54941298	      0.25117906	      0.00556813	      0.10015464	      0.01783329	      0.01287894	      0.00000000	      0.00000000	     -0.00000000	      0.00000000	      0.00000000	     -0.00000000	      0.00000000
      0.10000000	      0.01621273	      0.01621273	      0.01621273	      0.01621273	      0.01621273	      0.01621273	      0.01621273	      0.01621273	      0.01621273	      0.01621273	      0.01621273	      0.01621273	      0.01621273	      0.01621273	      0.01621273	      0.01621273	      0.01107719	      0.01621273	      0.01238233	      0.01621273	      0.01029925	      0.01621273	      0.01023955	      0.01621273	      0.01844081	      0.01621273	      0.01621273	      0.01621273	      0.02967836	      0.01621273	      0.01602821	      0.01621273	      0.02252052	      0.01621273	      0.01383773	      0.01621273	      0.01621273	      0.01621273	      0.01621273	      0.01621273	      0.01621273	      0.01621273	      0.01621273	      0.01621273	      0.01621273	      0.01621273	      0.01621273	      0.01621273	      0.01621273	      0.00000000	     -0.00000000	      0.00000000	      0.72817965	     -0.31403256	      0.02546057	      0.02516810	      0.06130276	     -0.01933123	      0.02831637	     -0.00000000	     -0.00000000	     -0.00000000	      0.00000000	     -0.00000000	      0.00000000	     -0.00000000
      0.10400000	      0.01426796	      0.01426796	      0.01426796	      0.01426796	      0.01426796	      0.01426796	      0.01426796	      0.01426796	      0.01426796	      0.01426796	      0.01426796	      0.01426796	      0.01426796	      0.01426796	      0.01426796	      0.01426796	      0.01030228	      0.01426796	      0.01066543	      0.01426796	      0.01016769	      0.01426796	      0.01015838	      0.01426796	      0.02005069	      0.01426796	      0.01426796	      0.01426796	      0.01369955	      0.01426796	      0.01165961	      0.01426796	      0.01208470	      0.01426796	      0.01100208	      0.01426796	      0.01426796	      0.01426796	      0.01426796	      0.01426796	      0.01426796	      0.01426796	      0.01426796	      0.01426796	      0.01426796	      0.01426796	      0.01426796	      0.01426796	      0.01426796	     -0.00000000	      0.00000000	      0.00000000	     -0.71486013	     -0.40859581	     -0.26835233	      0.03388027	      0.14551797	      0.03753689	     -0.05216791	     -0.00000000	      0.00000000	     -0.00000000	      0.00000000	      0.00000000	      0.00000000	     -0.00000000
      0.10800000	      0.01447142	      0.01447142	      0.01447142	      0.01447142	      0.01447142	      0.01447142	      0.01447142	      0.01447142	      0.01447142	      0.01447142	      0.01447142	      0.01447142	      0.01447142	      0.01447142	      0.01447142	      0.01447142	      0.01014887	      0.01447142	      0.01031706	      0.01447142	      0.01009628	      0.01447142	      0.01009283	      0.01447142	      0.02851410	      0.01447142	      0.01447142	      0.01447142	      0.01126873	      0.01447142	      0.01058013	      0.01447142	      0.01065432	      0.01447142	      0.01028725	      0.01447142	      0.01447142	      0.01447142	      0.01447142	      0.01447142	      0.01447142	      0.01447142	      0.01447142	      0.01447142	      0.01447142	      0.01447142	      0.01447142	      0.01447142	      0.01447142	     -0.00000000	     -0.00000000	      0.00000000	     -2.09991815	      0.63462183	     -0.04817730	      0.04223082	      0.28539019	      0.13380605	     -0.08399201	     -0.00000000	     -0.00000000	      0.00000000	      0.00000000	     -0.00000000	     -0.00000000	     -0.00000000
      0.11200000	      0.02530576	      0.02530576	      0.02530576	      0.02530576	      0.02530576	      0.02530576	      0.02530576	      0.02530576	      0.02530576	      0.02530576	      0.02530576	      0.02530576	      0.02530576	      0.02530576	      0.02530576	      0.02530576	      0.01710376	      0.02530576	      0.02075057	      0.02530576	      0.01404390	      0.02530576	      0.01370640	      0.02530576	      0.02684876	      0.02530576	      0.02530584	      0.02530576	      0.04733669	      0.02530576	      0.03032568	      0.02530576	      0.04895008	      0.02530576	      0.02607373	      0.02530576	      0.02530576	      0.02530576	      0.02530576	      0.02530576	      0.02530576	      0.02530576	      0.02530576	      0.02530576	      0.02530576	      0.02530576	      0.02530576	      0.02530576	      0.02530576	      0.00000000	     -0.00000000	      0.00000000	      3.23090503	      0.21552955	      0.63333023	      0.01673412	      0.02176476	     -0.08481244	      0.15650671	      0.00000000	     -0.00000000	      0.00000000	     -0.00000000	      0.00000000	     -0.00000000	     -0.00000000
      0.11600000	      0.02200612	      0.02200612	      0.02200612	      0.02200612	      0.02200612	      0.02200612	      0.02200612	      0.02200612	      0.02200612	      0.02200612	      0.02200612	      0.02200612	      0.02200612	      0.02200612	      0.02200612	      0.02200612	      0.01046819	      0.02200612	      0.01168129	      0.02200612	      0.01014653	      0.02200612	      0.01012359	      0.02200612	      0.04002482	      0.02200612	      0.02202311	      0.02200612	      0.07897370	      0.02200612	      0.02477066	      0.02200612	      0.06286911	      0.02200612	      0.01710077	      0.02200612	      0.02200612	      0.02200612	      0.02200612	      0.02200612	      0.02200612	      0.02200612	      0.02200612	      0.02200612	      0.02200612	      0.02200612	      0.02200612	      0.02200612	      0.02200612	     -0.00000000	     -0.00000000	     -0.00000000	      0.58831180	     -0.65882848	     -0.35123147	      0.07205745	      0.16541972	      0.04054446	     -0.03581129	      0.00000000	     -0.00000000	     -0.00000000	     -0.00000000	     -0.00000000	      0.00000000	      0.00000000
      0.12000000	      0.01422996	      0.01422996	      0.01422996	      0.01422996	      0.01422996	      0.01422996	      0.01422996	      0.01422996	      0.01422996	      0.01422996	      0.01422996	      0.01422996	      0.01422996	      0.01422996	      0.01422996	      0.01422996	      0.01171214	      0.01422996	      0.01275468	      0.01422996	      0.01103708	      0.01422996	      0.01101772	      0.01422996	      0.01322115	      0.01422996	      0.01422188	      0.01422996	      0.01028040	      0.01422996	      0.01035236	      0.01422996	      0.01020406	      0.01422996	      0.01019154	      0.01422996	      0.01422996	      0.01422996	      0.01422996	      0.01422996	      0.01422996	      0.01422996	      0.01422996	      0.01422996	      0.01422996	      0.01422996	      0.01422996	      0.01422996	      0.01422996	      0.00000000	      0.00000000	      0.00000000	     -0.37484142	      0.02839043	     -0.07902574	     -0.03268216	      0.10964888	     -0.01324949	     -0.02742825	      0.00000000	      0.00000000	      0.00000000	     -0.00000000	     -0.00000000	     -0.00000000	      0.00000000
      0.12400000	      0.01491265	      0.01491265	      0.01491265	      0.01491265	      0.01491265	      0.01491265	      0.01491265	      0.01491265	      0.01491265	      0.01491265	      0.01491265	      0.01491265	      0.01491265	      0.01491265	      0.01491265	      0.01491265	      0.01021000	      0.01491265	      0.01029531	      0.01491265	      0.01010745	      0.01491265	      0.01009693	      0.01491265	      0.04601638	      0.01491265	      0.01519896	      0.01491265	      0.08605582	      0.01491265	      0.01836720	      0.01491265	      0.06698690	      0.01491265	      0.01231385	      0.01491265	      0.01491265	      0.01491265	      0.01491265	      0.01491265	      0.01491265	      0.01491265	      0.01491265	      0.01491265	      0.01491265	      0.01491265	      0.01491265	      0.01491265	      0.01491265	      0.00000000	      0.00000000	      0.00000000	      0.13307891	     -0.36032489	     -0.18670783	      0.07874337	      0.19028280	      0.09227958	     -0.02249037	     -0.00000000	     -0.00000000	      0.00000000	     -0.00000000	     -0.00000000	     -0.00000000	      0.00000000
      0.12800000	      0.01397515	      0.01397515	      0.01397515	      0.01397515	      0.01397515	      0.01397515	      0.01397515	      0.01397515	      0.01397515	      0.01397515	      0.01397515	      0.01397515	      0.01397515	      0.01397515	      0.01397515	      0.01397515	      0.01154417	      0.01397515	      0.01253041	      0.01397515	      0.01084730	      0.01397515	      0.01078481	      0.01397515	      0.01403685	      0.01397515	      0.01398097	      0.01397515	      0.01061993	      0.01397515	      0.01074338	      0.01397515	      0.01040635	      0.01397515	      0.01034108	      0.01397515	      0.01397515	      0.01397515	      0.01397515	      0.01397515	      0.01397515	      0.01397515	      0.01397515	      0.01397515	      0.01397515	      0.01397515	      0.01397515	      0.01397515	      0.01397515	      0.00000000	     -0.00000000	      0.00000000	      0.54457820	     -0.05012897	      0.03759562	     -0.01009725	      0.05891928	     -0.07150095	      0.00551558	      0.00000000	      0.00000000	      0.00000000	      0.00000000	     -0.00000000	     -0.00000000	     -0.00000000
      0.13200000	      0.01406989	      0.01406989	      0.01406989	      0.01406989	      0.01406989	      0.01406989	      0.01406989	      0.01406989	      0.01406989	      0.01406989	      0.01406989	      0.01406989	      0.01406989	      0.01406989	      0.01406989	      0.01406989	      0.01054667	      0.01406989	      0.01120399	      0.01406989	      0.01026182	      0.01406989	      0.01023352	      0.01406989	      0.02161835	      0.01406989	      0.01430984	      0.01406989	      0.01549188	      0.01406989	      0.01247581	      0.01406989	      0.01332341	      0.01406989	      0.01155106	      0.01406989	      0.01406989	      0.01406989	      0.01406989	      0.01406989	      0.01406989	      0.01406989	      0.01406989	      0.01406989	      0.01406989	      0.01406989	      0.01406989	      0.01406989	      0.01406989	      0.00000000	      0.00000000	     -0.00000000	     -0.18868980	     -0.26873363	      0.06073845	      0.02403687	      0.08923464	      0.07049929	      0.02225039	     -0.00000000	      0.00000000	      0.00000000	     -0.00000000	      0.00000000	     -0.00000000	     -0.00000000
      0.13600000	      0.01895061	      0.01895061	      0.01895061	      0.01895061	      0.01895061	      0.01895061	      0.01895061	      0.01895061	      0.01895061	      0.01895061	      0.01895061	      0.01895061	      0.01895061	      0.01895061	      0.01895061	      0.01895061	      0.01011738	      0.01895061	      0.01028101	      0.01895061	      0.01005964	      0.01895061	      0.01005356	      0.01895061	      0.12053571	      0.01895061	      0.02286636	      0.01895061	      0.13535622	      0.01895061	      0.01446443	      0.01895061	      0.08454569	      0.01895061	      0.01073265	      0.01895061	      0.01895061	      0.01895061	      0.01895061	      0.01895061	      0.01895061	      0.01895061	      0.01895061	      0.01895061	      0.01895061	      0.01895061	      0.01895061	      0.01895061	      0.01895061	     -0.00000000	      0.00000000	      0.00000000	     -3.34223273	     -0.00008798	     -0.58509061	      0.13918277	      0.38978344	      0.44001659	     -0.13261459	     -0.00000000	      0.00000000	      0.00000000	      0.00000000	      0.00000000	      0.00000000	     -0.00000000
      0.14000000	      0.02649619	      0.02649619	      0.02649619	      0.02649619	      0.02649619	      0.02649619	      0.02649619	      0.02649619	      0.02649619	      0.02649619	      0.02649619	      0.02649619	      0.02649619	      0.02649619	      0.02649619	      0.02649619	      0.06072336	      0.02649619	      0.03891302	      0.02649619	      0.13425829	      0.02649619	      0.16377434	      0.02649619	      0.01300446	      0.02649619	      0.02414941	      0.02649619	      0.01009462	      0.02649619	      0.01016306	      0.02649619	      0.01006963	      0.02649619	      0.01007586	      0.02649619	      0.02649619	      0.02649619	      0.02649619	      0.02649619	      0.02649619	      0.02649619	      0.02649619	      0.02649619	      0.02649619	      0.02649619	      0.02649619	      0.02649619	      0.02649619	     -0.00000000	     -0.00000000	      0.00000000	      4.00695410	      0.47258329	      0.66127338	     -0.16147463	      0.22932859	     -0.50664547	      0.12757319	     -0.00000000	      0.00000000	      0.00000000	      0.00000000	      0.00000000	      0.00000000	      0.00000000
      0.14400000	      0.01522085	      0.01522085	      0.01522085	      0.01522085	      0.01522085	      0.01522085	      0.01522085	      0.01522085	      0.01522085	      0.01522085	      0.01522085	      0.01522085	      0.01522085	      0.01522085	      0.01522085	      0.01522085	      0.01108039	      0.01522085	      0.01235049	      0.01522085	      0.01035058	      0.01522085	      0.01026804	      0.01522085	      0.02173322	      0.01522085	      0.01566462	      0.01522085	      0.02803041	      0.01522085	      0.01518167	      0.01522085	      0.02198240	      0.01522085	      0.01295083	      0.01522085	      0.01522085	      0.01522085	      0.01522085	      0.01522085	      0.01522085	      0.01522085	      0.01522085	      0.01522085	      0.01522085	      0.01522085	      0.01522085	      0.01522085	      0.01522085	     -0.00000000	      0.00000000	      0.00000000	     -0.75452948	      0.00922561	      0.07294945	      0.02196768	      0.05486547	      0.03320663	      0.01671246	     -0.00000000	      0.00000000	      0.00000000	     -0.00000000	      0.00000000	      0.00000000	      0.00000000
      0.14800000	      0.02096079	      0.02096079	      0.02096079	      0.02096079	      0.02096079	      0.02096079	      0.02096079	      0.02096079	      0.02096079	      0.02096079	      0.02096079	      0.02096079	      0.02096079	      0.02096079	      0.02096079	      0.02096079	      0.01012655	      0.02096079	      0.01034744	      0.02096079	      0.01006254	      0.02096079	      0.01005557	      0.02096079	      0.12946736	      0.02096079	      0.02861595	      0.02096079	      0.14097016	      0.02096079	      0.02035554	      0.02096079	      0.09991615	      0.02096079	      0.01203417	      0.02096079	      0.02096079	      0.02096079	      0.02096079	      0.02096079	      0.02096079	      0.02096079	      0.02096079	      0.02096079	      0.02096079	      0.02096079	      0.02096079	      0.02096079	      0.02096079	     -0.00000000	      0.00000000	     -0.00000000	      2.01150771	     -0.88141112	     -0.34286467	      0.14096434	      0.37159429	      0.09136084	     -0.05757655	     -0.00000000	     -0.00000000	      0.00000000	      0.00000000	     -0.00000000	      0.00000000	      0.00000000
      0.15200000	      0.01950279	      0.01950279	      0.01950279	      0.01950279	      0.01950279	      0.01950279	      0.01950279	      0.01950279	      0.01950279	      0.01950279	      0.01950279	      0.01950279	      0.01950279	      0.01950279	      0.01950279	      0.01950279	      0.01044434	      0.01950279	      0.01155998	      0.01950279	      0.01016025	      0.01950279	      0.01013339	      0.01950279	      0.04752231	      0.01950279	      0.02204426	      0.01950279	      0.07412400	      0.01950279	      0.02184675	      0.01950279	      0.06124210	      0.01950279	      0.01501440	      0.01950279	      0.01950279	      0.01950279	      0.01950279	      0.01950279	      0.01950279	      0.01950279	      0.01950279	      0.01950279	      0.01950279	      0.01950279	      0.01950279	      0.01950279	      0.01950279	     -0.00000000	     -0.00000000	      0.00000000	     -1.63197313	      0.35310918	     -0.24959618	      0.06217840	      0.15058146	      0.07766773	     -0.06803411	     -0.00000000	     -0.00000000	     -0.00000000	     -0.00000000	      0.00000000	      0.00000000	     -0.00000000
      0.15600000	      0.02510998	      0.02510998	      0.02510998	      0.02510998	      0.02510998	      0.02510998	      0.02510998	      0.02510998	      0.02510998	      0.02510998	      0.02510998	      0.02510998	      0.02510998	      0.02510998	      0.02510998	      0.02510998	      0.01057923	      0.02510998	      0.01262001	      0.02510998	      0.01019267	      0.02510998	      0.01015945	      0.02510998	      0.12888153	      0.02510998	      0.03496309	      0.02510998	      0.14947657	      0.02510998	      0.05504646	      0.02510998	      0.13718045	      0.02510998	      0.06146916	      0.02510998	      0.02510998	      0.02510998	      0.02510998	      0.02510998	      0.02510998	      0.02510998	      0.02510998	      0.02510998	      0.02510998	      0.02510998	      0.02510998	      0.02510998	      0.02510998	     -0.00000000	     -0.00000000	      0.00000000	     -8.44025058	      1.30431091	     -0.79655089	      0.11360762	      0.18256281	      0.52965023	     -0.22800549	     -0.00000000	     -0.00000000	      0.00000000	      0.00000000	     -0.00000000	      0.00000000	     -0.00000000
      0.16000000	      0.02681017	      0.02681017	      0.02681017	      0.02681017	      0.02681017	      0.02681017	      0.02681017	      0.02681017	      0.02681017	      0.02681017	      0.02681017	      0.02681017	      0.02681017	      0.02681017	      0.02681017	      0.02681017	      0.07822503	      0.02681017	      0.04441487	      0.02681017	      0.18657735	      0.02681017	      0.23328375	      0.02681017	      0.01030164	      0.02681017	      0.01738712	      0.02681017	      0.01005097	      0.02681017	      0.01008993	      0.02681017	      0.01004514	      0.02681017	      0.01005414	      0.02681017	      0.02681017	      0.02681017	      0.02681017	      0.02681017	      0.02681017	      0.02681017	      0.02681017	      0.02681017	      0.02681017	      0.02681017	      0.02681017	      0.02681017	      0.02681017	      0.00000000	     -0.00000000	     -0.00000000	      8.95634515	     -1.41417521	      0.78758446	     -0.32052149	      0.45344439	     -0.59131391	      0.21959148	      0.00000000	      0.00000000	     -0.00000000	     -0.00000000	      0.00000000	     -0.00000000	      0.00000000
      0.16400000	      0.01922089	      0.01922089	      0.01922089	      0.01922089	      0.01922089	      0.01922089	      0.01922089	      0.01922089	      0.01922089	      0.01922089	      0.01922089	      0.01922089	      0.01922089	      0.01922089	      0.01922089	      0.01922089	      0.01094162	      0.01922089	      0.01247441	      0.01922089	      0.01031911	      0.01922089	      0.01025123	      0.01922089	      0.05003315	      0.01922089	      0.02221027	      0.01922089	      0.03419854	      0.01922089	      0.01627578	      0.01922089	      0.02155093	      0.01922089	      0.01327315	      0.01922089	      0.01922089	      0.01922089	      0.01922089	      0.01922089	      0.01922089	      0.01922089	      0.01922089	      0.01922089	      0.01922089	      0.01922089	      0.01922089	      0.01922089	      0.01922089	      0.00000000	     -0.00000000	      0.00000000	      2.13518330	     -0.31216069	      0.32154493	      0.05068091	      0.15956212	     -0.05242589	      0.07294588	     -0.00000000	      0.00000000	     -0.00000000	      0.00000000	     -0.00000000	      0.00000000	     -0.00000000
      0.16800000	      0.02150287	      0.02150287	      0.02150287	      0.02150287	      0.02150287	      0.02150287	      0.02150287	      0.02150287	      0.02150287	      0.02150287	      0.02150287	      0.02150287	      0.02150287	      0.02150287	      0.02150287	      0.02150287	      0.01019198	      0.02150287	      0.01069368	      0.02150287	      0.01008900	      0.02150287	      0.01007785	      0.02150287	      0.10592374	      0.02150287	      0.03162512	      0.02150287	      0.12246262	      0.02150287	      0.03099239	      0.02150287	      0.10322422	      0.02150287	      0.02183149	      0.02150287	      0.02150287	      0.02150287	      0.02150287	      0.02150287	      0.02150287	      0.02150287	      0.02150287	      0.02150287	      0.02150287	      0.02150287	      0.02150287	      0.02150287	      0.02150287	      0.00000000	     -0.00000000	     -0.00000000	     -2.38165210	      0.22045365	     -0.38484155	      0.10759445	      0.23859050	      0.20710860	     -0.10040783	     -0.00000000	     -0.00000000	     -0.00000000	     -0.00000000	      0.00000000	      0.00000000	     -0.00000000
      0.17200000	      0.01407038	      0.01407038	      0.01407038	      0.01407038	      0.01407038	      0.01407038	      0.01407038	      0.01407038	      0.01407038	      0.01407038	      0.01407038	      0.01407038	      0.01407038	      0.01407038	      0.01407038	      0.01407038	      0.01270289	      0.01407038	      0.01351736	      0.01407038	      0.01216489	      0.01407038	      0.01226393	      0.01407038	      0.01214731	      0.01407038	      0.01350395	      0.01407038	      0.01028923	      0.01407038	      0.01045105	      0.01407038	      0.01021190	      0.01407038	      0.01020834	      0.01407038	      0.01407038	      0.01407038	      0.01407038	      0.01407038	      0.01407038	      0.01407038	      0.01407038	      0.01407038	      0.01407038	      0.01407038	      0.01407038	      0.01407038	      0.01407038	      0.00000000	     -0.00000000	     -0.00000000	      1.69393042	     -0.72387420	     -0.13776108	     -0.03869577	      0.09350339	     -0.08894289	      0.00989034	      0.00000000	     -0.00000000	      0.00000000	     -0.00000000	      0.00000000	     -0.00000000	      0.00000000
      0.17600000	      0.01645803	      0.01645803	      0.01645803	      0.01645803	      0.01645803	      0.01645803	      0.01645803	      0.01645803	      0.01645803	      0.01645803	      0.01645803	      0.01645803	      0.01645803	      0.01645803	      0.01645803	      0.01645803	      0.01103624	      0.01645803	      0.01254684	      0.01645803	      0.01029873	      0.01645803	      0.01020943	      0.01645803	      0.03647233	      0.01645803	      0.01874761	      0.01645803	      0.03016685	      0.01645803	      0.01592159	      0.01645803	      0.02183625	      0.01645803	      0.01314234	      0.01645803	      0.01645803	      0.01645803	      0.01645803	      0.01645803	      0.01645803	      0.01645803	      0.01645803	      0.01645803	      0.01645803	      0.01645803	      0.01645803	      0.01645803	      0.01645803	     -0.00000000	     -0.00000000	      0.00000000	     -0.82812761	      0.05917713	     -0.13085722	      0.03159607	      0.08470924	      0.06193076	     -0.03019620	     -0.00000000	     -0.00000000	     -0.00000000	     -0.00000000	      0.00000000	      0.00000000	      0.00000000
      0.18000000	      0.01403972	      0.01403972	      0.01403972	      0.01403972	      0.01403972	      0.01403972	      0.01403972	      0.01403972	      0.01403972	      0.01403972	      0.01403972	      0.01403972	      0.01403972	      0.01403972	      0.01403972	      0.01403972	      0.01339133	      0.01403972	      0.01385511	      0.01403972	      0.01341767	      0.01403972	      0.01398876	      0.01403972	      0.01219455	      0.01403972	      0.01342625	      0.01403972	      0.01034254	      0.01403972	      0.01055982	      0.01403972	      0.01024082	      0.01403972	      0.01023551	      0.01403972	      0.01403972	      0.01403972	      0.01403972	      0.01403972	      0.01403972	      0.01403972	      0.01403972	      0.01403972	      0.01403972	      0.01403972	      0.01403972	      0.01403972	      0.01403972	     -0.00000000	      0.00000000	      0.00000000	      0.35637885	     -0.13045455	      0.04114374	     -0.03354320	      0.07126299	     -0.02886707	      0.01614541	     -0.00000000	      0.00000000	      0.00000000	      0.00000000	     -0.00000000	      0.00000000	     -0.00000000
      0.18400000	      0.02383410	      0.02383410	      0.02383410	      0.02383410	      0.02383410	      0.02383410	      0.02383410	      0.02383410	      0.02383410	      0.02383410	      0.02383410	      0.02383410	      0.02383410	      0.02383410	      0.02383410	      0.02383410	      0.01234888	      0.02383410	      0.01582259	      0.02383410	      0.01065057	      0.02383410	      0.01043473	      0.02383410	      0.06291779	      0.02383410	      0.02923226	      0.02383410	      0.04362651	      0.02383410	      0.02199049	      0.02383410	      0.03011565	      0.02383410	      0.01627130	      0.02383410	      0.02383410	      0.02383410	      0.02383410	      0.02383410	      0.02383410	      0.02383410	      0.02383410	      0.02383410	      0.02383410	      0.02383410	      0.02383410	      0.02383410	      0.02383410	      0.00000000	      0.00000000	     -0.00000000	     -0.03138494	     -0.25313014	     -0.07265139	      0.04793220	      0.13338517	      0.03079729	     -0.00807868	      0.00000000	      0.00000000	      0.00000000	     -0.00000000	     -0.00000000	      0.00000000	      0.00000000
      0.18800000	      0.02107308	      0.02107308	      0.02107308	      0.02107308	      0.02107308	      0.02107308	      0.02107308	      0.02107308	      0.02107308	      0.02107308	      0.02107308	      0.02107308	      0.02107308	      0.02107308	      0.02107308	      0.02107308	      0.02035071	      0.02107308	      0.02091950	      0.02107308	      0.02064254	      0.02107308	      0.02177830	      0.02107308	      0.01780233	      0.02107308	      0.02002381	      0.02107308	      0.01276180	      0.02107308	      0.01364129	      0.02107308	      0.01231646	      0.02107308	      0.01232860	      0.02107308	      0.02107308	      0.02107308	      0.02107308	      0.02107308	      0.02107308	      0.02107308	      0.02107308	      0.02107308	      0.02107308	      0.02107308	      0.02107308	      0.02107308	      0.02107308	     -0.00000000	     -0.00000000	      0.00000000	     -0.17058202	     -0.08017479	     -0.06976506	     -0.04119789	      0.07740199	      0.01461208	     -0.00527704	     -0.00000000	      0.00000000	     -0.00000000	      0.00000000	     -0.00000000	     -0.00000000	      0.00000000
      0.19200000	      0.01862524	      0.01862524	      0.01862524	      0.01862524	      0.01862524	      0.01862524	      0.01862524	      0.01862524	      0.01862524	      0.01862524	      0.01862524	      0.01862524	      0.01862524	      0.01862524	      0.01862524	      0.01862524	      0.02543373	      0.01862524	      0.02160079	      0.01862524	      0.04451912	      0.01862524	      0.05886386	      0.01862524	      0.01065104	      0.01862524	      0.01353602	      0.01862524	      0.01012560	      0.01862524	      0.01020491	      0.01862524	      0.01010144	      0.01862524	      0.01011080	      0.01862524	      0.01862524	      0.01862524	      0.01862524	      0.01862524	      0.01862524	      0.01862524	      0.01862524	      0.01862524	      0.01862524	      0.01862524	      0.01862524	      0.01862524	      0.01862524	      0.00000000	      0.00000000	     -0.00000000	      1.13025452	     -0.27626775	      0.06611427	     -0.09757239	      0.16405765	     -0.09631076	      0.03414155	      0.00000000	      0.00000000	     -0.00000000	      0.00000000	      0.00000000	     -0.00000000	      0.00000000
      0.19600000	      0.02523139	      0.02523139	      0.02523139	      0.02523139	      0.02523139	      0.02523139	      0.02523139	      0.02523139	      0.02523139	      0.02523139	      0.02523139	      0.02523139	      0.02523139	      0.02523139	      0.02523139	      0.02523139	      0.01109796	      0.02523139	      0.01413206	      0.02523139	      0.01036365	      0.02523139	      0.01028920	      0.02523139	      0.08850749	      0.02523139	      0.03657113	      0.02523139	      0.07710732	      0.02523139	      0.02772539	      0.02523139	      0.06400506	      0.02523139	      0.02042765	      0.02523139	      0.02523139	      0.02523139	      0.02523139	      0.02523139	      0.02523139	      0.02523139	      0.02523139	      0.02523139	      0.02523139	      0.02523139	      0.02523139	      0.02523139	      0.02523139	     -0.00000000	     -0.00000000	      0.00000000	     -1.41920035	      0.30511832	     -0.13726553	      0.06560343	      0.16000555	      0.16822455	     -0.04617313	     -0.00000000	     -0.00000000	     -0.00000000	     -0.00000000	      0.00000000	      0.00000000	     -0.00000000
      0.20000000	      0.01600815	      0.01600815	      0.01600815	      0.01600815	      0.01600815	      0.01600815	      0.01600815	      0.01600815	      0.01600815	      0.01600815	      0.01600815	      0.01600815	      0.01600815	      0.01600815	      0.01600815	      0.01600815	      0.01680467	      0.01600815	      0.01646787	      0.01600815	      0.02206286	      0.01600815	      0.03112508	      0.01600815	      0.01166660	      0.01600815	      0.01380358	      0.01600815	      0.01024897	      0.01600815	      0.01048163	      0.01600815	      0.01017931	      0.01600815	      0.01018414	      0.01600815	      0.01600815	      0.01600815	      0.01600815	      0.01600815	      0.01600815	      0.01600815	      0.01600815	      0.01600815	      0.01600815	      0.01600815	      0.01600815	      0.01600815	      0.01600815	      0.00000000	      0.00000000	      0.00000000	      2.71634330	     -0.60765694	      0.02234619	     -0.08277969	      0.16065078	     -0.15370679	      0.04074825	     -0.00000000	      0.00000000	      0.00000000	      0.00000000	      0.00000000	     -0.00000000	     -0.00000000
