ModelForces
version=1
nRows=51
nColumns=67
inDegrees=no

This file contains the forces exerted on a model during a simulation.

A force is a generalized force, meaning that it can be either a force (N) or a torque (Nm).

Units are S.I. units (second, meters, Newtons, ...)
If the header above contains a line with 'inDegrees', this indicates whether rotational values are in degrees (yes) or radians (no).

endheader
time	biceplongus_r	biceplongus_l	bicepbrevis_r	bicepbrevis_l	triceplong_1_r	triceplong_1_l	triceplong_2_r	triceplong_2_l	triceplong_3_r	triceplong_3_l	triceplat_1_r	triceplat_1_l	triceplat_2_r	triceplat_2_l	triceplat_3_r	triceplat_3_l	tricepmed_1_r	tricepmed_1_l	tricepmed_2_r	tricepmed_2_l	tricepmed_3_r	tricepmed_3_l	tricepmed_4_r	tricepmed_4_l	brachiorad_1_r	brachiorad_1_l	brachiorad_2_r	brachiorad_2_l	brachialis_1_r	brachialis_1_l	brachialis_2_r	brachialis_2_l	brachialis_3_r	brachialis_3_l	brachialis_4_r	brachialis_4_l	flex_carpi_rad_r	flex_carpi_rad_l	palmaris_longus_r	palmaris_longus_l	flex_carpi_ulna_r	flex_carpi_ulna_l	exten_carpi_ulna_r	exten_carpi_ulna_l	exten_carpi_rad_lon_r	exten_carpi_rad_lon_l	exten_carpi_rad_bre_r	exten_carpi_rad_bre_l	Newmuscle	lumbar_ext	lumbar_bend	lumbar_rot	shoulder_flex_r	shoulder_add_r	shoulder_rot_r	elbow_flex_r	pro_sup_r	wrist_flex_r	wrist_dev_r	shoulder_flex_l	shoulder_add_l	shoulder_rot_l	elbow_flex_l	pro_sup_l	wrist_flex_l	wrist_dev_l
      0.00000000	      0.00000000	      0.00000000	      0.00000000	      0.00000000	      0.00000000	      0.00000000	      0.00000000	      0.00000000	      0.00000000	      0.00000000	      0.00000000	      0.00000000	      0.00000000	      0.00000000	      0.00000000	      4.06545151	      6.24131154	     19.14824851	      3.50900919	     20.17690960	     11.04682236	      9.29325157	     10.72021705	      2.06328170	      0.00000000	      0.00000000	      0.00000000	      0.00000000	    106.77145543	     15.43777064	      6.39448927	     20.07220874	     50.85893493	     12.02948323	      6.15656991	     18.86380900	      0.00000000	      0.00000000	      0.00000000	      0.00000000	      0.00000000	      0.00000000	      0.00000000	      0.00000000	      0.00000000	      0.00000000	      0.00000000	      0.00000000	      0.00000000	     -0.00000000	     -0.00000000	     -0.00000000	      2.20182831	    -21.49692663	    -15.55622957	      2.06822575	      4.83077170	      1.01809566	     -2.20881162	     -0.00000000	     -0.00000000	     -0.00000000	     -0.00000000	      0.00000000	     -0.00000000	      0.00000000
      0.00400000	      0.00000000	      0.00000000	      0.00000000	      0.00000000	      0.00000000	      0.00000000	      0.00000000	      0.00000000	      0.00000000	      0.00000000	      0.00000000	      0.00000000	      0.00000000	      0.00000000	      0.00000000	      4.50908017	      6.34919781	     21.23773645	      3.63666402	     22.37864670	     11.18221795	     10.30734625	     10.90531695	      2.28843034	      0.00000000	      0.00000000	      0.00000000	      0.00000000	     58.61563837	     17.12236521	      8.43750316	     22.26252071	     31.04066456	     13.34215995	      6.78885401	     20.92225843	      0.00000000	      0.00000000	      0.00000000	      0.00000000	      0.00000000	      0.00000000	      0.00000000	      0.00000000	      0.00000000	      0.00000000	      0.00000000	      0.00000000	      0.00000000	      0.00000000	      0.00000000	     -0.00000000	      1.73411943	     -7.20723131	     -5.97826864	      1.17393219	      2.68579966	      0.60891205	     -0.82320508	      0.00000000	     -0.00000000	      0.00000000	     -0.00000000	     -0.00000000	      0.00000000	      0.00000000
      0.00800000	      0.00000000	      0.00000000	      0.00000000	      0.00000000	      0.00000000	      0.00000000	      0.00000000	      0.00000000	      0.00000000	      0.00000000	      0.00000000	      0.00000000	      0.00000000	      0.00000000	      0.00000000	      3.40927493	      6.45833345	     16.05766138	      3.78296232	     16.92029336	     11.21360930	      7.79329173	     11.00501627	      1.73026158	      0.00000000	      0.00000000	      0.00000000	      0.00000000	     20.91751219	     12.94606623	      6.83144168	     16.83249154	     10.37426082	     10.08788706	      6.79773972	     15.81913129	      0.00000000	      0.00000000	      0.00000000	      0.00000000	      0.00000000	      0.00000000	      0.00000000	      0.00000000	      0.00000000	      0.00000000	      0.00000000	      0.00000000	      0.00000000	     -0.00000000	      0.00000000	      0.00000000	      1.11709968	     -1.94900027	     -1.05620088	      0.59672266	      1.56870953	      0.08325321	     -0.22959017	      0.00000000	      0.00000000	      0.00000000	     -0.00000000	      0.00000000	      0.00000000	     -0.00000000
      0.01200000	      0.00000000	      0.00000000	      0.00000000	      0.00000000	      0.00000000	      0.00000000	      0.00000000	      0.00000000	      0.00000000	      0.00000000	      0.00000000	      0.00000000	      0.00000000	      0.00000000	      0.00000000	      3.42747573	      6.28517125	     16.14338700	      3.54259133	     17.01062424	     11.17627813	      7.83489709	     11.00115193	      1.73949878	      0.00000000	      0.00000000	      0.00000000	      0.00000000	     38.72456241	     13.01518025	      7.33225566	     16.92235368	     22.54845135	     10.14174237	      6.61386598	     15.90358350	      0.00000000	      0.00000000	      0.00000000	      0.00000000	      0.00000000	      0.00000000	      0.00000000	      0.00000000	      0.00000000	      0.00000000	      0.00000000	      0.00000000	      0.00000000	      0.00000000	     -0.00000000	      0.00000000	      4.10497669	     -1.00294177	     -0.57866887	      0.74768187	      1.70068819	      0.50914051	      0.00248228	      0.00000000	     -0.00000000	      0.00000000	      0.00000000	      0.00000000	      0.00000000	     -0.00000000
      0.01600000	      0.00000000	      0.00000000	      0.00000000	      0.00000000	      0.00000000	      0.00000000	      0.00000000	      0.00000000	      0.00000000	      0.00000000	      0.00000000	      0.00000000	      0.00000000	      0.00000000	      0.00000000	      3.45790804	      6.29918706	     16.28672295	      3.61568960	     17.16166032	     11.10481078	      7.90446257	     10.99676106	      1.75494366	      0.00000000	      0.00000000	      0.00000000	      0.00000000	     21.05117028	     13.13074108	      6.40238341	     17.07260602	      9.78042656	     10.23179016	      6.43133439	     16.04479025	      0.00000000	      0.00000000	      0.00000000	      0.00000000	      0.00000000	      0.00000000	      0.00000000	      0.00000000	      0.00000000	      0.00000000	      0.00000000	      0.00000000	      0.00000000	      0.00000000	     -0.00000000	     -0.00000000	     -2.01679671	     -3.88275787	     -2.17521310	      0.70613447	      1.93552835	     -0.05169391	     -0.52328386	      0.00000000	     -0.00000000	     -0.00000000	      0.00000000	      0.00000000	      0.00000000	     -0.00000000
      0.02000000	      0.00000000	      0.00000000	      0.00000000	      0.00000000	      0.00000000	      0.00000000	      0.00000000	      0.00000000	      0.00000000	      0.00000000	      0.00000000	      0.00000000	      0.00000000	      0.00000000	      0.00000000	      3.26641824	      6.30678658	     15.38480732	      3.55352929	     16.21129298	     11.24008263	      7.46673434	     11.17645904	      1.65775952	      0.00000000	      0.00000000	      0.00000000	      0.00000000	     34.14230825	     12.40359538	      8.65738941	     16.12717026	     24.18336239	      9.66518069	      7.72870446	     15.15627221	      0.00000000	      0.00000000	      0.00000000	      0.00000000	      0.00000000	      0.00000000	      0.00000000	      0.00000000	      0.00000000	      0.00000000	      0.00000000	      0.00000000	      0.00000000	      0.00000000	     -0.00000000	     -0.00000000	      3.77463000	      3.94615873	      2.23986353	      0.54188683	      1.15440048	      0.59448335	      0.48255084	     -0.00000000	     -0.00000000	     -0.00000000	      0.00000000	     -0.00000000	     -0.00000000	     -0.00000000
      0.02400000	      0.00000000	      0.00000000	      0.00000000	      0.00000000	      0.00000000	      0.00000000	      0.00000000	      0.00000000	      0.00000000	      0.00000000	      0.00000000	      0.00000000	      0.00000000	      0.00000000	      0.00000000	      3.31303851	      5.95394671	     15.60438848	      3.26523368	     16.44267022	     10.79701224	      7.57330403	     10.80295227	      1.68142006	      0.00000000	      0.00000000	      0.00000000	      0.00000000	     32.10779343	     12.58062689	      5.37222929	     16.35734686	     14.06186670	      9.80312791	      5.19377770	     15.37259157	      0.00000000	      0.00000000	      0.00000000	      0.00000000	      0.00000000	      0.00000000	      0.00000000	      0.00000000	      0.00000000	      0.00000000	      0.00000000	      0.00000000	      0.00000000	      0.00000000	      0.00000000	     -0.00000000	      1.87122639	     -2.72338009	     -1.88213497	      0.95161859	      2.37622379	      0.12226202	     -0.56526830	     -0.00000000	     -0.00000000	      0.00000000	      0.00000000	      0.00000000	     -0.00000000	      0.00000000
      0.02800000	      0.00000000	      0.00000000	      0.00000000	      0.00000000	      0.00000000	      0.00000000	      0.00000000	      0.00000000	      0.00000000	      0.00000000	      0.00000000	      0.00000000	      0.00000000	      0.00000000	      0.00000000	      4.13683982	     16.84577920	     19.48448698	      9.20467542	     20.53121110	    100.51265033	      9.45643875	    144.25312609	      2.09951241	      0.00000000	      0.00000000	      0.00000000	      0.00000000	      7.99447368	     15.70885404	      8.25312671	     20.42467172	      9.47654877	     12.24071796	     10.33140401	     19.19505278	      0.00000000	      0.00000000	      0.00000000	      0.00000000	      0.00000000	      0.00000000	      0.00000000	      0.00000000	      0.00000000	      0.00000000	      0.00000000	      0.00000000	      0.00000000	     -0.00000000	      0.00000000	     -0.00000000	     -8.26655193	     -0.89726636	      1.68682170	     -3.00522016	      5.83941596	     -2.04861300	     -0.57068970	     -0.00000000	     -0.00000000	      0.00000000	     -0.00000000	      0.00000000	     -0.00000000	      0.00000000
      0.03200000	      0.00000000	      0.00000000	      0.00000000	      0.00000000	      0.00000000	      0.00000000	      0.00000000	      0.00000000	      0.00000000	      0.00000000	      0.00000000	      0.00000000	      0.00000000	      0.00000000	      0.00000000	      4.57363980	     17.88567063	     21.54181184	      8.74080610	     22.69905730	     36.63818374	     10.45492367	     34.93669112	      2.32119538	      0.00000000	      0.00000000	      0.00000000	      0.00000000	     16.55848905	     17.36751798	     19.51223371	     22.58126864	     22.82550572	     13.53318890	     28.09925962	     21.22181690	      0.00000000	      0.00000000	      0.00000000	      0.00000000	      0.00000000	      0.00000000	      0.00000000	      0.00000000	      0.00000000	      0.00000000	      0.00000000	      0.00000000	      0.00000000	     -0.00000000	     -0.00000000	     -0.00000000	     12.17950791	     13.49195160	      9.75278008	     -0.02588655	     -0.16225862	      1.08371599	      2.35938721	     -0.00000000	     -0.00000000	      0.00000000	      0.00000000	     -0.00000000	     -0.00000000	      0.00000000
      0.03600000	      0.00000000	      0.00000000	      0.00000000	      0.00000000	      0.00000000	      0.00000000	      0.00000000	      0.00000000	      0.00000000	      0.00000000	      0.00000000	      0.00000000	      0.00000000	      0.00000000	      0.00000000	      3.41556028	      5.51548606	     16.08726529	      2.92733737	     16.95148762	     10.23879310	      7.80765945	     10.48008574	      1.73345150	      0.00000000	      0.00000000	      0.00000000	      0.00000000	    106.34285271	     12.96993360	     11.37792606	     16.86352393	     73.46404433	     10.10648509	      5.65385112	     15.84829545	      0.00000000	      0.00000000	      0.00000000	      0.00000000	      0.00000000	      0.00000000	      0.00000000	      0.00000000	      0.00000000	      0.00000000	      0.00000000	      0.00000000	      0.00000000	      0.00000000	      0.00000000	     -0.00000000	      7.77002199	    -13.30548237	     -8.07521074	      1.99548437	      4.27048535	      1.65698284	     -0.95325671	     -0.00000000	      0.00000000	      0.00000000	     -0.00000000	      0.00000000	      0.00000000	     -0.00000000
      0.04000000	      0.00000000	      0.00000000	      0.00000000	      0.00000000	      0.00000000	      0.00000000	      0.00000000	      0.00000000	      0.00000000	      0.00000000	      0.00000000	      0.00000000	      0.00000000	      0.00000000	      0.00000000	      3.59476081	      5.88886866	     16.93129859	      3.12622614	     17.84086314	     10.87597174	      8.21729554	     11.15176936	      1.82439864	      0.00000000	      0.00000000	      0.00000000	      0.00000000	     48.01778884	     13.65041320	      6.21072464	     17.74828435	     19.77483347	     10.63673121	      6.30364426	     16.67979098	      0.00000000	      0.00000000	      0.00000000	      0.00000000	      0.00000000	      0.00000000	      0.00000000	      0.00000000	      0.00000000	      0.00000000	      0.00000000	      0.00000000	      0.00000000	     -0.00000000	     -0.00000000	     -0.00000000	     -2.12391240	     -7.34520089	     -4.63965886	      1.13332664	      3.03720083	      0.19757581	     -1.01654201	      0.00000000	     -0.00000000	     -0.00000000	     -0.00000000	      0.00000000	     -0.00000000	      0.00000000
      0.04400000	      0.00000000	      0.00000000	      0.00000000	      0.00000000	      0.00000000	      0.00000000	      0.00000000	      0.00000000	      0.00000000	      0.00000000	      0.00000000	      0.00000000	      0.00000000	      0.00000000	      0.00000000	      3.47587450	      5.89124552	     16.37134489	      3.20971664	     17.25082823	     10.78885973	      7.94553227	     11.12479143	      1.76406193	      0.00000000	      0.00000000	      0.00000000	      0.00000000	     33.17305714	     13.19896529	      8.27587043	     17.16131122	     24.08627190	     10.28495210	      7.13081789	     16.12815516	      0.00000000	      0.00000000	      0.00000000	      0.00000000	      0.00000000	      0.00000000	      0.00000000	      0.00000000	      0.00000000	      0.00000000	      0.00000000	      0.00000000	      0.00000000	      0.00000000	      0.00000000	     -0.00000000	      3.87379418	      2.59591355	      0.76667194	      0.60990606	      1.34523960	      0.56370802	      0.19086064	     -0.00000000	     -0.00000000	     -0.00000000	      0.00000000	     -0.00000000	     -0.00000000	      0.00000000
      0.04800000	      0.00000000	      0.00000000	      0.00000000	      0.00000000	      0.00000000	      0.00000000	      0.00000000	      0.00000000	      0.00000000	      0.00000000	      0.00000000	      0.00000000	      0.00000000	      0.00000000	      0.00000000	      2.60357802	      5.79916757	     12.26283449	      3.03553546	     12.92160496	     10.78799693	      5.95154203	     11.17778491	      1.32135751	      0.00000000	      0.00000000	      0.00000000	      0.00000000	     36.13218985	      9.88658707	      5.27827214	     12.85455290	     19.45528751	      7.70386710	      5.74940120	     12.08067502	      0.00000000	      0.00000000	      0.00000000	      0.00000000	      0.00000000	      0.00000000	      0.00000000	      0.00000000	      0.00000000	      0.00000000	      0.00000000	      0.00000000	      0.00000000	      0.00000000	      0.00000000	     -0.00000000	      0.49513537	      0.06438477	     -1.18584711	      0.84534454	      2.17208869	      0.23521565	     -0.44221973	      0.00000000	      0.00000000	      0.00000000	      0.00000000	      0.00000000	      0.00000000	      0.00000000
      0.05200000	      0.00000000	      0.00000000	      0.00000000	      0.00000000	      0.00000000	      0.00000000	      0.00000000	      0.00000000	      0.00000000	      0.00000000	      0.00000000	      0.00000000	      0.00000000	      0.00000000	      0.00000000	      3.76828727	      6.20801776	     17.74860700	      3.60487600	     18.70207810	     10.83384280	      8.61396120	     11.28728542	      1.91246609	      0.00000000	      0.00000000	      0.00000000	      0.00000000	     21.82187299	     14.30934656	      7.49398276	     18.60503034	     13.29770600	     11.15018798	      7.05803083	     17.48495860	      0.00000000	      0.00000000	      0.00000000	      0.00000000	      0.00000000	      0.00000000	      0.00000000	      0.00000000	      0.00000000	      0.00000000	      0.00000000	      0.00000000	      0.00000000	     -0.00000000	     -0.00000000	      0.00000000	      0.44125809	      2.09658643	      1.66682152	      0.47794603	      1.20412878	      0.25365715	      0.21119554	     -0.00000000	     -0.00000000	      0.00000000	     -0.00000000	      0.00000000	     -0.00000000	      0.00000000
      0.05600000	      0.00000000	      0.00000000	      0.00000000	      0.00000000	      0.00000000	      0.00000000	      0.00000000	      0.00000000	      0.00000000	      0.00000000	      0.00000000	      0.00000000	      0.00000000	      0.00000000	      0.00000000	      2.80098299	      5.85063844	     13.19261051	      3.11948068	     13.90132938	     10.78246730	      6.40279179	     11.28889570	      1.42154369	      0.00000000	      0.00000000	      0.00000000	      0.00000000	     12.48880982	     10.63619448	      5.70291679	     13.82919340	      8.33957923	      8.28797928	      6.22137166	     12.99663960	      0.00000000	      0.00000000	      0.00000000	      0.00000000	      0.00000000	      0.00000000	      0.00000000	      0.00000000	      0.00000000	      0.00000000	      0.00000000	      0.00000000	      0.00000000	      0.00000000	     -0.00000000	     -0.00000000	      1.68531839	     -1.66876122	      0.09290737	      0.38397408	      1.11820292	      0.06531530	      0.01685130	      0.00000000	     -0.00000000	     -0.00000000	     -0.00000000	     -0.00000000	     -0.00000000	     -0.00000000
      0.06000000	      0.00000000	      0.00000000	      0.00000000	      0.00000000	      0.00000000	      0.00000000	      0.00000000	      0.00000000	      0.00000000	      0.00000000	      0.00000000	      0.00000000	      0.00000000	      0.00000000	      0.00000000	      3.95962909	      5.70104555	     18.64982564	      2.99643825	     19.65171100	     10.65247395	      9.05135116	     11.21292623	      2.00957512	      0.00005476	      0.00000000	      0.00000000	      0.00000000	     43.29249098	     15.03593033	      7.58306998	     19.54973547	     27.47136605	     11.71635957	      6.53208077	     18.37278999	      0.00000000	      0.00000000	      0.00000000	      0.00000000	      0.00000000	      0.00000000	      0.00000000	      0.00000000	      0.00000000	      0.00000000	      0.00000000	      0.00000000	      0.00000000	     -0.00000000	      0.00000000	     -0.00000000	      2.43023373	     -8.61481828	     -5.33778824	      0.92941896	      2.30382461	      0.51074178	     -0.70851158	     -0.00000000	     -0.00000000	     -0.00000000	     -0.00000000	      0.00000000	      0.00000000	     -0.00000000
      0.06400000	      0.00000000	      0.00000000	      0.00000000	      0.00000000	      0.00000000	      0.00000000	      0.00000000	      0.00000000	      0.00000000	      0.00000000	      0.00000000	      0.00000000	      0.00000000	      0.00000000	      0.00000000	      2.77463441	      5.81089100	     13.06850891	      3.07215981	     13.77056094	     10.74818068	      6.34256135	     11.36749465	      1.40817136	      0.00332678	      0.00000000	      0.00000000	      0.00000000	     12.30943121	     10.53614084	      5.61712502	     13.69910353	      8.48665205	      8.21001507	      6.17699148	     12.87438148	      0.00000000	      0.00000000	      0.00000000	      0.00000000	      0.00000000	      0.00000000	      0.00000000	      0.00000000	      0.00000000	      0.00000000	      0.00000000	      0.00000000	      0.00000000	      0.00000000	     -0.00000000	      0.00000000	      0.21996368	      3.12894998	      2.43810682	      0.34431154	      0.98069774	      0.06621425	      0.26330939	     -0.00000000	      0.00000000	      0.00000000	      0.00000000	     -0.00000000	      0.00000000	      0.00000000
      0.06800000	      0.00000000	      0.00000000	      0.00000000	      0.00000000	      0.00000000	      0.00000000	      0.00000000	      0.00000000	      0.00000000	      0.00000000	      0.00000000	      0.00000000	      0.00000000	      0.00000000	      0.00000000	      3.14952598	      5.66314690	     14.83424559	      2.93952648	     15.63115457	     10.75669636	      7.19952929	     11.45999035	      1.59843483	      0.02350856	      0.00000000	      0.00000000	      0.00000000	     25.01260551	     11.95971949	      6.64799748	     15.55004228	     14.81128646	      9.31930189	      7.27671866	     14.61388885	      0.00000000	      0.00000000	      0.00000000	      0.00000000	      0.00000000	      0.00000000	      0.00000000	      0.00000000	      0.00000000	      0.00000000	      0.00000000	      0.00000000	      0.00000000	     -0.00000000	     -0.00000000	      0.00000000	      1.20546449	      1.60940594	      0.77342454	      0.56216643	      1.45803384	      0.24796150	      0.01867229	     -0.00000000	     -0.00000000	      0.00000000	     -0.00000000	      0.00000000	     -0.00000000	     -0.00000000
      0.07200000	      0.00000000	      0.00000000	      0.00000000	      0.00000000	      0.00000000	      0.00000000	      0.00000000	      0.00000000	      0.00000000	      0.00000000	      0.00000000	      0.00000000	      0.00000000	      0.00000000	      0.00000000	      3.25811833	      5.59265852	     15.34571481	      2.85133239	     16.17010038	     10.58788131	      7.44776151	     11.31640351	      1.65354719	      0.06441244	      0.00000000	      0.00000000	      0.00000000	     31.13993085	     12.37207807	      6.22355172	     16.08619142	     20.18545864	      9.64062164	      6.04287784	     15.11776040	      0.00000000	      0.00000000	      0.00000000	      0.00000000	      0.00000000	      0.00000000	      0.00000000	      0.00000000	      0.00000000	      0.00000000	      0.00000000	      0.00000000	      0.00000000	      0.00000000	      0.00000000	     -0.00000000	      2.93436357	     -4.32989127	     -2.53403660	      0.70973058	      1.80569087	      0.36051509	     -0.35868527	     -0.00000000	     -0.00000000	      0.00000000	      0.00000000	     -0.00000000	      0.00000000	      0.00000000
      0.07600000	      0.00000000	      0.00000000	      0.00000000	      0.00000000	      0.00000000	      0.00000000	      0.00000000	      0.00000000	      0.00000000	      0.00000000	      0.00000000	      0.00000000	      0.00000000	      0.00000000	      0.00000000	      3.81983509	      5.92973090	     17.99139688	      3.30989132	     18.95791086	     10.60367692	      8.73179482	     11.36571345	      1.93862743	      0.14672882	      0.00000000	      0.00000000	      0.00000000	     23.50339957	     14.50508950	      7.07188939	     18.85953556	     13.86286494	     11.30271560	      6.68997000	     17.72414193	      0.00000000	      0.00000000	      0.00000000	      0.00000000	      0.00000000	      0.00000000	      0.00000000	      0.00000000	      0.00000000	      0.00000000	      0.00000000	      0.00000000	      0.00000000	      0.00000000	      0.00000000	      0.00000000	      3.51900407	      0.46299789	      1.60197304	      0.52732615	      1.38437646	      0.29249322	      0.21805849	      0.00000000	      0.00000000	      0.00000000	     -0.00000000	     -0.00000000	     -0.00000000	      0.00000000
      0.08000000	      0.00000000	      0.00000000	      0.00000000	      0.00000000	      0.00000000	      0.00000000	      0.00000000	      0.00000000	      0.00000000	      0.00000000	      0.00000000	      0.00000000	      0.00000000	      0.00000000	      0.00000000	      4.90380085	      5.54956089	     23.09686810	      2.88420414	     24.33765258	     10.50476359	     11.20964174	     11.33351276	      2.48875740	      0.30913079	      0.00000000	      0.00000000	      0.00000000	     53.48306491	     18.62124110	      8.92674268	     24.21136103	     37.95090935	     14.51012020	      6.80883413	     22.75377344	      0.00000000	      0.00000000	      0.00000000	      0.00000000	      0.00000000	      0.00000000	      0.00000000	      0.00000000	      0.00000000	      0.00000000	      0.00000000	      0.00000000	      0.00000000	     -0.00000000	      0.00000000	     -0.00000000	      1.03521163	     -8.50970289	     -5.58210390	      1.18550536	      2.93068179	      0.73854842	     -0.85795595	      0.00000000	     -0.00000000	      0.00000000	     -0.00000000	     -0.00000000	      0.00000000	     -0.00000000
      0.08400000	      0.00000000	      0.00000000	      0.00000000	      0.00000000	      0.00000000	      0.00000000	      0.00000000	      0.00000000	      0.00000000	      0.00000000	      0.00000000	      0.00000000	      0.00000000	      0.00000000	      0.00000000	      4.32101820	     14.28894075	     20.35196586	      6.56038110	     21.44529173	     39.73120756	      9.87745373	     52.85206797	      2.19298588	      0.30223362	      0.00000000	      0.00000000	      0.00000000	      4.81795060	     16.40823602	      4.19865639	     21.33400905	      5.14837490	     12.78569327	      5.15621518	     20.04964561	      0.00000000	      0.00000000	      0.00000000	      0.00000000	      0.00000000	      0.00000000	      0.00000000	      0.00000000	      0.00000000	      0.00000000	      0.00000000	      0.00000000	      0.00000000	     -0.00000000	      0.00000000	      0.00000000	     -0.76536804	     10.09689537	      6.65208153	     -0.64417506	      1.10779115	     -0.50496827	      0.90244898	     -0.00000000	     -0.00000000	      0.00000000	      0.00000000	     -0.00000000	     -0.00000000	     -0.00000000
      0.08800000	      0.00000000	      0.00000000	      0.00000000	      0.00000000	      0.00000000	      0.00000000	      0.00000000	      0.00000000	      0.00000000	      0.00000000	      0.00000000	      0.00000000	      0.00000000	      0.00000000	      0.00000000	      4.39135161	      5.91648296	     20.68323573	      3.33916267	     21.79435771	     10.48425739	     10.03822949	     11.36445681	      2.22868121	      0.51802266	      0.00000000	      0.00000000	      0.00000000	     26.53232779	     16.67531362	      7.74481796	     21.68126367	     16.12209083	     12.99380657	      7.37095412	     20.37599460	      0.00000000	      0.00000000	      0.00000000	      0.00000000	      0.00000000	      0.00000000	      0.00000000	      0.00000000	      0.00000000	      0.00000000	      0.00000000	      0.00000000	      0.00000000	      0.00000000	     -0.00000000	     -0.00000000	      1.76352862	     -3.35105606	     -2.23272110	      0.65328506	      1.77389315	      0.40358867	     -0.35541133	      0.00000000	      0.00000000	      0.00000000	      0.00000000	      0.00000000	      0.00000000	      0.00000000
      0.09200000	      0.00000000	      0.00000000	      0.00000000	      0.00000000	      0.00000000	      0.00000000	      0.00000000	      0.00000000	      0.00000000	      0.00000000	      0.00000000	      0.00000000	      0.00000000	      0.00000000	      0.00000000	      3.84336911	      5.41346447	     18.10224197	      2.71446539	     19.07471065	     10.39535396	      8.78559145	     11.36382072	      1.95057133	      0.62215687	      0.00000000	      0.00000000	      0.00000000	     38.08739617	     14.59445543	      7.43610045	     18.97572925	     28.91832736	     11.37235168	      6.44239928	     17.83334046	      0.00000000	      0.00000000	      0.00000000	      0.00000000	      0.00000000	      0.00000000	      0.00000000	      0.00000000	      0.00000000	      0.00000000	      0.00000000	      0.00000000	      0.00000000	      0.00000000	      0.00000000	      0.00000000	      5.89828491	     -5.84160985	     -3.11934476	      0.80877868	      1.98510669	      0.39757659	     -0.37369391	     -0.00000000	     -0.00000000	     -0.00000000	      0.00000000	     -0.00000000	     -0.00000000	      0.00000000
      0.09600000	      0.00000000	      0.00000000	      0.00000000	      0.00000000	      0.00000000	      0.00000000	      0.00000000	      0.00000000	      0.00000000	      0.00000000	      0.00000000	      0.00000000	      0.00000000	      0.00000000	      0.00000000	      2.63318785	      5.50410265	     12.40229657	      2.73935354	     13.06855907	     10.51616170	      6.01922740	     11.53774501	      1.33638497	      0.39788056	      0.00000000	      0.00000000	      0.00000000	      5.10821138	      9.99902470	      4.19282164	     13.00074445	      5.34995038	      7.79148122	      5.21829469	     12.21806546	      0.00000000	      0.00000000	      0.00000000	      0.00000000	      0.00000000	      0.00000000	      0.00000000	      0.00000000	      0.00000000	      0.00000000	      0.00000000	      0.00000000	      0.00000000	      0.00000000	      0.00000000	     -0.00000000	     -4.93946697	      5.49412980	      2.51179058	      0.05568132	      1.00154637	      0.17833288	      0.12878944	      0.00000000	      0.00000000	     -0.00000000	      0.00000000	      0.00000000	     -0.00000000	      0.00000000
      0.10000000	      0.00000000	      0.00000000	      0.00000000	      0.00000000	      0.00000000	      0.00000000	      0.00000000	      0.00000000	      0.00000000	      0.00000000	      0.00000000	      0.00000000	      0.00000000	      0.00000000	      0.00000000	      3.03781267	      5.74226828	     14.30807667	      2.99569770	     15.07671939	     10.50792469	      6.94416285	     11.52169989	      1.54173854	      0.56061116	      0.00000000	      0.00000000	      0.00000000	     14.14666741	     11.53550967	      6.39616528	     14.99848414	     11.73277258	      8.98874737	      7.23765954	     14.09553596	      0.00000000	      0.00000000	      0.00000000	      0.00000000	      0.00000000	      0.00000000	      0.00000000	      0.00000000	      0.00000000	      0.00000000	      0.00000000	      0.00000000	      0.00000000	      0.00000000	     -0.00000000	      0.00000000	      7.28179649	     -3.14032560	      0.25460570	      0.25168100	      0.61302757	     -0.19331230	      0.28316369	     -0.00000000	     -0.00000000	     -0.00000000	      0.00000000	     -0.00000000	      0.00000000	     -0.00000000
      0.10400000	      0.00000000	      0.00000000	      0.00000000	      0.00000000	      0.00000000	      0.00000000	      0.00000000	      0.00000000	      0.00000000	      0.00000000	      0.00000000	      0.00000000	      0.00000000	      0.00000000	      0.00000000	      2.67341767	      5.23017894	     12.59177875	      2.50623986	     13.26822040	     10.20817213	      6.11118910	     11.29603959	      1.35680225	      0.70986006	      0.00000000	      0.00000000	      0.00000000	      6.08359277	     10.15178971	      4.21718125	     13.19936971	      5.77733728	      7.91051940	      5.18105446	     12.40473295	      0.00000000	      0.00000000	      0.00000000	      0.00000000	      0.00000000	      0.00000000	      0.00000000	      0.00000000	      0.00000000	      0.00000000	      0.00000000	      0.00000000	      0.00000000	     -0.00000000	      0.00000000	      0.00000000	     -7.14860132	     -4.08595812	     -2.68352331	      0.33880272	      1.45517970	      0.37536892	     -0.52167910	     -0.00000000	      0.00000000	     -0.00000000	      0.00000000	      0.00000000	      0.00000000	     -0.00000000
      0.10800000	      0.00000000	      0.00000000	      0.00000000	      0.00000000	      0.00000000	      0.00000000	      0.00000000	      0.00000000	      0.00000000	      0.00000000	      0.00000000	      0.00000000	      0.00000000	      0.00000000	      0.00000000	      2.71153962	      5.26404094	     12.77133286	      2.45189915	     13.45742032	     10.37449886	      6.19833240	     11.51642089	      1.37614975	      1.10804044	      0.00000000	      0.00000000	      0.00000000	      6.99469503	     10.29655048	      5.82066565	     13.38758784	      7.67473938	      8.02332048	      8.03292607	     12.58161986	      0.00000000	      0.00000000	      0.00000000	      0.00000000	      0.00000000	      0.00000000	      0.00000000	      0.00000000	      0.00000000	      0.00000000	      0.00000000	      0.00000000	      0.00000000	     -0.00000000	     -0.00000000	      0.00000000	    -20.99918150	      6.34621831	     -0.48177305	      0.42230822	      2.85390188	      1.33806046	     -0.83992009	     -0.00000000	     -0.00000000	      0.00000000	      0.00000000	     -0.00000000	     -0.00000000	     -0.00000000
      0.11200000	      0.00000000	      0.00000000	      0.00000000	      0.00000000	      0.00000000	      0.00000000	      0.00000000	      0.00000000	      0.00000000	      0.00000000	      0.00000000	      0.00000000	      0.00000000	      0.00000000	      0.00000000	      4.74159219	      8.73016808	     22.33286647	      4.78333101	     23.53260809	     14.29808540	     10.83884754	     15.58557940	      2.40643391	      1.16453544	      0.00000000	      0.00006739	      0.00000000	     28.06175583	     18.00528492	     15.72970775	     23.41049403	     33.22229675	     14.03015229	     18.95917952	     22.00112074	      0.00000000	      0.00000000	      0.00000000	      0.00000000	      0.00000000	      0.00000000	      0.00000000	      0.00000000	      0.00000000	      0.00000000	      0.00000000	      0.00000000	      0.00000000	      0.00000000	     -0.00000000	      0.00000000	     32.30905031	      2.15529547	      6.33330226	      0.16734120	      0.21764765	     -0.84812435	      1.56506712	      0.00000000	     -0.00000000	      0.00000000	     -0.00000000	      0.00000000	     -0.00000000	     -0.00000000
      0.11600000	      0.00000000	      0.00000000	      0.00000000	      0.00000000	      0.00000000	      0.00000000	      0.00000000	      0.00000000	      0.00000000	      0.00000000	      0.00000000	      0.00000000	      0.00000000	      0.00000000	      0.00000000	      4.12333138	      5.15911575	     19.42086230	      2.57978850	     20.46416845	     10.03794822	      9.42555967	     11.24127332	      2.09265666	      1.86953116	      0.00000000	      0.00214087	      0.00000000	     32.92815374	     15.65755832	      8.27965490	     20.35797696	     28.06577539	     12.20074710	      7.51666359	     19.13237322	      0.00000000	      0.00000000	      0.00000000	      0.00000000	      0.00000000	      0.00000000	      0.00000000	      0.00000000	      0.00000000	      0.00000000	      0.00000000	      0.00000000	      0.00000000	     -0.00000000	     -0.00000000	     -0.00000000	      5.88311796	     -6.58828483	     -3.51231467	      0.72057450	      1.65419718	      0.40544456	     -0.35811289	      0.00000000	     -0.00000000	     -0.00000000	     -0.00000000	     -0.00000000	      0.00000000	      0.00000000
      0.12000000	      0.00000000	      0.00000000	      0.00000000	      0.00000000	      0.00000000	      0.00000000	      0.00000000	      0.00000000	      0.00000000	      0.00000000	      0.00000000	      0.00000000	      0.00000000	      0.00000000	      0.00000000	      2.66629755	      5.79415563	     12.55824304	      2.79949854	     13.23288313	     10.98842395	      6.09491316	     12.34770110	      1.35318867	      0.67902555	      0.00000000	      0.00776133	      0.00000000	      4.78117149	     10.12475243	      3.88653271	     13.16421580	      5.18371728	      7.88945130	      5.18104453	     12.37169540	      0.00000000	      0.00000000	      0.00000000	      0.00000000	      0.00000000	      0.00000000	      0.00000000	      0.00000000	      0.00000000	      0.00000000	      0.00000000	      0.00000000	      0.00000000	      0.00000000	      0.00000000	      0.00000000	     -3.74841422	      0.28390432	     -0.79025743	     -0.32682160	      1.09648883	     -0.13249495	     -0.27428246	      0.00000000	      0.00000000	      0.00000000	     -0.00000000	     -0.00000000	     -0.00000000	      0.00000000
      0.12400000	      0.00000000	      0.00000000	      0.00000000	      0.00000000	      0.00000000	      0.00000000	      0.00000000	      0.00000000	      0.00000000	      0.00000000	      0.00000000	      0.00000000	      0.00000000	      0.00000000	      0.00000000	      2.79421461	      4.99392007	     13.16073152	      2.21412221	     13.86773783	      9.99107824	      6.38731990	     11.27680713	      1.41810863	      2.52729433	      0.00000000	      0.02352606	      0.00000000	     37.69913461	     10.61049289	      6.38725615	     13.79577615	     31.79178773	      8.26795198	      5.80536946	     12.96523416	      0.00000000	      0.00000000	      0.00000000	      0.00000000	      0.00000000	      0.00000000	      0.00000000	      0.00000000	      0.00000000	      0.00000000	      0.00000000	      0.00000000	      0.00000000	      0.00000000	      0.00000000	      0.00000000	      1.33078905	     -3.60324889	     -1.86707832	      0.78743371	      1.90282799	      0.92279578	     -0.22490369	     -0.00000000	     -0.00000000	      0.00000000	     -0.00000000	     -0.00000000	     -0.00000000	      0.00000000
      0.12800000	      0.00000000	      0.00000000	      0.00000000	      0.00000000	      0.00000000	      0.00000000	      0.00000000	      0.00000000	      0.00000000	      0.00000000	      0.00000000	      0.00000000	      0.00000000	      0.00000000	      0.00000000	      2.61855322	      5.60297006	     12.33336755	      2.64791715	     12.99592712	     10.67946817	      5.98577396	     12.03873245	      1.32895766	      0.84094171	      0.00000000	      0.04578390	      0.00000000	      4.74229318	      9.94345249	      3.77392686	     12.92848940	      5.05109056	      7.74817801	      4.99113446	     12.15016035	      0.00000000	      0.00000000	      0.00000000	      0.00000000	      0.00000000	      0.00000000	      0.00000000	      0.00000000	      0.00000000	      0.00000000	      0.00000000	      0.00000000	      0.00000000	      0.00000000	     -0.00000000	      0.00000000	      5.44578199	     -0.50128967	      0.37595615	     -0.10097252	      0.58919277	     -0.71500951	      0.05515578	      0.00000000	      0.00000000	      0.00000000	      0.00000000	     -0.00000000	     -0.00000000	     -0.00000000
      0.13200000	      0.00000000	      0.00000000	      0.00000000	      0.00000000	      0.00000000	      0.00000000	      0.00000000	      0.00000000	      0.00000000	      0.00000000	      0.00000000	      0.00000000	      0.00000000	      0.00000000	      0.00000000	      2.63630480	      5.10180516	     12.41697738	      2.33700308	     13.08402855	     10.10693829	      6.02635246	     11.46703755	      1.33796687	      1.34354452	      0.00000000	      0.07628284	      0.00000000	      6.75104260	     10.01086072	      4.25441816	     13.01613365	      6.31542591	      7.80070413	      5.46908673	     12.23252819	      0.00000000	      0.00000000	      0.00000000	      0.00000000	      0.00000000	      0.00000000	      0.00000000	      0.00000000	      0.00000000	      0.00000000	      0.00000000	      0.00000000	      0.00000000	      0.00000000	      0.00000000	     -0.00000000	     -1.88689801	     -2.68733632	      0.60738451	      0.24036870	      0.89234641	      0.70499285	      0.22250390	     -0.00000000	      0.00000000	      0.00000000	     -0.00000000	      0.00000000	     -0.00000000	     -0.00000000
      0.13600000	      0.00000000	      0.00000000	      0.00000000	      0.00000000	      0.00000000	      0.00000000	      0.00000000	      0.00000000	      0.00000000	      0.00000000	      0.00000000	      0.00000000	      0.00000000	      0.00000000	      0.00000000	      3.55081403	      4.68193284	     16.72430955	      2.03363371	     17.62275446	      9.52069430	      8.11683720	     10.86514989	      1.80209494	      9.67090268	      0.00000000	      0.20520010	      0.00000000	     65.61195144	     13.48353374	      5.26508683	     17.53130747	     44.42650180	     10.50669471	      5.46519082	     16.47587667	      0.00000000	      0.00000000	      0.00000000	      0.00000000	      0.00000000	      0.00000000	      0.00000000	      0.00000000	      0.00000000	      0.00000000	      0.00000000	      0.00000000	      0.00000000	     -0.00000000	      0.00000000	      0.00000000	    -33.42232733	     -0.00087979	     -5.85090611	      1.39182768	      3.89783443	      4.40016593	     -1.32614591	     -0.00000000	      0.00000000	      0.00000000	      0.00000000	      0.00000000	      0.00000000	     -0.00000000
      0.14000000	      0.00000000	      0.00000000	      0.00000000	      0.00000000	      0.00000000	      0.00000000	      0.00000000	      0.00000000	      0.00000000	      0.00000000	      0.00000000	      0.00000000	      0.00000000	      0.00000000	      0.00000000	      4.96464614	     27.67732584	     23.38344902	      7.55130514	     24.63962888	    125.43994671	     11.34872853	    175.06755194	      2.51963736	      1.10808369	      0.00000000	      0.26451969	      0.00000000	      4.83758003	     18.85228941	      3.59877131	     24.51177032	      5.21114692	     14.69015861	      5.01348132	     23.03609731	      0.00000000	      0.00000000	      0.00000000	      0.00000000	      0.00000000	      0.00000000	      0.00000000	      0.00000000	      0.00000000	      0.00000000	      0.00000000	      0.00000000	      0.00000000	     -0.00000000	     -0.00000000	      0.00000000	     40.06954097	      4.72583293	      6.61273379	     -1.61474630	      2.29328591	     -5.06645472	      1.27573186	     -0.00000000	      0.00000000	      0.00000000	      0.00000000	      0.00000000	      0.00000000	      0.00000000
      0.14400000	      0.00000000	      0.00000000	      0.00000000	      0.00000000	      0.00000000	      0.00000000	      0.00000000	      0.00000000	      0.00000000	      0.00000000	      0.00000000	      0.00000000	      0.00000000	      0.00000000	      0.00000000	      2.85196278	      5.25067074	     13.43272496	      2.46799743	     14.15434300	     10.06740439	      6.51932693	     11.44871953	      1.44741675	      1.65109649	      0.00000000	      0.18956948	      0.00000000	     12.95316538	     10.82978043	      5.33476213	     14.08089409	     11.13458904	      8.43882612	      6.54540695	     13.23318725	      0.00000000	      0.00000000	      0.00000000	      0.00000000	      0.00000000	      0.00000000	      0.00000000	      0.00000000	      0.00000000	      0.00000000	      0.00000000	      0.00000000	      0.00000000	     -0.00000000	      0.00000000	      0.00000000	     -7.54529483	      0.09225607	      0.72949454	      0.21967675	      0.54865468	      0.33206628	      0.16712457	     -0.00000000	      0.00000000	      0.00000000	     -0.00000000	      0.00000000	      0.00000000	      0.00000000
      0.14800000	      0.00000000	      0.00000000	      0.00000000	      0.00000000	      0.00000000	      0.00000000	      0.00000000	      0.00000000	      0.00000000	      0.00000000	      0.00000000	      0.00000000	      0.00000000	      0.00000000	      0.00000000	      3.92746600	      4.61465564	     18.49833772	      1.97372498	     19.49208502	      9.46045032	      8.97782927	     10.87943206	      1.99325184	     11.27317883	      0.00000000	      0.45132178	      0.00000000	     61.83396416	     14.91379719	      6.51811975	     19.39093781	     47.18189952	     11.62119049	      5.49653932	     18.22355237	      0.00000000	      0.00000000	      0.00000000	      0.00000000	      0.00000000	      0.00000000	      0.00000000	      0.00000000	      0.00000000	      0.00000000	      0.00000000	      0.00000000	      0.00000000	     -0.00000000	      0.00000000	     -0.00000000	     20.11507706	     -8.81411119	     -3.42864675	      1.40964336	      3.71594295	      0.91360839	     -0.57576547	     -0.00000000	     -0.00000000	      0.00000000	      0.00000000	     -0.00000000	      0.00000000	      0.00000000
      0.15200000	      0.00000000	      0.00000000	      0.00000000	      0.00000000	      0.00000000	      0.00000000	      0.00000000	      0.00000000	      0.00000000	      0.00000000	      0.00000000	      0.00000000	      0.00000000	      0.00000000	      0.00000000	      3.65427821	      5.01020673	     17.21162513	      2.29449059	     18.13624907	     10.06663263	      8.35334689	     11.57732546	      1.85460467	      3.39180866	      0.00000000	      0.34437729	      0.00000000	     33.61642354	     13.87641908	      7.72320491	     18.04213748	     31.06037352	     10.81284044	      7.94997417	     16.95595337	      0.00000000	      0.00000000	      0.00000000	      0.00000000	      0.00000000	      0.00000000	      0.00000000	      0.00000000	      0.00000000	      0.00000000	      0.00000000	      0.00000000	      0.00000000	     -0.00000000	     -0.00000000	      0.00000000	    -16.31973132	      3.53109180	     -2.49596176	      0.62178401	      1.50581457	      0.77667733	     -0.68034113	     -0.00000000	     -0.00000000	     -0.00000000	     -0.00000000	      0.00000000	      0.00000000	     -0.00000000
      0.15600000	      0.00000000	      0.00000000	      0.00000000	      0.00000000	      0.00000000	      0.00000000	      0.00000000	      0.00000000	      0.00000000	      0.00000000	      0.00000000	      0.00000000	      0.00000000	      0.00000000	      0.00000000	      4.70490934	      3.61594656	     22.16009047	      1.77921887	     23.35055041	      7.41061473	     10.75499388	      8.67701412	      2.38781678	     15.76611811	      0.00000000	      0.97533740	      0.00000000	     51.75687640	     17.86598883	     12.70667271	     23.22938107	     48.12428570	     13.92160941	     19.49285064	     21.83091126	      0.00000000	      0.00000000	      0.00000000	      0.00000000	      0.00000000	      0.00000000	      0.00000000	      0.00000000	      0.00000000	      0.00000000	      0.00000000	      0.00000000	      0.00000000	     -0.00000000	     -0.00000000	      0.00000000	    -84.40250585	     13.04310913	     -7.96550888	      1.13607620	      1.82562813	      5.29650227	     -2.28005494	     -0.00000000	     -0.00000000	      0.00000000	      0.00000000	     -0.00000000	      0.00000000	     -0.00000000
      0.16000000	      0.00000000	      0.00000000	      0.00000000	      0.00000000	      0.00000000	      0.00000000	      0.00000000	      0.00000000	      0.00000000	      0.00000000	      0.00000000	      0.00000000	      0.00000000	      0.00000000	      0.00000000	      5.02347676	     25.90286023	     23.66054084	      6.14693430	     24.93160632	    130.66029484	     11.48320997	    191.25828488	      2.54949484	      1.34241508	      0.00000000	      0.51104168	      0.00000000	      3.45986114	     19.07568739	      2.23099178	     24.80223266	      3.49339617	     14.86423571	      3.13037114	     23.30907304	      0.00000000	      0.00000000	      0.00000000	      0.00000000	      0.00000000	      0.00000000	      0.00000000	      0.00000000	      0.00000000	      0.00000000	      0.00000000	      0.00000000	      0.00000000	      0.00000000	     -0.00000000	     -0.00000000	     89.56345151	    -14.14175208	      7.87584459	     -3.20521494	      4.53444394	     -5.91313908	      2.19591479	      0.00000000	      0.00000000	     -0.00000000	     -0.00000000	      0.00000000	     -0.00000000	      0.00000000
      0.16400000	      0.00000000	      0.00000000	      0.00000000	      0.00000000	      0.00000000	      0.00000000	      0.00000000	      0.00000000	      0.00000000	      0.00000000	      0.00000000	      0.00000000	      0.00000000	      0.00000000	      0.00000000	      3.60145831	      5.19716520	     16.96284376	      2.43872082	     17.87410295	     10.13155714	      8.23260541	     11.63019069	      1.82779772	      4.21222150	      0.00000000	      0.49193943	      0.00000000	     15.70063897	     13.67584566	      5.47525756	     17.78135167	     11.09557860	     10.65654879	      7.02584748	     16.71086755	      0.00000000	      0.00000000	      0.00000000	      0.00000000	      0.00000000	      0.00000000	      0.00000000	      0.00000000	      0.00000000	      0.00000000	      0.00000000	      0.00000000	      0.00000000	      0.00000000	     -0.00000000	      0.00000000	     21.35183305	     -3.12160693	      3.21544926	      0.50680908	      1.59562124	     -0.52425885	      0.72945881	     -0.00000000	      0.00000000	     -0.00000000	      0.00000000	     -0.00000000	      0.00000000	     -0.00000000
      0.16800000	      0.00000000	      0.00000000	      0.00000000	      0.00000000	      0.00000000	      0.00000000	      0.00000000	      0.00000000	      0.00000000	      0.00000000	      0.00000000	      0.00000000	      0.00000000	      0.00000000	      0.00000000	      4.02903753	      4.61958823	     18.97673893	      1.97771730	     19.99618637	      9.50732548	      9.21001253	     11.02160774	      2.04480102	     10.42948077	      0.00000000	      0.86990699	      0.00000000	     48.64764454	     15.29949556	      8.42540636	     19.89242330	     44.34895107	     11.92173595	      9.10647261	     18.69484712	      0.00000000	      0.00000000	      0.00000000	      0.00000000	      0.00000000	      0.00000000	      0.00000000	      0.00000000	      0.00000000	      0.00000000	      0.00000000	      0.00000000	      0.00000000	      0.00000000	     -0.00000000	     -0.00000000	    -23.81652100	      2.20453646	     -3.84841551	      1.07594446	      2.38590505	      2.07108598	     -1.00407825	     -0.00000000	     -0.00000000	     -0.00000000	     -0.00000000	      0.00000000	      0.00000000	     -0.00000000
      0.17200000	      0.00000000	      0.00000000	      0.00000000	      0.00000000	      0.00000000	      0.00000000	      0.00000000	      0.00000000	      0.00000000	      0.00000000	      0.00000000	      0.00000000	      0.00000000	      0.00000000	      0.00000000	      2.63639666	      5.86306606	     12.41741004	      2.51685866	     13.08448445	     11.69993030	      6.02656244	     13.72430613	      1.33801349	      1.15605883	      0.00000000	      0.39088676	      0.00000000	      4.21846156	     10.01120954	      2.97359684	     13.01658719	      4.61338384	      7.80097594	      4.58404658	     12.23295442	      0.00000000	      0.00000000	      0.00000000	      0.00000000	      0.00000000	      0.00000000	      0.00000000	      0.00000000	      0.00000000	      0.00000000	      0.00000000	      0.00000000	      0.00000000	      0.00000000	     -0.00000000	     -0.00000000	     16.93930416	     -7.23874200	     -1.37761079	     -0.38695767	      0.93503390	     -0.88942891	      0.09890336	      0.00000000	     -0.00000000	      0.00000000	     -0.00000000	      0.00000000	     -0.00000000	      0.00000000
      0.17600000	      0.00000000	      0.00000000	      0.00000000	      0.00000000	      0.00000000	      0.00000000	      0.00000000	      0.00000000	      0.00000000	      0.00000000	      0.00000000	      0.00000000	      0.00000000	      0.00000000	      0.00000000	      3.08377522	      5.00837901	     14.52455998	      2.27220559	     15.30483237	      9.78058902	      7.04922905	     11.32238347	      1.56506527	      3.75995623	      0.00000000	      0.62089932	      0.00000000	     12.15926645	     11.71004363	      4.35494401	     15.22541341	      9.67275399	      9.12474844	      5.71793916	     14.30880349	      0.00000000	      0.00000000	      0.00000000	      0.00000000	      0.00000000	      0.00000000	      0.00000000	      0.00000000	      0.00000000	      0.00000000	      0.00000000	      0.00000000	      0.00000000	     -0.00000000	     -0.00000000	      0.00000000	     -8.28127606	      0.59177126	     -1.30857224	      0.31596074	      0.84709239	      0.61930762	     -0.30196197	     -0.00000000	     -0.00000000	     -0.00000000	     -0.00000000	      0.00000000	      0.00000000	      0.00000000
      0.18000000	      0.00000000	      0.00000000	      0.00000000	      0.00000000	      0.00000000	      0.00000000	      0.00000000	      0.00000000	      0.00000000	      0.00000000	      0.00000000	      0.00000000	      0.00000000	      0.00000000	      0.00000000	      2.63065157	      6.04308135	     12.39035073	      2.46764451	     13.05597149	     12.71512183	      6.01342970	     15.52868016	      1.33509777	      1.32324465	      0.00000000	      0.49129638	      0.00000000	      4.28785972	      9.98939368	      2.94892404	     12.98822218	      4.70666906	      7.78397649	      4.62674183	     12.20629706	      0.00000000	      0.00000000	      0.00000000	      0.00000000	      0.00000000	      0.00000000	      0.00000000	      0.00000000	      0.00000000	      0.00000000	      0.00000000	      0.00000000	      0.00000000	     -0.00000000	      0.00000000	      0.00000000	      3.56378849	     -1.30454553	      0.41143736	     -0.33543200	      0.71262988	     -0.28867066	      0.16145413	     -0.00000000	      0.00000000	      0.00000000	      0.00000000	     -0.00000000	      0.00000000	     -0.00000000
      0.18400000	      0.00000000	      0.00000000	      0.00000000	      0.00000000	      0.00000000	      0.00000000	      0.00000000	      0.00000000	      0.00000000	      0.00000000	      0.00000000	      0.00000000	      0.00000000	      0.00000000	      0.00000000	      4.46584524	      5.52087718	     21.03410020	      2.76144717	     22.16407093	     10.03746584	     10.20851513	     11.55769439	      2.26648792	      7.13513230	      0.00000000	      1.16813489	      0.00000000	     17.87166113	     16.95818885	      5.99618210	     22.04905840	     13.71848224	     13.21422977	      7.26039839	     20.72164712	      0.00000000	      0.00000000	      0.00000000	      0.00000000	      0.00000000	      0.00000000	      0.00000000	      0.00000000	      0.00000000	      0.00000000	      0.00000000	      0.00000000	      0.00000000	      0.00000000	      0.00000000	     -0.00000000	     -0.31384936	     -2.53130140	     -0.72651391	      0.47932205	      1.33385166	      0.30797292	     -0.08078682	      0.00000000	      0.00000000	      0.00000000	     -0.00000000	     -0.00000000	      0.00000000	      0.00000000
      0.18800000	      0.00000000	      0.00000000	      0.00000000	      0.00000000	      0.00000000	      0.00000000	      0.00000000	      0.00000000	      0.00000000	      0.00000000	      0.00000000	      0.00000000	      0.00000000	      0.00000000	      0.00000000	      3.94850653	      9.05509080	     18.59743848	      3.59223451	     19.59650956	     19.43167802	      9.02592601	     24.17020426	      2.00393025	      2.08937615	      0.00000000	      0.86204226	      0.00000000	      5.27112758	     14.99369456	      3.73022814	     19.49482047	      5.70429493	     11.68344844	      5.60092471	     18.32118102	      0.00000000	      0.00000000	      0.00000000	      0.00000000	      0.00000000	      0.00000000	      0.00000000	      0.00000000	      0.00000000	      0.00000000	      0.00000000	      0.00000000	      0.00000000	     -0.00000000	     -0.00000000	      0.00000000	     -1.70582023	     -0.80174788	     -0.69765058	     -0.41197893	      0.77401994	      0.14612078	     -0.05277043	     -0.00000000	      0.00000000	     -0.00000000	      0.00000000	     -0.00000000	     -0.00000000	      0.00000000
      0.19200000	      0.00000000	      0.00000000	      0.00000000	      0.00000000	      0.00000000	      0.00000000	      0.00000000	      0.00000000	      0.00000000	      0.00000000	      0.00000000	      0.00000000	      0.00000000	      0.00000000	      0.00000000	      3.48984901	     11.05485384	     16.43716470	      3.58523997	     17.32018394	     41.10231501	      7.97747671	     64.28265007	      1.77115421	      1.39183313	      0.00000000	      0.66191398	      0.00000000	      4.26882379	     13.25203078	      2.78365735	     17.23030703	      4.78247270	     10.32630201	      4.61733712	     16.19299724	      0.00000000	      0.00000000	      0.00000000	      0.00000000	      0.00000000	      0.00000000	      0.00000000	      0.00000000	      0.00000000	      0.00000000	      0.00000000	      0.00000000	      0.00000000	      0.00000000	      0.00000000	     -0.00000000	     11.30254523	     -2.76267753	      0.66114269	     -0.97572387	      1.64057649	     -0.96310755	      0.34141554	      0.00000000	      0.00000000	     -0.00000000	      0.00000000	      0.00000000	     -0.00000000	      0.00000000
      0.19600000	      0.00000000	      0.00000000	      0.00000000	      0.00000000	      0.00000000	      0.00000000	      0.00000000	      0.00000000	      0.00000000	      0.00000000	      0.00000000	      0.00000000	      0.00000000	      0.00000000	      0.00000000	      4.72765829	      4.86173656	     22.26723785	      2.33989030	     23.46345385	      9.66724785	     10.80699589	     11.37904456	      2.39936223	     11.54066874	      0.00000000	      1.84277687	      0.00000000	     33.50206639	     17.95237358	      7.86550434	     23.34169863	     31.73095851	     13.98892249	      9.90105115	     21.93646701	      0.00000000	      0.00000000	      0.00000000	      0.00000000	      0.00000000	      0.00000000	      0.00000000	      0.00000000	      0.00000000	      0.00000000	      0.00000000	      0.00000000	      0.00000000	     -0.00000000	     -0.00000000	      0.00000000	    -14.19200351	      3.05118319	     -1.37265534	      0.65603435	      1.60005550	      1.68224546	     -0.46173134	     -0.00000000	     -0.00000000	     -0.00000000	     -0.00000000	      0.00000000	      0.00000000	     -0.00000000
      0.20000000	      0.00000000	      0.00000000	      0.00000000	      0.00000000	      0.00000000	      0.00000000	      0.00000000	      0.00000000	      0.00000000	      0.00000000	      0.00000000	      0.00000000	      0.00000000	      0.00000000	      0.00000000	      2.99947988	      7.00358984	     14.12752953	      2.57046767	     14.88647309	     19.69792919	      6.85653760	     33.08638069	      1.52228404	      1.70106295	      0.00000000	      0.79064471	      0.00000000	      4.05468051	     11.38994830	      2.59285517	     14.80922505	      4.51786795	      8.87532243	      4.25242101	     13.91767077	      0.00000000	      0.00000000	      0.00000000	      0.00000000	      0.00000000	      0.00000000	      0.00000000	      0.00000000	      0.00000000	      0.00000000	      0.00000000	      0.00000000	      0.00000000	      0.00000000	      0.00000000	      0.00000000	     27.16343298	     -6.07656936	      0.22346190	     -0.82779687	      1.60650777	     -1.53706793	      0.40748252	     -0.00000000	      0.00000000	      0.00000000	      0.00000000	      0.00000000	     -0.00000000	     -0.00000000
